<?xml version="1.0" encoding="UTF-8"?>
<gpx version="1.1" creator="phpGPX/1.0RC5" schemaLocation="http://www.topografix.com/GPX/1/1 http://www.topografix.com/GPX/1/1/gpx.xsd http://www.garmin.com/xmlschemas/GpxExtensions/v3 http://www.garmin.com/xmlschemas/GpxExtensionsv3.xsd http://www.garmin.com/xmlschemas/TrackPointExtension/v1 http://www.garmin.com/xmlschemas/TrackPointExtensionv1.xsd http://www.garmin.com/xmlschemas/PowerExtension/v1 http://www.garmin.com/xmlschemas/PowerExtensionv1.xsd http://www.topografix.com/GPX/gpx_style/0/2 http://www.topografix.com/GPX/gpx_style/0/2/gpx_style.xsd" xmlns="http://www.topografix.com/GPX/1/1" xmlns:xsi="http://www.w3.org/2001/XMLSchema-instance" xsi:schemaLocation="http://www.topografix.com/GPX/1/1 http://www.topografix.com/GPX/1/1/gpx.xsd http://www.garmin.com/xmlschemas/GpxExtensions/v3 http://www.garmin.com/xmlschemas/GpxExtensionsv3.xsd http://www.garmin.com/xmlschemas/TrackPointExtension/v1 http://www.garmin.com/xmlschemas/TrackPointExtensionv1.xsd http://www.garmin.com/xmlschemas/PowerExtension/v1 http://www.garmin.com/xmlschemas/PowerExtensionv1.xsd http://www.topografix.com/GPX/gpx_style/0/2 http://www.topografix.com/GPX/gpx_style/0/2/gpx_style.xsd" xmlns:gpxtpx="http://www.garmin.com/xmlschemas/TrackPointExtension/v1" xmlns:gpxx="http://www.garmin.com/xmlschemas/GpxExtensions/v3" xmlns:gpxpx="http://www.garmin.com/xmlschemas/PowerExtension/v1" xmlns:gpx_style="http://www.topografix.com/GPX/gpx_style/0/2">
  <metadata>
    <name>Близниці з Квасів</name>
    <author>
      <name>gpx.studio</name>
      <link href="https://gpx.studio"/>
    </author>
  </metadata>
  <trk>
    <name>Близниці з Квасів</name>
    <trkseg>
      <trkpt lat="48.162525" lon="24.277962">
        <ele>551.5996467837831</ele>
      </trkpt>
      <trkpt lat="48.162553" lon="24.277715">
        <ele>556.2234114479506</ele>
      </trkpt>
      <trkpt lat="48.162818" lon="24.277512">
        <ele>560.0704880794123</ele>
      </trkpt>
      <trkpt lat="48.162239" lon="24.277147">
        <ele>576.4701551711607</ele>
      </trkpt>
      <trkpt lat="48.162124" lon="24.276589">
        <ele>586.4683661272848</ele>
      </trkpt>
      <trkpt lat="48.160972" lon="24.276417">
        <ele>607.8892343362677</ele>
      </trkpt>
      <trkpt lat="48.160485" lon="24.276192">
        <ele>622.6920568394125</ele>
      </trkpt>
      <trkpt lat="48.159489" lon="24.275945">
        <ele>649.0514764483547</ele>
      </trkpt>
      <trkpt lat="48.158501" lon="24.275838">
        <ele>649.7487035766803</ele>
      </trkpt>
      <trkpt lat="48.15795" lon="24.275548">
        <ele>651.1580346844858</ele>
      </trkpt>
      <trkpt lat="48.157685" lon="24.275108">
        <ele>654.7772593664091</ele>
      </trkpt>
      <trkpt lat="48.15722" lon="24.274679">
        <ele>663.1054094049972</ele>
      </trkpt>
      <trkpt lat="48.156977" lon="24.273864">
        <ele>677.8805180477211</ele>
      </trkpt>
      <trkpt lat="48.156406" lon="24.274126">
        <ele>684.3668034151382</ele>
      </trkpt>
      <trkpt lat="48.155597" lon="24.272731">
        <ele>710.8124603053883</ele>
      </trkpt>
      <trkpt lat="48.154824" lon="24.272398">
        <ele>725.588155792153</ele>
      </trkpt>
      <trkpt lat="48.154094" lon="24.271583">
        <ele>741.4727576680489</ele>
      </trkpt>
      <trkpt lat="48.154252" lon="24.270479">
        <ele>759.1505970865255</ele>
      </trkpt>
      <trkpt lat="48.153779" lon="24.269921">
        <ele>771.7665993943881</ele>
      </trkpt>
      <trkpt lat="48.153135" lon="24.268698">
        <ele>801.7305152002955</ele>
      </trkpt>
      <trkpt lat="48.152412" lon="24.268269">
        <ele>813.4755989337573</ele>
      </trkpt>
      <trkpt lat="48.151356" lon="24.267339">
        <ele>836.8988798703067</ele>
      </trkpt>
      <trkpt lat="48.150719" lon="24.267296">
        <ele>844.3750351349277</ele>
      </trkpt>
      <trkpt lat="48.149953" lon="24.267082">
        <ele>856.8309894429956</ele>
      </trkpt>
      <trkpt lat="48.14928" lon="24.267275">
        <ele>865.3059440947743</ele>
      </trkpt>
      <trkpt lat="48.148529" lon="24.267135">
        <ele>874.4332020065373</ele>
      </trkpt>
      <trkpt lat="48.148429" lon="24.26676">
        <ele>877.6904301494361</ele>
      </trkpt>
      <trkpt lat="48.148973" lon="24.265784">
        <ele>894.7239632107867</ele>
      </trkpt>
      <trkpt lat="48.149444" lon="24.265166">
        <ele>905.311911216551</ele>
      </trkpt>
      <trkpt lat="48.150153" lon="24.263643">
        <ele>929.2175040744478</ele>
      </trkpt>
      <trkpt lat="48.150704" lon="24.263503">
        <ele>943.3307287564967</ele>
      </trkpt>
      <trkpt lat="48.150975" lon="24.263195">
        <ele>952.9633677918246</ele>
      </trkpt>
      <trkpt lat="48.150717" lon="24.262315">
        <ele>968.4750575681378</ele>
      </trkpt>
      <trkpt lat="48.150445" lon="24.259772">
        <ele>1016.3787338176626</ele>
      </trkpt>
      <trkpt lat="48.149916" lon="24.256661">
        <ele>1081.3568606454708</ele>
      </trkpt>
      <trkpt lat="48.150596" lon="24.25547">
        <ele>1080.2218711709138</ele>
      </trkpt>
      <trkpt lat="48.151257" lon="24.255266">
        <ele>1075.0454024965063</ele>
      </trkpt>
      <trkpt lat="48.151579" lon="24.254998">
        <ele>1078.5150509625673</ele>
      </trkpt>
      <trkpt lat="48.152144" lon="24.254966">
        <ele>1081.7089678222546</ele>
      </trkpt>
      <trkpt lat="48.152874" lon="24.254912">
        <ele>1079.290940148989</ele>
      </trkpt>
      <trkpt lat="48.154837" lon="24.253617">
        <ele>1059.4623152883732</ele>
      </trkpt>
      <trkpt lat="48.155817" lon="24.253155">
        <ele>1051.1319254488787</ele>
      </trkpt>
      <trkpt lat="48.156977" lon="24.252544">
        <ele>1046.3102996745147</ele>
      </trkpt>
      <trkpt lat="48.157665" lon="24.252073">
        <ele>1049.5652843488847</ele>
      </trkpt>
      <trkpt lat="48.15808" lon="24.252041">
        <ele>1053.2492696099216</ele>
      </trkpt>
      <trkpt lat="48.158767" lon="24.251794">
        <ele>1062.1026380889816</ele>
      </trkpt>
      <trkpt lat="48.159568" lon="24.251333">
        <ele>1065.372911644401</ele>
      </trkpt>
      <trkpt lat="48.160105" lon="24.250507">
        <ele>1066.564294973938</ele>
      </trkpt>
      <trkpt lat="48.160674" lon="24.249992">
        <ele>1062.2211427555885</ele>
      </trkpt>
      <trkpt lat="48.161762" lon="24.248382">
        <ele>1074.8605487301827</ele>
      </trkpt>
      <trkpt lat="48.162535" lon="24.246473">
        <ele>1109.6195907328604</ele>
      </trkpt>
      <trkpt lat="48.162377" lon="24.245185">
        <ele>1132.0446807051776</ele>
      </trkpt>
      <trkpt lat="48.162692" lon="24.243061">
        <ele>1169.8011477333494</ele>
      </trkpt>
      <trkpt lat="48.16275" lon="24.24055">
        <ele>1199.7724019660382</ele>
      </trkpt>
      <trkpt lat="48.162234" lon="24.239005">
        <ele>1220.3424426665297</ele>
      </trkpt>
      <trkpt lat="48.163222" lon="24.238169">
        <ele>1235.2114786705351</ele>
      </trkpt>
      <trkpt lat="48.163553" lon="24.237961">
        <ele>1238.66587770933</ele>
      </trkpt>
      <trkpt lat="48.164569" lon="24.236395">
        <ele>1255.3726321738213</ele>
      </trkpt>
      <trkpt lat="48.167203" lon="24.234506">
        <ele>1258.756674168515</ele>
      </trkpt>
      <trkpt lat="48.168202" lon="24.232275">
        <ele>1267.5233904429756</ele>
      </trkpt>
      <trkpt lat="48.169962" lon="24.230429">
        <ele>1268.583505802689</ele>
      </trkpt>
      <trkpt lat="48.170506" lon="24.229142">
        <ele>1274.9261536492268</ele>
      </trkpt>
      <trkpt lat="48.17145" lon="24.225966">
        <ele>1292.410907205848</ele>
      </trkpt>
      <trkpt lat="48.171837" lon="24.224306">
        <ele>1309.0443993617082</ele>
      </trkpt>
      <trkpt lat="48.171837" lon="24.222182">
        <ele>1346.0256507715674</ele>
      </trkpt>
      <trkpt lat="48.172066" lon="24.220894">
        <ele>1368.4685856142314</ele>
      </trkpt>
      <trkpt lat="48.172953" lon="24.217418">
        <ele>1410.9884050692885</ele>
      </trkpt>
      <trkpt lat="48.173566" lon="24.216786">
        <ele>1417.165525687742</ele>
      </trkpt>
      <trkpt lat="48.174553" lon="24.215499">
        <ele>1429.9754562026937</ele>
      </trkpt>
      <trkpt lat="48.175884" lon="24.214469">
        <ele>1431.603671314875</ele>
      </trkpt>
      <trkpt lat="48.176871" lon="24.213074">
        <ele>1423.6576328719912</ele>
      </trkpt>
      <trkpt lat="48.17793" lon="24.211868">
        <ele>1441.491724921898</ele>
      </trkpt>
      <trkpt lat="48.17929" lon="24.210774">
        <ele>1462.1663074582289</ele>
      </trkpt>
      <trkpt lat="48.180134" lon="24.209679">
        <ele>1462.8593438303794</ele>
      </trkpt>
      <trkpt lat="48.181336" lon="24.209164">
        <ele>1469.2200900206808</ele>
      </trkpt>
      <trkpt lat="48.182283" lon="24.21043">
        <ele>1455.7884912931477</ele>
      </trkpt>
      <trkpt lat="48.183457" lon="24.211353">
        <ele>1411.4735384414205</ele>
      </trkpt>
      <trkpt lat="48.184243" lon="24.211224">
        <ele>1389.7344405678623</ele>
      </trkpt>
      <trkpt lat="48.184472" lon="24.211031">
        <ele>1381.7462722455698</ele>
      </trkpt>
      <trkpt lat="48.184959" lon="24.210237">
        <ele>1361.401468024933</ele>
      </trkpt>
      <trkpt lat="48.18529" lon="24.210344">
        <ele>1357.7870352018438</ele>
      </trkpt>
      <trkpt lat="48.185619" lon="24.210902">
        <ele>1359.8400972714949</ele>
      </trkpt>
      <trkpt lat="48.186005" lon="24.211246">
        <ele>1355.599631256754</ele>
      </trkpt>
      <trkpt lat="48.186305" lon="24.211689">
        <ele>1354.8576536398637</ele>
      </trkpt>
      <trkpt lat="48.186806" lon="24.211904">
        <ele>1343.226812412416</ele>
      </trkpt>
      <trkpt lat="48.187101" lon="24.211911">
        <ele>1337.9352246711496</ele>
      </trkpt>
      <trkpt lat="48.187401" lon="24.212479">
        <ele>1338.7353683130814</ele>
      </trkpt>
      <trkpt lat="48.18768" lon="24.212951">
        <ele>1334.9643806136446</ele>
      </trkpt>
      <trkpt lat="48.18816" lon="24.213638">
        <ele>1331.8013912014062</ele>
      </trkpt>
      <trkpt lat="48.188903" lon="24.215054">
        <ele>1327.6346062374075</ele>
      </trkpt>
      <trkpt lat="48.189629" lon="24.215535">
        <ele>1313.045558858735</ele>
      </trkpt>
      <trkpt lat="48.190402" lon="24.215374">
        <ele>1316.540072423406</ele>
      </trkpt>
      <trkpt lat="48.191139" lon="24.21458">
        <ele>1324.427615384804</ele>
      </trkpt>
      <trkpt lat="48.191324" lon="24.213872">
        <ele>1322.2740542283866</ele>
      </trkpt>
      <trkpt lat="48.191811" lon="24.213035">
        <ele>1327.049861905061</ele>
      </trkpt>
      <trkpt lat="48.192397" lon="24.212756">
        <ele>1333.8733904303883</ele>
      </trkpt>
      <trkpt lat="48.19244" lon="24.213078">
        <ele>1341.3953287955374</ele>
      </trkpt>
      <trkpt lat="48.192641" lon="24.213142">
        <ele>1346.712893845688</ele>
      </trkpt>
      <trkpt lat="48.192955" lon="24.213013">
        <ele>1353.5697118751705</ele>
      </trkpt>
      <trkpt lat="48.193327" lon="24.212091">
        <ele>1346.422017560978</ele>
      </trkpt>
      <trkpt lat="48.193656" lon="24.212348">
        <ele>1355.3156937356384</ele>
      </trkpt>
      <trkpt lat="48.194543" lon="24.212734">
        <ele>1361.7715390793746</ele>
      </trkpt>
      <trkpt lat="48.195258" lon="24.212885">
        <ele>1362.9269642282968</ele>
      </trkpt>
      <trkpt lat="48.195559" lon="24.212563">
        <ele>1360.2041237748304</ele>
      </trkpt>
      <trkpt lat="48.195845" lon="24.212949">
        <ele>1367.4529903198127</ele>
      </trkpt>
      <trkpt lat="48.195988" lon="24.213164">
        <ele>1373.0477041788831</ele>
      </trkpt>
      <trkpt lat="48.196188" lon="24.213292">
        <ele>1377.9426347602857</ele>
      </trkpt>
      <trkpt lat="48.196431" lon="24.213443">
        <ele>1384.0915521970019</ele>
      </trkpt>
      <trkpt lat="48.196803" lon="24.212992">
        <ele>1382.9290921958907</ele>
      </trkpt>
      <trkpt lat="48.19727" lon="24.213448">
        <ele>1389.4642707416697</ele>
      </trkpt>
      <trkpt lat="48.197413" lon="24.215014">
        <ele>1396.3400559785077</ele>
      </trkpt>
      <trkpt lat="48.197127" lon="24.216795">
        <ele>1409.1837992181784</ele>
      </trkpt>
      <trkpt lat="48.196927" lon="24.218619">
        <ele>1426.5646633072804</ele>
      </trkpt>
      <trkpt lat="48.197714" lon="24.219821">
        <ele>1437.6129155942535</ele>
      </trkpt>
      <trkpt lat="48.198329" lon="24.220421">
        <ele>1451.5110063931822</ele>
      </trkpt>
      <trkpt lat="48.199015" lon="24.220314">
        <ele>1462.6740110369929</ele>
      </trkpt>
      <trkpt lat="48.199988" lon="24.223511">
        <ele>1501.475781904184</ele>
      </trkpt>
      <trkpt lat="48.20086" lon="24.225314">
        <ele>1536.0212555960752</ele>
      </trkpt>
      <trkpt lat="48.201561" lon="24.227588">
        <ele>1558.9323820897844</ele>
      </trkpt>
      <trkpt lat="48.202519" lon="24.228854">
        <ele>1563.260048720973</ele>
      </trkpt>
      <trkpt lat="48.20342" lon="24.229455">
        <ele>1549.2631055675974</ele>
      </trkpt>
      <trkpt lat="48.204607" lon="24.230035">
        <ele>1534.0942634378778</ele>
      </trkpt>
      <trkpt lat="48.205769" lon="24.231821">
        <ele>1551.22618935982</ele>
      </trkpt>
      <trkpt lat="48.207085" lon="24.232936">
        <ele>1601.3335702851764</ele>
      </trkpt>
      <trkpt lat="48.208801" lon="24.234524">
        <ele>1656.2164156452054</ele>
      </trkpt>
      <trkpt lat="48.210174" lon="24.236112">
        <ele>1712.3044031072059</ele>
      </trkpt>
      <trkpt lat="48.211575" lon="24.237228">
        <ele>1773.1229112958536</ele>
      </trkpt>
      <trkpt lat="48.212776" lon="24.237915">
        <ele>1822.0791372327367</ele>
      </trkpt>
      <trkpt lat="48.213863" lon="24.238086">
        <ele>1853.8079849984497</ele>
      </trkpt>
      <trkpt lat="48.214549" lon="24.238129">
        <ele>1864.4940370825402</ele>
      </trkpt>
      <trkpt lat="48.216293" lon="24.237786">
        <ele>1873.3667315989733</ele>
      </trkpt>
      <trkpt lat="48.216405" lon="24.237827">
        <ele>1873.5</ele>
      </trkpt>
      <trkpt lat="48.214518" lon="24.238321">
        <ele>1862.491975563304</ele>
      </trkpt>
      <trkpt lat="48.213546" lon="24.238943">
        <ele>1844.7899636467962</ele>
      </trkpt>
      <trkpt lat="48.211845" lon="24.240703">
        <ele>1780.5450127666545</ele>
      </trkpt>
      <trkpt lat="48.21063" lon="24.24272">
        <ele>1751.0796078907642</ele>
      </trkpt>
      <trkpt lat="48.209657" lon="24.244286">
        <ele>1742.0365572345918</ele>
      </trkpt>
      <trkpt lat="48.208599" lon="24.245574">
        <ele>1730.1309069775625</ele>
      </trkpt>
      <trkpt lat="48.207226" lon="24.247934">
        <ele>1699.025640076434</ele>
      </trkpt>
      <trkpt lat="48.20608" lon="24.251236">
        <ele>1651.14570562386</ele>
      </trkpt>
      <trkpt lat="48.204535" lon="24.254605">
        <ele>1578.067376387831</ele>
      </trkpt>
      <trkpt lat="48.204321" lon="24.255785">
        <ele>1560.8267723010347</ele>
      </trkpt>
      <trkpt lat="48.202586" lon="24.259102">
        <ele>1531.4357683259855</ele>
      </trkpt>
      <trkpt lat="48.199783" lon="24.25981">
        <ele>1489.3759555733996</ele>
      </trkpt>
      <trkpt lat="48.199001" lon="24.259511">
        <ele>1478.1834708063484</ele>
      </trkpt>
      <trkpt lat="48.1976" lon="24.258782">
        <ele>1454.9842370024417</ele>
      </trkpt>
      <trkpt lat="48.195182" lon="24.25713">
        <ele>1412.0002214413835</ele>
      </trkpt>
      <trkpt lat="48.194653" lon="24.257623">
        <ele>1399.2981039099013</ele>
      </trkpt>
      <trkpt lat="48.193075" lon="24.257462">
        <ele>1368.5847136055818</ele>
      </trkpt>
      <trkpt lat="48.190056" lon="24.257656">
        <ele>1290.5267059656326</ele>
      </trkpt>
      <trkpt lat="48.187405" lon="24.257257">
        <ele>1223.4088527251963</ele>
      </trkpt>
      <trkpt lat="48.185503" lon="24.257794">
        <ele>1182.7548811831512</ele>
      </trkpt>
      <trkpt lat="48.185174" lon="24.25745">
        <ele>1176.4334384669012</ele>
      </trkpt>
      <trkpt lat="48.185088" lon="24.255691">
        <ele>1153.7860424286023</ele>
      </trkpt>
      <trkpt lat="48.185174" lon="24.254511">
        <ele>1133.896937566999</ele>
      </trkpt>
      <trkpt lat="48.184959" lon="24.254317">
        <ele>1131.4973533030566</ele>
      </trkpt>
      <trkpt lat="48.185088" lon="24.253438">
        <ele>1118.5482772708567</ele>
      </trkpt>
      <trkpt lat="48.184744" lon="24.252322">
        <ele>1100.5725752967128</ele>
      </trkpt>
      <trkpt lat="48.185031" lon="24.25185">
        <ele>1085.3637883095507</ele>
      </trkpt>
      <trkpt lat="48.184644" lon="24.251271">
        <ele>1073.9170332465667</ele>
      </trkpt>
      <trkpt lat="48.183943" lon="24.251185">
        <ele>1058.557146139443</ele>
      </trkpt>
      <trkpt lat="48.18299" lon="24.251578">
        <ele>1039.6837161024591</ele>
      </trkpt>
      <trkpt lat="48.182361" lon="24.252501">
        <ele>1017.0187496760627</ele>
      </trkpt>
      <trkpt lat="48.181445" lon="24.253852">
        <ele>991.8951887154253</ele>
      </trkpt>
      <trkpt lat="48.18083" lon="24.256406">
        <ele>968.936829282296</ele>
      </trkpt>
      <trkpt lat="48.180143" lon="24.258831">
        <ele>917.641250573197</ele>
      </trkpt>
      <trkpt lat="48.179379" lon="24.260122">
        <ele>888.3527827831116</ele>
      </trkpt>
      <trkpt lat="48.177676" lon="24.261581">
        <ele>888.9428490283899</ele>
      </trkpt>
      <trkpt lat="48.176486" lon="24.264503">
        <ele>862.2610696054762</ele>
      </trkpt>
      <trkpt lat="48.175699" lon="24.265018">
        <ele>852.936024345574</ele>
      </trkpt>
      <trkpt lat="48.174984" lon="24.264933">
        <ele>837.7877694070339</ele>
      </trkpt>
      <trkpt lat="48.174443" lon="24.266002">
        <ele>813.6810913358948</ele>
      </trkpt>
      <trkpt lat="48.175276" lon="24.268187">
        <ele>792.1925593232606</ele>
      </trkpt>
      <trkpt lat="48.176084" lon="24.268865">
        <ele>774.3085420784475</ele>
      </trkpt>
      <trkpt lat="48.175467" lon="24.268935">
        <ele>771.4039728617645</ele>
      </trkpt>
      <trkpt lat="48.174748" lon="24.269761">
        <ele>754.3552864436003</ele>
      </trkpt>
      <trkpt lat="48.173939" lon="24.270297">
        <ele>736.32530875927</ele>
      </trkpt>
      <trkpt lat="48.174097" lon="24.271542">
        <ele>722.5192421949469</ele>
      </trkpt>
      <trkpt lat="48.174821" lon="24.272169">
        <ele>707.3731241377043</ele>
      </trkpt>
      <trkpt lat="48.17372" lon="24.273606">
        <ele>675.3572734335903</ele>
      </trkpt>
      <trkpt lat="48.173161" lon="24.274272">
        <ele>656.536105456762</ele>
      </trkpt>
      <trkpt lat="48.172546" lon="24.274272">
        <ele>652.6231161701726</ele>
      </trkpt>
      <trkpt lat="48.171702" lon="24.274401">
        <ele>639.8945087225875</ele>
      </trkpt>
      <trkpt lat="48.170886" lon="24.274465">
        <ele>625.8461325452492</ele>
      </trkpt>
      <trkpt lat="48.170256" lon="24.274379">
        <ele>618.0923851475451</ele>
      </trkpt>
      <trkpt lat="48.168875" lon="24.274948">
        <ele>598.3195891660871</ele>
      </trkpt>
      <trkpt lat="48.167752" lon="24.275044">
        <ele>586.5563413877971</ele>
      </trkpt>
      <trkpt lat="48.166822" lon="24.27483">
        <ele>578.2167134943302</ele>
      </trkpt>
      <trkpt lat="48.166493" lon="24.274315">
        <ele>574.8773280581504</ele>
      </trkpt>
      <trkpt lat="48.166049" lon="24.275516">
        <ele>564.8866933337996</ele>
      </trkpt>
      <trkpt lat="48.165806" lon="24.276503">
        <ele>555.1468055315698</ele>
      </trkpt>
      <trkpt lat="48.166092" lon="24.277426">
        <ele>541.1007843554253</ele>
      </trkpt>
    </trkseg>
  </trk>
</gpx>
