<?xml version="1.0" encoding="UTF-8"?>
<gpx version="1.1" creator="phpGPX/1.0RC5" schemaLocation="http://www.topografix.com/GPX/1/1 http://www.topografix.com/GPX/1/1/gpx.xsd http://www.garmin.com/xmlschemas/GpxExtensions/v3 http://www.garmin.com/xmlschemas/GpxExtensionsv3.xsd http://www.garmin.com/xmlschemas/TrackPointExtension/v1 http://www.garmin.com/xmlschemas/TrackPointExtensionv1.xsd http://www.garmin.com/xmlschemas/PowerExtension/v1 http://www.garmin.com/xmlschemas/PowerExtensionv1.xsd http://www.topografix.com/GPX/gpx_style/0/2 http://www.topografix.com/GPX/gpx_style/0/2/gpx_style.xsd" xmlns="http://www.topografix.com/GPX/1/1" xmlns:xsi="http://www.w3.org/2001/XMLSchema-instance" xsi:schemaLocation="http://www.topografix.com/GPX/1/1 http://www.topografix.com/GPX/1/1/gpx.xsd http://www.garmin.com/xmlschemas/GpxExtensions/v3 http://www.garmin.com/xmlschemas/GpxExtensionsv3.xsd http://www.garmin.com/xmlschemas/TrackPointExtension/v1 http://www.garmin.com/xmlschemas/TrackPointExtensionv1.xsd http://www.garmin.com/xmlschemas/PowerExtension/v1 http://www.garmin.com/xmlschemas/PowerExtensionv1.xsd http://www.topografix.com/GPX/gpx_style/0/2 http://www.topografix.com/GPX/gpx_style/0/2/gpx_style.xsd" xmlns:gpxtpx="http://www.garmin.com/xmlschemas/TrackPointExtension/v1" xmlns:gpxx="http://www.garmin.com/xmlschemas/GpxExtensions/v3" xmlns:gpxpx="http://www.garmin.com/xmlschemas/PowerExtension/v1" xmlns:gpx_style="http://www.topografix.com/GPX/gpx_style/0/2">
  <metadata>
    <name>Високі Горгани з с Стара Гута</name>
    <author>
      <name>gpx.studio</name>
      <link href="https://gpx.studio"/>
    </author>
  </metadata>
  <trk>
    <name>Високі Горгани з с Стара Гута</name>
    <trkseg>
      <trkpt lat="48.626027" lon="24.208398">
        <ele>669.2815471064848</ele>
      </trkpt>
      <trkpt lat="48.624949" lon="24.208569">
        <ele>670</ele>
      </trkpt>
      <trkpt lat="48.622665" lon="24.206509">
        <ele>676.4322744888486</ele>
      </trkpt>
      <trkpt lat="48.621843" lon="24.206059">
        <ele>677.1071990446217</ele>
      </trkpt>
      <trkpt lat="48.620523" lon="24.205029">
        <ele>682.2430869333912</ele>
      </trkpt>
      <trkpt lat="48.619573" lon="24.20357">
        <ele>683.4961281822726</ele>
      </trkpt>
      <trkpt lat="48.619204" lon="24.203248">
        <ele>683.9306254222756</ele>
      </trkpt>
      <trkpt lat="48.618835" lon="24.202411">
        <ele>685.855227728885</ele>
      </trkpt>
      <trkpt lat="48.617842" lon="24.201617">
        <ele>686.1504771524342</ele>
      </trkpt>
      <trkpt lat="48.616949" lon="24.200437">
        <ele>692.2904380980181</ele>
      </trkpt>
      <trkpt lat="48.615176" lon="24.199257">
        <ele>695.8760213718176</ele>
      </trkpt>
      <trkpt lat="48.613757" lon="24.197111">
        <ele>703.7422122544313</ele>
      </trkpt>
      <trkpt lat="48.612565" lon="24.193978">
        <ele>712.931457422208</ele>
      </trkpt>
      <trkpt lat="48.612296" lon="24.193291">
        <ele>714.0442368202529</ele>
      </trkpt>
      <trkpt lat="48.611913" lon="24.192819">
        <ele>712.6984677530507</ele>
      </trkpt>
      <trkpt lat="48.610948" lon="24.192605">
        <ele>720.1342155720704</ele>
      </trkpt>
      <trkpt lat="48.610083" lon="24.191661">
        <ele>718.2067663675407</ele>
      </trkpt>
      <trkpt lat="48.609061" lon="24.190416">
        <ele>719.227513487218</ele>
      </trkpt>
      <trkpt lat="48.608267" lon="24.189236">
        <ele>722.6534989202628</ele>
      </trkpt>
      <trkpt lat="48.607557" lon="24.18797">
        <ele>723.4718040748589</ele>
      </trkpt>
      <trkpt lat="48.606252" lon="24.187047">
        <ele>726.0112338555293</ele>
      </trkpt>
      <trkpt lat="48.605769" lon="24.186532">
        <ele>724.93636258482</ele>
      </trkpt>
      <trkpt lat="48.60523" lon="24.185824">
        <ele>733.0152660973667</ele>
      </trkpt>
      <trkpt lat="48.604776" lon="24.18473">
        <ele>728.8170101107098</ele>
      </trkpt>
      <trkpt lat="48.60445" lon="24.184365">
        <ele>734.4959435306334</ele>
      </trkpt>
      <trkpt lat="48.60384" lon="24.184515">
        <ele>738.7126075696842</ele>
      </trkpt>
      <trkpt lat="48.603201" lon="24.183936">
        <ele>737.6683458558496</ele>
      </trkpt>
      <trkpt lat="48.601569" lon="24.182648">
        <ele>739.4085280177312</ele>
      </trkpt>
      <trkpt lat="48.600434" lon="24.180996">
        <ele>746.62558901828</ele>
      </trkpt>
      <trkpt lat="48.599384" lon="24.179859">
        <ele>744.8214009588929</ele>
      </trkpt>
      <trkpt lat="48.598093" lon="24.17782">
        <ele>751.6024856320413</ele>
      </trkpt>
      <trkpt lat="48.596475" lon="24.176683">
        <ele>753.380073807611</ele>
      </trkpt>
      <trkpt lat="48.594488" lon="24.17531">
        <ele>754.4441442150893</ele>
      </trkpt>
      <trkpt lat="48.592132" lon="24.174473">
        <ele>768.0644777747802</ele>
      </trkpt>
      <trkpt lat="48.591352" lon="24.173829">
        <ele>770.7031614440493</ele>
      </trkpt>
      <trkpt lat="48.590685" lon="24.173679">
        <ele>783.5951494379505</ele>
      </trkpt>
      <trkpt lat="48.590117" lon="24.173958">
        <ele>780.6432741250188</ele>
      </trkpt>
      <trkpt lat="48.589549" lon="24.174366">
        <ele>770.4652953676414</ele>
      </trkpt>
      <trkpt lat="48.589123" lon="24.174559">
        <ele>767.6067505135435</ele>
      </trkpt>
      <trkpt lat="48.588698" lon="24.17458">
        <ele>768.2647273837939</ele>
      </trkpt>
      <trkpt lat="48.587874" lon="24.173979">
        <ele>768.6149729104645</ele>
      </trkpt>
      <trkpt lat="48.587321" lon="24.173529">
        <ele>770.1849315691285</ele>
      </trkpt>
      <trkpt lat="48.586881" lon="24.172649">
        <ele>769.7596676847897</ele>
      </trkpt>
      <trkpt lat="48.587662" lon="24.171769">
        <ele>779.3380318041766</ele>
      </trkpt>
      <trkpt lat="48.588329" lon="24.169817">
        <ele>790.4479889047216</ele>
      </trkpt>
      <trkpt lat="48.588598" lon="24.168079">
        <ele>796.4948344578478</ele>
      </trkpt>
      <trkpt lat="48.58884" lon="24.166147">
        <ele>803.1247964096256</ele>
      </trkpt>
      <trkpt lat="48.588854" lon="24.163229">
        <ele>797.0954220448591</ele>
      </trkpt>
      <trkpt lat="48.587534" lon="24.159946">
        <ele>819.3414093600586</ele>
      </trkpt>
      <trkpt lat="48.585589" lon="24.158208">
        <ele>832.0672155708307</ele>
      </trkpt>
      <trkpt lat="48.58451" lon="24.155912">
        <ele>848.3120660883724</ele>
      </trkpt>
      <trkpt lat="48.582935" lon="24.153273">
        <ele>843.0397554411935</ele>
      </trkpt>
      <trkpt lat="48.58241" lon="24.151449">
        <ele>845.9461938193668</ele>
      </trkpt>
      <trkpt lat="48.5817" lon="24.148466">
        <ele>858.8172314643161</ele>
      </trkpt>
      <trkpt lat="48.580919" lon="24.14705">
        <ele>865.6025665415218</ele>
      </trkpt>
      <trkpt lat="48.577924" lon="24.144196">
        <ele>891.1742314004806</ele>
      </trkpt>
      <trkpt lat="48.577668" lon="24.142909">
        <ele>924.3798643584971</ele>
      </trkpt>
      <trkpt lat="48.577924" lon="24.142222">
        <ele>941.2558567607775</ele>
      </trkpt>
      <trkpt lat="48.578619" lon="24.141664">
        <ele>949.6483048259968</ele>
      </trkpt>
      <trkpt lat="48.580252" lon="24.141085">
        <ele>988.6681336460517</ele>
      </trkpt>
      <trkpt lat="48.580877" lon="24.140312">
        <ele>1006.0688184386779</ele>
      </trkpt>
      <trkpt lat="48.581416" lon="24.139239">
        <ele>1024.764051629405</ele>
      </trkpt>
      <trkpt lat="48.581785" lon="24.136922">
        <ele>1064.2508434447227</ele>
      </trkpt>
      <trkpt lat="48.582708" lon="24.136278">
        <ele>1092.6365746964495</ele>
      </trkpt>
      <trkpt lat="48.583247" lon="24.134991">
        <ele>1120.440816337592</ele>
      </trkpt>
      <trkpt lat="48.583119" lon="24.133446">
        <ele>1156.8652378913248</ele>
      </trkpt>
      <trkpt lat="48.582154" lon="24.130163">
        <ele>1190.9003633826505</ele>
      </trkpt>
      <trkpt lat="48.581913" lon="24.127695">
        <ele>1197.893321556354</ele>
      </trkpt>
      <trkpt lat="48.581913" lon="24.125571">
        <ele>1195.8433526417173</ele>
      </trkpt>
      <trkpt lat="48.582566" lon="24.124069">
        <ele>1218.4575092963642</ele>
      </trkpt>
      <trkpt lat="48.582679" lon="24.121258">
        <ele>1228.0750538377383</ele>
      </trkpt>
      <trkpt lat="48.582225" lon="24.117868">
        <ele>1256.554779703124</ele>
      </trkpt>
      <trkpt lat="48.580309" lon="24.117009">
        <ele>1248.23057678773</ele>
      </trkpt>
      <trkpt lat="48.579798" lon="24.115829">
        <ele>1222.064355182516</ele>
      </trkpt>
      <trkpt lat="48.579968" lon="24.114177">
        <ele>1248.735052992699</ele>
      </trkpt>
      <trkpt lat="48.57967" lon="24.11407">
        <ele>1260.593371299561</ele>
      </trkpt>
      <trkpt lat="48.577853" lon="24.11452">
        <ele>1270.222859652425</ele>
      </trkpt>
      <trkpt lat="48.576717" lon="24.114349">
        <ele>1264.9805367308402</ele>
      </trkpt>
      <trkpt lat="48.575269" lon="24.110443">
        <ele>1315.115144704188</ele>
      </trkpt>
      <trkpt lat="48.57507" lon="24.108619">
        <ele>1324.8302480054554</ele>
      </trkpt>
      <trkpt lat="48.574602" lon="24.107654">
        <ele>1310.6005184528765</ele>
      </trkpt>
      <trkpt lat="48.574005" lon="24.106602">
        <ele>1313.7300138669088</ele>
      </trkpt>
      <trkpt lat="48.573977" lon="24.105079">
        <ele>1326.9471687417245</ele>
      </trkpt>
      <trkpt lat="48.574032" lon="24.105173">
        <ele>1326.5947676444193</ele>
      </trkpt>
      <trkpt lat="48.574267" lon="24.105269">
        <ele>1326.82832338335</ele>
      </trkpt>
      <trkpt lat="48.574818" lon="24.105429">
        <ele>1335.047340799938</ele>
      </trkpt>
      <trkpt lat="48.575144" lon="24.105311">
        <ele>1340.1795927786734</ele>
      </trkpt>
      <trkpt lat="48.575633" lon="24.105526">
        <ele>1353.4524573718277</ele>
      </trkpt>
      <trkpt lat="48.57579" lon="24.105452">
        <ele>1358.0366601606945</ele>
      </trkpt>
      <trkpt lat="48.575918" lon="24.105206">
        <ele>1360.7984473328106</ele>
      </trkpt>
      <trkpt lat="48.5762" lon="24.105336">
        <ele>1369.3335368707776</ele>
      </trkpt>
      <trkpt lat="48.576284" lon="24.10506">
        <ele>1371.1956713412656</ele>
      </trkpt>
      <trkpt lat="48.576423" lon="24.105036">
        <ele>1376.0188719286105</ele>
      </trkpt>
      <trkpt lat="48.578182" lon="24.10512">
        <ele>1409.933316268376</ele>
      </trkpt>
      <trkpt lat="48.581845" lon="24.103004">
        <ele>1453.5122410120675</ele>
      </trkpt>
      <trkpt lat="48.582542" lon="24.102736">
        <ele>1467.5807366021327</ele>
      </trkpt>
      <trkpt lat="48.582981" lon="24.10288">
        <ele>1472.733594597783</ele>
      </trkpt>
      <trkpt lat="48.583819" lon="24.102201">
        <ele>1491.5127153783105</ele>
      </trkpt>
      <trkpt lat="48.584388" lon="24.101424">
        <ele>1507.7935130775659</ele>
      </trkpt>
      <trkpt lat="48.584632" lon="24.101519">
        <ele>1511.6332732848823</ele>
      </trkpt>
      <trkpt lat="48.58501" lon="24.101393">
        <ele>1521.1859417798767</ele>
      </trkpt>
      <trkpt lat="48.585361" lon="24.101603">
        <ele>1527.7410713399913</ele>
      </trkpt>
      <trkpt lat="48.586199" lon="24.10116">
        <ele>1550.1712829582393</ele>
      </trkpt>
      <trkpt lat="48.587005" lon="24.100328">
        <ele>1577.0532651718327</ele>
      </trkpt>
      <trkpt lat="48.587558" lon="24.100142">
        <ele>1593.149222587942</ele>
      </trkpt>
      <trkpt lat="48.587821" lon="24.100272">
        <ele>1600.7079300808548</ele>
      </trkpt>
      <trkpt lat="48.588323" lon="24.09962">
        <ele>1615.2348375166766</ele>
      </trkpt>
      <trkpt lat="48.588418" lon="24.099226">
        <ele>1617.09718463826</ele>
      </trkpt>
      <trkpt lat="48.588625" lon="24.099064">
        <ele>1622.1866678076428</ele>
      </trkpt>
      <trkpt lat="48.589038" lon="24.098215">
        <ele>1629.0429410575891</ele>
      </trkpt>
      <trkpt lat="48.589612" lon="24.097947">
        <ele>1644.080639673436</ele>
      </trkpt>
      <trkpt lat="48.591517" lon="24.096438">
        <ele>1677.7816919607576</ele>
      </trkpt>
      <trkpt lat="48.591948" lon="24.096507">
        <ele>1691.0532605240587</ele>
      </trkpt>
      <trkpt lat="48.592561" lon="24.09617">
        <ele>1700.6428937715245</ele>
      </trkpt>
      <trkpt lat="48.593379" lon="24.095971">
        <ele>1713.0587789023414</ele>
      </trkpt>
      <trkpt lat="48.594461" lon="24.096443">
        <ele>1731.5912929249462</ele>
      </trkpt>
      <trkpt lat="48.594658" lon="24.096683">
        <ele>1736.844445980969</ele>
      </trkpt>
      <trkpt lat="48.594857" lon="24.096587">
        <ele>1737.095826229779</ele>
      </trkpt>
      <trkpt lat="48.595219" lon="24.096777">
        <ele>1743.6048211881425</ele>
      </trkpt>
      <trkpt lat="48.595413" lon="24.097246">
        <ele>1752.1937847231748</ele>
      </trkpt>
      <trkpt lat="48.595862" lon="24.096962">
        <ele>1751.5125841585686</ele>
      </trkpt>
      <trkpt lat="48.59665" lon="24.097072">
        <ele>1762.619157514011</ele>
      </trkpt>
      <trkpt lat="48.596781" lon="24.097359">
        <ele>1769.3166467589708</ele>
      </trkpt>
      <trkpt lat="48.597047" lon="24.097438">
        <ele>1774.385424818669</ele>
      </trkpt>
      <trkpt lat="48.597146" lon="24.097694">
        <ele>1780.042805694509</ele>
      </trkpt>
      <trkpt lat="48.598038" lon="24.098562">
        <ele>1799.6888992784225</ele>
      </trkpt>
      <trkpt lat="48.598298" lon="24.09847">
        <ele>1798.0746246674564</ele>
      </trkpt>
      <trkpt lat="48.599032" lon="24.097539">
        <ele>1792.7566694711388</ele>
      </trkpt>
      <trkpt lat="48.59964" lon="24.097056">
        <ele>1790.409770733476</ele>
      </trkpt>
      <trkpt lat="48.599763" lon="24.096513">
        <ele>1782.3242653249058</ele>
      </trkpt>
      <trkpt lat="48.600992" lon="24.096428">
        <ele>1762.1996817298098</ele>
      </trkpt>
      <trkpt lat="48.601553" lon="24.096417">
        <ele>1753.4005895123119</ele>
      </trkpt>
      <trkpt lat="48.601827" lon="24.096163">
        <ele>1749.9974770298727</ele>
      </trkpt>
      <trkpt lat="48.602536" lon="24.096374">
        <ele>1736.3039702119495</ele>
      </trkpt>
      <trkpt lat="48.603794" lon="24.095698">
        <ele>1725.0337191533554</ele>
      </trkpt>
      <trkpt lat="48.605595" lon="24.095789">
        <ele>1744.4251819897397</ele>
      </trkpt>
      <trkpt lat="48.606395" lon="24.095757">
        <ele>1760.6660267158877</ele>
      </trkpt>
      <trkpt lat="48.607161" lon="24.0958">
        <ele>1773.527227376937</ele>
      </trkpt>
      <trkpt lat="48.60814" lon="24.095607">
        <ele>1794.701753928326</ele>
      </trkpt>
      <trkpt lat="48.60814" lon="24.095607">
        <ele>1794.701753928326</ele>
      </trkpt>
      <trkpt lat="48.607161" lon="24.0958">
        <ele>1773.527227376937</ele>
      </trkpt>
      <trkpt lat="48.606395" lon="24.095757">
        <ele>1760.6660267158877</ele>
      </trkpt>
      <trkpt lat="48.605595" lon="24.095789">
        <ele>1744.4251819897397</ele>
      </trkpt>
      <trkpt lat="48.603794" lon="24.095698">
        <ele>1725.0337191533554</ele>
      </trkpt>
      <trkpt lat="48.602536" lon="24.096374">
        <ele>1736.3039702119495</ele>
      </trkpt>
      <trkpt lat="48.601827" lon="24.096163">
        <ele>1749.9974770298727</ele>
      </trkpt>
      <trkpt lat="48.601553" lon="24.096417">
        <ele>1753.4005895123119</ele>
      </trkpt>
      <trkpt lat="48.600992" lon="24.096428">
        <ele>1762.1996817298098</ele>
      </trkpt>
      <trkpt lat="48.599763" lon="24.096513">
        <ele>1782.3242653249058</ele>
      </trkpt>
      <trkpt lat="48.59964" lon="24.097056">
        <ele>1790.409770733476</ele>
      </trkpt>
      <trkpt lat="48.599032" lon="24.097539">
        <ele>1792.7566694711388</ele>
      </trkpt>
      <trkpt lat="48.598298" lon="24.09847">
        <ele>1798.0746246674564</ele>
      </trkpt>
      <trkpt lat="48.598038" lon="24.098562">
        <ele>1799.6888992784225</ele>
      </trkpt>
      <trkpt lat="48.597146" lon="24.097694">
        <ele>1780.042805694509</ele>
      </trkpt>
      <trkpt lat="48.597047" lon="24.097438">
        <ele>1774.385424818669</ele>
      </trkpt>
      <trkpt lat="48.596781" lon="24.097359">
        <ele>1769.3166467589708</ele>
      </trkpt>
      <trkpt lat="48.59665" lon="24.097072">
        <ele>1762.619157514011</ele>
      </trkpt>
      <trkpt lat="48.595862" lon="24.096962">
        <ele>1751.5125841585686</ele>
      </trkpt>
      <trkpt lat="48.595413" lon="24.097246">
        <ele>1752.1937847231748</ele>
      </trkpt>
      <trkpt lat="48.595219" lon="24.096777">
        <ele>1743.6048211881425</ele>
      </trkpt>
      <trkpt lat="48.594857" lon="24.096587">
        <ele>1737.095826229779</ele>
      </trkpt>
      <trkpt lat="48.594658" lon="24.096683">
        <ele>1736.844445980969</ele>
      </trkpt>
      <trkpt lat="48.594461" lon="24.096443">
        <ele>1731.5912929249462</ele>
      </trkpt>
      <trkpt lat="48.593379" lon="24.095971">
        <ele>1713.0587789023414</ele>
      </trkpt>
      <trkpt lat="48.592561" lon="24.09617">
        <ele>1700.6428937715245</ele>
      </trkpt>
      <trkpt lat="48.591948" lon="24.096507">
        <ele>1691.0532605240587</ele>
      </trkpt>
      <trkpt lat="48.591517" lon="24.096438">
        <ele>1677.7816919607576</ele>
      </trkpt>
      <trkpt lat="48.589612" lon="24.097947">
        <ele>1644.080639673436</ele>
      </trkpt>
      <trkpt lat="48.589038" lon="24.098215">
        <ele>1629.0429410575891</ele>
      </trkpt>
      <trkpt lat="48.588625" lon="24.099064">
        <ele>1622.1866678076428</ele>
      </trkpt>
      <trkpt lat="48.588418" lon="24.099226">
        <ele>1617.09718463826</ele>
      </trkpt>
      <trkpt lat="48.588323" lon="24.09962">
        <ele>1615.2348375166766</ele>
      </trkpt>
      <trkpt lat="48.587821" lon="24.100272">
        <ele>1600.7079300808548</ele>
      </trkpt>
      <trkpt lat="48.587558" lon="24.100142">
        <ele>1593.149222587942</ele>
      </trkpt>
      <trkpt lat="48.587005" lon="24.100328">
        <ele>1577.0532651718327</ele>
      </trkpt>
      <trkpt lat="48.586199" lon="24.10116">
        <ele>1550.1712829582393</ele>
      </trkpt>
      <trkpt lat="48.585361" lon="24.101603">
        <ele>1527.7410713399913</ele>
      </trkpt>
      <trkpt lat="48.58501" lon="24.101393">
        <ele>1521.1859417798767</ele>
      </trkpt>
      <trkpt lat="48.584632" lon="24.101519">
        <ele>1511.6332732848823</ele>
      </trkpt>
      <trkpt lat="48.584388" lon="24.101424">
        <ele>1507.7935130775659</ele>
      </trkpt>
      <trkpt lat="48.583819" lon="24.102201">
        <ele>1491.5127153783105</ele>
      </trkpt>
      <trkpt lat="48.582981" lon="24.10288">
        <ele>1472.733594597783</ele>
      </trkpt>
      <trkpt lat="48.582542" lon="24.102736">
        <ele>1467.5807366021327</ele>
      </trkpt>
      <trkpt lat="48.581845" lon="24.103004">
        <ele>1453.5122410120675</ele>
      </trkpt>
      <trkpt lat="48.578182" lon="24.10512">
        <ele>1409.933316268376</ele>
      </trkpt>
      <trkpt lat="48.576423" lon="24.105036">
        <ele>1376.0188719286105</ele>
      </trkpt>
      <trkpt lat="48.576284" lon="24.10506">
        <ele>1371.1956713412656</ele>
      </trkpt>
      <trkpt lat="48.5762" lon="24.105336">
        <ele>1369.3335368707776</ele>
      </trkpt>
      <trkpt lat="48.575918" lon="24.105206">
        <ele>1360.7984473328106</ele>
      </trkpt>
      <trkpt lat="48.57579" lon="24.105452">
        <ele>1358.0366601606945</ele>
      </trkpt>
      <trkpt lat="48.575633" lon="24.105526">
        <ele>1353.4524573718277</ele>
      </trkpt>
      <trkpt lat="48.575144" lon="24.105311">
        <ele>1340.1795927786734</ele>
      </trkpt>
      <trkpt lat="48.574818" lon="24.105429">
        <ele>1335.047340799938</ele>
      </trkpt>
      <trkpt lat="48.574267" lon="24.105269">
        <ele>1326.82832338335</ele>
      </trkpt>
      <trkpt lat="48.574032" lon="24.105173">
        <ele>1326.5947676444193</ele>
      </trkpt>
      <trkpt lat="48.574034" lon="24.104917">
        <ele>1327.2231001497394</ele>
      </trkpt>
      <trkpt lat="48.573523" lon="24.103544">
        <ele>1334.2249322567304</ele>
      </trkpt>
      <trkpt lat="48.573097" lon="24.103715">
        <ele>1339.6729723718017</ele>
      </trkpt>
      <trkpt lat="48.572785" lon="24.103463">
        <ele>1343.230863746372</ele>
      </trkpt>
      <trkpt lat="48.572529" lon="24.102889">
        <ele>1349.0467883594868</ele>
      </trkpt>
      <trkpt lat="48.57282" lon="24.102154">
        <ele>1347.2115243754815</ele>
      </trkpt>
      <trkpt lat="48.572842" lon="24.101484">
        <ele>1347.0808882617857</ele>
      </trkpt>
      <trkpt lat="48.572558" lon="24.101065">
        <ele>1349.6803635054966</ele>
      </trkpt>
      <trkpt lat="48.572359" lon="24.100904">
        <ele>1353.6944009675644</ele>
      </trkpt>
      <trkpt lat="48.572231" lon="24.100518">
        <ele>1356.4536148880143</ele>
      </trkpt>
      <trkpt lat="48.572245" lon="24.100024">
        <ele>1360.3074070916045</ele>
      </trkpt>
      <trkpt lat="48.57226" lon="24.099574">
        <ele>1363.8267226911282</ele>
      </trkpt>
      <trkpt lat="48.572473" lon="24.099295">
        <ele>1356.2105692322752</ele>
      </trkpt>
      <trkpt lat="48.572409" lon="24.098726">
        <ele>1363.0382660838077</ele>
      </trkpt>
      <trkpt lat="48.572451" lon="24.098222">
        <ele>1365.12258066918</ele>
      </trkpt>
      <trkpt lat="48.572842" lon="24.09642">
        <ele>1372.9578325969962</ele>
      </trkpt>
      <trkpt lat="48.572728" lon="24.0948">
        <ele>1380.7779962912252</ele>
      </trkpt>
      <trkpt lat="48.573381" lon="24.091913">
        <ele>1390.0944364941677</ele>
      </trkpt>
      <trkpt lat="48.573892" lon="24.089896">
        <ele>1394.4419769021333</ele>
      </trkpt>
      <trkpt lat="48.574183" lon="24.088169">
        <ele>1402.9706771573601</ele>
      </trkpt>
      <trkpt lat="48.574991" lon="24.08494">
        <ele>1415.4463250456233</ele>
      </trkpt>
      <trkpt lat="48.572996" lon="24.087517">
        <ele>1469.4677168889361</ele>
      </trkpt>
      <trkpt lat="48.571531" lon="24.08996">
        <ele>1526.3047415045507</ele>
      </trkpt>
      <trkpt lat="48.571366" lon="24.089829">
        <ele>1530.7738960770648</ele>
      </trkpt>
      <trkpt lat="48.570865" lon="24.090171">
        <ele>1548.8397112349367</ele>
      </trkpt>
      <trkpt lat="48.570366" lon="24.090675">
        <ele>1566.7718415613983</ele>
      </trkpt>
      <trkpt lat="48.570081" lon="24.09082">
        <ele>1571.83806677747</ele>
      </trkpt>
      <trkpt lat="48.569867" lon="24.091675">
        <ele>1588.620019562955</ele>
      </trkpt>
      <trkpt lat="48.569675" lon="24.092049">
        <ele>1586.467970808962</ele>
      </trkpt>
      <trkpt lat="48.569608" lon="24.092065">
        <ele>1583.7151161055006</ele>
      </trkpt>
      <trkpt lat="48.569567" lon="24.092555">
        <ele>1576.882649375993</ele>
      </trkpt>
      <trkpt lat="48.569113" lon="24.093069">
        <ele>1565.8988532652668</ele>
      </trkpt>
      <trkpt lat="48.569192" lon="24.093422">
        <ele>1571.142867858673</ele>
      </trkpt>
      <trkpt lat="48.569075" lon="24.094071">
        <ele>1575.1665889533701</ele>
      </trkpt>
      <trkpt lat="48.568662" lon="24.095103">
        <ele>1588.33866320941</ele>
      </trkpt>
      <trkpt lat="48.568234" lon="24.095642">
        <ele>1596.498509535561</ele>
      </trkpt>
      <trkpt lat="48.56781" lon="24.096437">
        <ele>1605.7046135696182</ele>
      </trkpt>
      <trkpt lat="48.567705" lon="24.097028">
        <ele>1608.9088880799393</ele>
      </trkpt>
      <trkpt lat="48.565945" lon="24.100088">
        <ele>1618.0369267261092</ele>
      </trkpt>
      <trkpt lat="48.565078" lon="24.101616">
        <ele>1631.9781677516023</ele>
      </trkpt>
      <trkpt lat="48.564875" lon="24.102106">
        <ele>1636.0663895477078</ele>
      </trkpt>
      <trkpt lat="48.564624" lon="24.102244">
        <ele>1640.678594075598</ele>
      </trkpt>
      <trkpt lat="48.563919" lon="24.102897">
        <ele>1660.3600842740852</ele>
      </trkpt>
      <trkpt lat="48.563619" lon="24.103008">
        <ele>1670.1710926383969</ele>
      </trkpt>
      <trkpt lat="48.563476" lon="24.103206">
        <ele>1676.7603649299124</ele>
      </trkpt>
      <trkpt lat="48.563174" lon="24.103183">
        <ele>1686.8690772005357</ele>
      </trkpt>
      <trkpt lat="48.562925" lon="24.103478">
        <ele>1691</ele>
      </trkpt>
      <trkpt lat="48.562548" lon="24.10446">
        <ele>1672.2407768325443</ele>
      </trkpt>
      <trkpt lat="48.562347" lon="24.104996">
        <ele>1661.8015584932527</ele>
      </trkpt>
      <trkpt lat="48.562324" lon="24.105608">
        <ele>1656.1637634893298</ele>
      </trkpt>
      <trkpt lat="48.561755" lon="24.106402">
        <ele>1644.9732736762785</ele>
      </trkpt>
      <trkpt lat="48.561384" lon="24.106904">
        <ele>1634.8757299355107</ele>
      </trkpt>
      <trkpt lat="48.561056" lon="24.107176">
        <ele>1631.1396657664563</ele>
      </trkpt>
      <trkpt lat="48.560743" lon="24.10717">
        <ele>1631.5261371388929</ele>
      </trkpt>
      <trkpt lat="48.560352" lon="24.107586">
        <ele>1630.394230291337</ele>
      </trkpt>
      <trkpt lat="48.559982" lon="24.108141">
        <ele>1632.1005096249628</ele>
      </trkpt>
      <trkpt lat="48.559243" lon="24.109181">
        <ele>1637.1949843170812</ele>
      </trkpt>
      <trkpt lat="48.559077" lon="24.109228">
        <ele>1636.0972535393666</ele>
      </trkpt>
      <trkpt lat="48.558639" lon="24.109777">
        <ele>1642.2724901274048</ele>
      </trkpt>
      <trkpt lat="48.558344" lon="24.10994">
        <ele>1647.2387372822518</ele>
      </trkpt>
      <trkpt lat="48.557105" lon="24.111555">
        <ele>1684.315949100444</ele>
      </trkpt>
      <trkpt lat="48.556734" lon="24.111729">
        <ele>1688.530394547921</ele>
      </trkpt>
      <trkpt lat="48.556569" lon="24.112183">
        <ele>1689.3604081542078</ele>
      </trkpt>
      <trkpt lat="48.55574" lon="24.112616">
        <ele>1710.2712541483565</ele>
      </trkpt>
      <trkpt lat="48.555305" lon="24.112463">
        <ele>1723.898628898547</ele>
      </trkpt>
      <trkpt lat="48.554738" lon="24.112487">
        <ele>1737.4150565208402</ele>
      </trkpt>
      <trkpt lat="48.554608" lon="24.112809">
        <ele>1748.9698248872885</ele>
      </trkpt>
      <trkpt lat="48.554336" lon="24.112544">
        <ele>1747.8796845115075</ele>
      </trkpt>
      <trkpt lat="48.553903" lon="24.114392">
        <ele>1757.3273513770414</ele>
      </trkpt>
      <trkpt lat="48.553619" lon="24.116063">
        <ele>1761.2296299840227</ele>
      </trkpt>
      <trkpt lat="48.553247" lon="24.116972">
        <ele>1755.8393979579819</ele>
      </trkpt>
      <trkpt lat="48.552482" lon="24.117918">
        <ele>1753.5147210790851</ele>
      </trkpt>
      <trkpt lat="48.551261" lon="24.118767">
        <ele>1766.7147123732882</ele>
      </trkpt>
      <trkpt lat="48.549188" lon="24.119229">
        <ele>1823.7675736346648</ele>
      </trkpt>
      <trkpt lat="48.549239" lon="24.119271">
        <ele>1824.8020837459462</ele>
      </trkpt>
      <trkpt lat="48.548892" lon="24.119622">
        <ele>1820.038911582438</ele>
      </trkpt>
      <trkpt lat="48.548153" lon="24.120145">
        <ele>1808.6671343698097</ele>
      </trkpt>
      <trkpt lat="48.548" lon="24.120444">
        <ele>1801.4618481221326</ele>
      </trkpt>
      <trkpt lat="48.547593" lon="24.120425">
        <ele>1795.2970228498639</ele>
      </trkpt>
      <trkpt lat="48.545823" lon="24.124032">
        <ele>1736.711684131105</ele>
      </trkpt>
      <trkpt lat="48.545354" lon="24.128437">
        <ele>1805.8485622795647</ele>
      </trkpt>
      <trkpt lat="48.545182" lon="24.129287">
        <ele>1810.1592767639163</ele>
      </trkpt>
      <trkpt lat="48.544862" lon="24.129208">
        <ele>1807.0308164854255</ele>
      </trkpt>
      <trkpt lat="48.54467" lon="24.129275">
        <ele>1803.1770440897012</ele>
      </trkpt>
      <trkpt lat="48.543867" lon="24.13048">
        <ele>1774.249098684816</ele>
      </trkpt>
      <trkpt lat="48.542773" lon="24.131928">
        <ele>1730.6866954362736</ele>
      </trkpt>
      <trkpt lat="48.542269" lon="24.132373">
        <ele>1716.169250355234</ele>
      </trkpt>
      <trkpt lat="48.541925" lon="24.131747">
        <ele>1709.8803076170152</ele>
      </trkpt>
      <trkpt lat="48.541681" lon="24.131692">
        <ele>1701.7059713666094</ele>
      </trkpt>
      <trkpt lat="48.541354" lon="24.132255">
        <ele>1692.192681155986</ele>
      </trkpt>
      <trkpt lat="48.540856" lon="24.131495">
        <ele>1670.9885125144488</ele>
      </trkpt>
      <trkpt lat="48.540366" lon="24.131266">
        <ele>1651.7917013447732</ele>
      </trkpt>
      <trkpt lat="48.54006" lon="24.130518">
        <ele>1634.397631617689</ele>
      </trkpt>
      <trkpt lat="48.539911" lon="24.128569">
        <ele>1606.8137904600007</ele>
      </trkpt>
      <trkpt lat="48.538931" lon="24.127727">
        <ele>1559.7588159337174</ele>
      </trkpt>
      <trkpt lat="48.537922" lon="24.127413">
        <ele>1519.8261008862287</ele>
      </trkpt>
      <trkpt lat="48.53768" lon="24.12696">
        <ele>1504.0371636697091</ele>
      </trkpt>
      <trkpt lat="48.53711" lon="24.126663">
        <ele>1485.6098498661304</ele>
      </trkpt>
      <trkpt lat="48.536853" lon="24.126439">
        <ele>1475.7006524810972</ele>
      </trkpt>
      <trkpt lat="48.536703" lon="24.125748">
        <ele>1462.5158818543023</ele>
      </trkpt>
      <trkpt lat="48.536255" lon="24.125218">
        <ele>1448.9352834673482</ele>
      </trkpt>
      <trkpt lat="48.535993" lon="24.125009">
        <ele>1442.3146187243983</ele>
      </trkpt>
      <trkpt lat="48.535365" lon="24.125313">
        <ele>1433.2299315921264</ele>
      </trkpt>
      <trkpt lat="48.53485" lon="24.125777">
        <ele>1428.232089559955</ele>
      </trkpt>
      <trkpt lat="48.53406" lon="24.128466">
        <ele>1414.1720200857517</ele>
      </trkpt>
      <trkpt lat="48.533622" lon="24.130583">
        <ele>1401.192761108512</ele>
      </trkpt>
      <trkpt lat="48.533713" lon="24.131512">
        <ele>1397.108516287358</ele>
      </trkpt>
      <trkpt lat="48.533827" lon="24.132671">
        <ele>1396.0117156021656</ele>
      </trkpt>
      <trkpt lat="48.534125" lon="24.133744">
        <ele>1393.3620397677453</ele>
      </trkpt>
      <trkpt lat="48.534438" lon="24.13486">
        <ele>1389.3525811415502</ele>
      </trkpt>
      <trkpt lat="48.535049" lon="24.135739">
        <ele>1391.2420992795435</ele>
      </trkpt>
      <trkpt lat="48.536029" lon="24.137585">
        <ele>1388.7034854219528</ele>
      </trkpt>
      <trkpt lat="48.536654" lon="24.138679">
        <ele>1376.7745403366862</ele>
      </trkpt>
      <trkpt lat="48.537066" lon="24.13913">
        <ele>1371.0339019943494</ele>
      </trkpt>
      <trkpt lat="48.537322" lon="24.139795">
        <ele>1353.555086322453</ele>
      </trkpt>
      <trkpt lat="48.537961" lon="24.140353">
        <ele>1344.0798119100618</ele>
      </trkpt>
      <trkpt lat="48.538998" lon="24.141061">
        <ele>1336.0431911777123</ele>
      </trkpt>
      <trkpt lat="48.539339" lon="24.141211">
        <ele>1335.7198441429064</ele>
      </trkpt>
      <trkpt lat="48.539567" lon="24.142477">
        <ele>1324.6848337971094</ele>
      </trkpt>
      <trkpt lat="48.539879" lon="24.143679">
        <ele>1306.7026722956216</ele>
      </trkpt>
      <trkpt lat="48.540362" lon="24.144816">
        <ele>1289.8361080787145</ele>
      </trkpt>
      <trkpt lat="48.540803" lon="24.145374">
        <ele>1280.873355567339</ele>
      </trkpt>
      <trkpt lat="48.541101" lon="24.145739">
        <ele>1262.6631056752221</ele>
      </trkpt>
      <trkpt lat="48.541229" lon="24.147091">
        <ele>1236.6378909945252</ele>
      </trkpt>
      <trkpt lat="48.540817" lon="24.147734">
        <ele>1211.6866225604908</ele>
      </trkpt>
      <trkpt lat="48.540646" lon="24.149022">
        <ele>1182.5756584878222</ele>
      </trkpt>
      <trkpt lat="48.540916" lon="24.149923">
        <ele>1173.2892774307643</ele>
      </trkpt>
      <trkpt lat="48.541115" lon="24.151554">
        <ele>1159.872650592792</ele>
      </trkpt>
      <trkpt lat="48.541343" lon="24.153099">
        <ele>1150.6220981567167</ele>
      </trkpt>
      <trkpt lat="48.541343" lon="24.153871">
        <ele>1152.2530415791553</ele>
      </trkpt>
      <trkpt lat="48.541811" lon="24.15488">
        <ele>1132.0743482294477</ele>
      </trkpt>
      <trkpt lat="48.541953" lon="24.156274">
        <ele>1114.583576898356</ele>
      </trkpt>
      <trkpt lat="48.542337" lon="24.157669">
        <ele>1105.2672765158545</ele>
      </trkpt>
      <trkpt lat="48.542735" lon="24.158527">
        <ele>1091.2337218661617</ele>
      </trkpt>
      <trkpt lat="48.542891" lon="24.159364">
        <ele>1084.929541652074</ele>
      </trkpt>
      <trkpt lat="48.543246" lon="24.159965">
        <ele>1089.5213837987171</ele>
      </trkpt>
      <trkpt lat="48.543431" lon="24.161145">
        <ele>1074.7622321902143</ele>
      </trkpt>
      <trkpt lat="48.543743" lon="24.161768">
        <ele>1076.0413037297892</ele>
      </trkpt>
      <trkpt lat="48.544354" lon="24.163463">
        <ele>1063.3082043940667</ele>
      </trkpt>
      <trkpt lat="48.544667" lon="24.165158">
        <ele>1056.0542965800598</ele>
      </trkpt>
      <trkpt lat="48.544979" lon="24.167196">
        <ele>1047.243365188795</ele>
      </trkpt>
      <trkpt lat="48.544553" lon="24.169149">
        <ele>1053.060674344539</ele>
      </trkpt>
      <trkpt lat="48.544582" lon="24.1699">
        <ele>1049.9299124914687</ele>
      </trkpt>
      <trkpt lat="48.544781" lon="24.170415">
        <ele>1032.6918348060237</ele>
      </trkpt>
      <trkpt lat="48.545292" lon="24.170715">
        <ele>1018.739774287368</ele>
      </trkpt>
      <trkpt lat="48.545491" lon="24.170737">
        <ele>1017.0044379602688</ele>
      </trkpt>
      <trkpt lat="48.54613" lon="24.172496">
        <ele>1003.4054863102488</ele>
      </trkpt>
      <trkpt lat="48.546641" lon="24.173655">
        <ele>993.0516778478939</ele>
      </trkpt>
      <trkpt lat="48.547252" lon="24.174492">
        <ele>986.1280475477968</ele>
      </trkpt>
      <trkpt lat="48.547948" lon="24.175264">
        <ele>984.15137129854</ele>
      </trkpt>
      <trkpt lat="48.548147" lon="24.176488">
        <ele>975.8747747555608</ele>
      </trkpt>
      <trkpt lat="48.548659" lon="24.177775">
        <ele>965.8876808626455</ele>
      </trkpt>
      <trkpt lat="48.549312" lon="24.179363">
        <ele>957.1325498849036</ele>
      </trkpt>
      <trkpt lat="48.549965" lon="24.180843">
        <ele>945.4886974866372</ele>
      </trkpt>
      <trkpt lat="48.550633" lon="24.18256">
        <ele>942.9498139360221</ele>
      </trkpt>
      <trkpt lat="48.551343" lon="24.183633">
        <ele>933.924224115729</ele>
      </trkpt>
      <trkpt lat="48.552096" lon="24.185285">
        <ele>925.8197775655599</ele>
      </trkpt>
      <trkpt lat="48.552778" lon="24.186723">
        <ele>919.1112907122622</ele>
      </trkpt>
      <trkpt lat="48.553076" lon="24.188118">
        <ele>910.2082444485276</ele>
      </trkpt>
      <trkpt lat="48.553204" lon="24.189319">
        <ele>902.5</ele>
      </trkpt>
      <trkpt lat="48.553631" lon="24.191365">
        <ele>899.169648341951</ele>
      </trkpt>
      <trkpt lat="48.554057" lon="24.192201">
        <ele>898.1604388167345</ele>
      </trkpt>
      <trkpt lat="48.554213" lon="24.192888">
        <ele>895.5662257119548</ele>
      </trkpt>
      <trkpt lat="48.555207" lon="24.194583">
        <ele>887.3613959752255</ele>
      </trkpt>
      <trkpt lat="48.556968" lon="24.196042">
        <ele>880.8070062564885</ele>
      </trkpt>
      <trkpt lat="48.55792" lon="24.196622">
        <ele>870.1789556282358</ele>
      </trkpt>
      <trkpt lat="48.558303" lon="24.197523">
        <ele>867.2848446364653</ele>
      </trkpt>
      <trkpt lat="48.558786" lon="24.197629">
        <ele>860.2897570499919</ele>
      </trkpt>
      <trkpt lat="48.559524" lon="24.196899">
        <ele>852.8175804545699</ele>
      </trkpt>
      <trkpt lat="48.560405" lon="24.195955">
        <ele>847.0563653102131</ele>
      </trkpt>
      <trkpt lat="48.560859" lon="24.194668">
        <ele>850.2784846008976</ele>
      </trkpt>
      <trkpt lat="48.561967" lon="24.193638">
        <ele>841.4424693529727</ele>
      </trkpt>
      <trkpt lat="48.562478" lon="24.192222">
        <ele>854.7328862038021</ele>
      </trkpt>
      <trkpt lat="48.56333" lon="24.191106">
        <ele>853.0788038515152</ele>
      </trkpt>
      <trkpt lat="48.563813" lon="24.189389">
        <ele>858.6949059345279</ele>
      </trkpt>
      <trkpt lat="48.56884" lon="24.184711">
        <ele>828.076448711101</ele>
      </trkpt>
      <trkpt lat="48.570061" lon="24.181064">
        <ele>826.6460831442007</ele>
      </trkpt>
      <trkpt lat="48.571623" lon="24.178231">
        <ele>814.3232663454255</ele>
      </trkpt>
      <trkpt lat="48.572162" lon="24.178017">
        <ele>809.9113217641678</ele>
      </trkpt>
      <trkpt lat="48.57256" lon="24.177759">
        <ele>806.587541701103</ele>
      </trkpt>
      <trkpt lat="48.574036" lon="24.174283">
        <ele>809</ele>
      </trkpt>
      <trkpt lat="48.575152" lon="24.174289">
        <ele>802.8511672207444</ele>
      </trkpt>
      <trkpt lat="48.576259" lon="24.173774">
        <ele>796.886588424859</ele>
      </trkpt>
      <trkpt lat="48.577622" lon="24.173602">
        <ele>790.0617180443369</ele>
      </trkpt>
      <trkpt lat="48.57819" lon="24.173216">
        <ele>792.0632585701819</ele>
      </trkpt>
      <trkpt lat="48.581654" lon="24.173474">
        <ele>784.214746474172</ele>
      </trkpt>
      <trkpt lat="48.583442" lon="24.171929">
        <ele>784.0085581170861</ele>
      </trkpt>
      <trkpt lat="48.585316" lon="24.171843">
        <ele>773.4653627565131</ele>
      </trkpt>
      <trkpt lat="48.586594" lon="24.1718">
        <ele>776.2091474988615</ele>
      </trkpt>
      <trkpt lat="48.586906" lon="24.172529">
        <ele>770.439440641785</ele>
      </trkpt>
      <trkpt lat="48.586881" lon="24.172649">
        <ele>769.7596676847897</ele>
      </trkpt>
      <trkpt lat="48.587321" lon="24.173529">
        <ele>770.1849315691285</ele>
      </trkpt>
      <trkpt lat="48.587874" lon="24.173979">
        <ele>768.6149729104645</ele>
      </trkpt>
      <trkpt lat="48.588698" lon="24.17458">
        <ele>768.2647273837939</ele>
      </trkpt>
      <trkpt lat="48.589123" lon="24.174559">
        <ele>767.6067505135435</ele>
      </trkpt>
      <trkpt lat="48.589549" lon="24.174366">
        <ele>770.4652953676414</ele>
      </trkpt>
      <trkpt lat="48.590117" lon="24.173958">
        <ele>780.6432741250188</ele>
      </trkpt>
      <trkpt lat="48.590685" lon="24.173679">
        <ele>783.5951494379505</ele>
      </trkpt>
      <trkpt lat="48.591352" lon="24.173829">
        <ele>770.7031614440493</ele>
      </trkpt>
      <trkpt lat="48.592132" lon="24.174473">
        <ele>768.0644777747802</ele>
      </trkpt>
      <trkpt lat="48.594488" lon="24.17531">
        <ele>754.4441442150893</ele>
      </trkpt>
      <trkpt lat="48.596475" lon="24.176683">
        <ele>753.380073807611</ele>
      </trkpt>
      <trkpt lat="48.598093" lon="24.17782">
        <ele>751.6024856320413</ele>
      </trkpt>
      <trkpt lat="48.599384" lon="24.179859">
        <ele>744.8214009588929</ele>
      </trkpt>
      <trkpt lat="48.600434" lon="24.180996">
        <ele>746.62558901828</ele>
      </trkpt>
      <trkpt lat="48.601569" lon="24.182648">
        <ele>739.4085280177312</ele>
      </trkpt>
      <trkpt lat="48.603201" lon="24.183936">
        <ele>737.6683458558496</ele>
      </trkpt>
      <trkpt lat="48.60384" lon="24.184515">
        <ele>738.7126075696842</ele>
      </trkpt>
      <trkpt lat="48.60445" lon="24.184365">
        <ele>734.4959435306334</ele>
      </trkpt>
      <trkpt lat="48.604776" lon="24.18473">
        <ele>728.8170101107098</ele>
      </trkpt>
      <trkpt lat="48.60523" lon="24.185824">
        <ele>733.0152660973667</ele>
      </trkpt>
      <trkpt lat="48.605769" lon="24.186532">
        <ele>724.93636258482</ele>
      </trkpt>
      <trkpt lat="48.606252" lon="24.187047">
        <ele>726.0112338555293</ele>
      </trkpt>
      <trkpt lat="48.607557" lon="24.18797">
        <ele>723.4718040748589</ele>
      </trkpt>
      <trkpt lat="48.608267" lon="24.189236">
        <ele>722.6534989202628</ele>
      </trkpt>
      <trkpt lat="48.609061" lon="24.190416">
        <ele>719.227513487218</ele>
      </trkpt>
      <trkpt lat="48.610083" lon="24.191661">
        <ele>718.2067663675407</ele>
      </trkpt>
      <trkpt lat="48.610948" lon="24.192605">
        <ele>720.1342155720704</ele>
      </trkpt>
      <trkpt lat="48.611913" lon="24.192819">
        <ele>712.6984677530507</ele>
      </trkpt>
      <trkpt lat="48.612296" lon="24.193291">
        <ele>714.0442368202529</ele>
      </trkpt>
      <trkpt lat="48.612565" lon="24.193978">
        <ele>712.931457422208</ele>
      </trkpt>
      <trkpt lat="48.613757" lon="24.197111">
        <ele>703.7422122544313</ele>
      </trkpt>
      <trkpt lat="48.615176" lon="24.199257">
        <ele>695.8760213718176</ele>
      </trkpt>
      <trkpt lat="48.616949" lon="24.200437">
        <ele>692.2904380980181</ele>
      </trkpt>
      <trkpt lat="48.617842" lon="24.201617">
        <ele>686.1504771524342</ele>
      </trkpt>
      <trkpt lat="48.618835" lon="24.202411">
        <ele>685.855227728885</ele>
      </trkpt>
      <trkpt lat="48.619204" lon="24.203248">
        <ele>683.9306254222756</ele>
      </trkpt>
      <trkpt lat="48.619573" lon="24.20357">
        <ele>683.4961281822726</ele>
      </trkpt>
      <trkpt lat="48.620523" lon="24.205029">
        <ele>682.2430869333912</ele>
      </trkpt>
      <trkpt lat="48.621843" lon="24.206059">
        <ele>677.1071990446217</ele>
      </trkpt>
      <trkpt lat="48.622665" lon="24.206509">
        <ele>676.4322744888486</ele>
      </trkpt>
      <trkpt lat="48.624949" lon="24.208569">
        <ele>670</ele>
      </trkpt>
      <trkpt lat="48.626027" lon="24.208398">
        <ele>669.2815471064848</ele>
      </trkpt>
    </trkseg>
  </trk>
</gpx>
