<?xml version="1.0" encoding="UTF-8"?>
<gpx version="1.1" creator="phpGPX/1.0RC5" schemaLocation="http://www.topografix.com/GPX/1/1 http://www.topografix.com/GPX/1/1/gpx.xsd http://www.garmin.com/xmlschemas/GpxExtensions/v3 http://www.garmin.com/xmlschemas/GpxExtensionsv3.xsd http://www.garmin.com/xmlschemas/TrackPointExtension/v1 http://www.garmin.com/xmlschemas/TrackPointExtensionv1.xsd http://www.garmin.com/xmlschemas/PowerExtension/v1 http://www.garmin.com/xmlschemas/PowerExtensionv1.xsd http://www.topografix.com/GPX/gpx_style/0/2 http://www.topografix.com/GPX/gpx_style/0/2/gpx_style.xsd" xmlns="http://www.topografix.com/GPX/1/1" xmlns:xsi="http://www.w3.org/2001/XMLSchema-instance" xsi:schemaLocation="http://www.topografix.com/GPX/1/1 http://www.topografix.com/GPX/1/1/gpx.xsd http://www.garmin.com/xmlschemas/GpxExtensions/v3 http://www.garmin.com/xmlschemas/GpxExtensionsv3.xsd http://www.garmin.com/xmlschemas/TrackPointExtension/v1 http://www.garmin.com/xmlschemas/TrackPointExtensionv1.xsd http://www.garmin.com/xmlschemas/PowerExtension/v1 http://www.garmin.com/xmlschemas/PowerExtensionv1.xsd http://www.topografix.com/GPX/gpx_style/0/2 http://www.topografix.com/GPX/gpx_style/0/2/gpx_style.xsd" xmlns:gpxtpx="http://www.garmin.com/xmlschemas/TrackPointExtension/v1" xmlns:gpxx="http://www.garmin.com/xmlschemas/GpxExtensions/v3" xmlns:gpxpx="http://www.garmin.com/xmlschemas/PowerExtension/v1" xmlns:gpx_style="http://www.topografix.com/GPX/gpx_style/0/2">
  <metadata>
    <name>Вододільно-Верховинський хребет</name>
    <author>
      <name>gpx.studio</name>
      <link href="https://gpx.studio"/>
    </author>
  </metadata>
  <trk>
    <name>Вододільно-Верховинський хребет</name>
    <trkseg>
      <trkpt lat="49.004964" lon="22.901725">
        <ele>886.12</ele>
      </trkpt>
      <trkpt lat="49.005238" lon="22.901611">
        <ele>885.29</ele>
      </trkpt>
      <trkpt lat="49.005287" lon="22.901264">
        <ele>885.72</ele>
      </trkpt>
      <trkpt lat="49.00535" lon="22.901052">
        <ele>885.49</ele>
      </trkpt>
      <trkpt lat="49.005567" lon="22.900506">
        <ele>885.65</ele>
      </trkpt>
      <trkpt lat="49.005473" lon="22.900411">
        <ele>886.21</ele>
      </trkpt>
      <trkpt lat="49.005292" lon="22.900356">
        <ele>888.13</ele>
      </trkpt>
      <trkpt lat="49.005126" lon="22.900272">
        <ele>891.09</ele>
      </trkpt>
      <trkpt lat="49.00477" lon="22.900042">
        <ele>899.61</ele>
      </trkpt>
      <trkpt lat="49.004495" lon="22.899751">
        <ele>907.58</ele>
      </trkpt>
      <trkpt lat="49.003808" lon="22.899182">
        <ele>924.08</ele>
      </trkpt>
      <trkpt lat="49.003592" lon="22.899015">
        <ele>927.87</ele>
      </trkpt>
      <trkpt lat="49.003429" lon="22.89893">
        <ele>929.13</ele>
      </trkpt>
      <trkpt lat="49.002849" lon="22.898819">
        <ele>927.29</ele>
      </trkpt>
      <trkpt lat="49.001744" lon="22.898584">
        <ele>918.77</ele>
      </trkpt>
      <trkpt lat="49.000846" lon="22.898367">
        <ele>914.4</ele>
      </trkpt>
      <trkpt lat="49.000023" lon="22.898118">
        <ele>910.02</ele>
      </trkpt>
      <trkpt lat="48.999648" lon="22.897755">
        <ele>902.3</ele>
      </trkpt>
      <trkpt lat="48.999617" lon="22.897797">
        <ele>902.62</ele>
      </trkpt>
      <trkpt lat="48.999559" lon="22.897815">
        <ele>902.83</ele>
      </trkpt>
      <trkpt lat="48.999326" lon="22.897742">
        <ele>900.63</ele>
      </trkpt>
      <trkpt lat="48.998935" lon="22.897719">
        <ele>899.94</ele>
      </trkpt>
      <trkpt lat="48.998935" lon="22.897719">
        <ele>899.94</ele>
      </trkpt>
      <trkpt lat="48.998916" lon="22.897718">
        <ele>899.91</ele>
      </trkpt>
      <trkpt lat="48.998827" lon="22.897778">
        <ele>900.84</ele>
      </trkpt>
      <trkpt lat="48.998799" lon="22.897907">
        <ele>902.1</ele>
      </trkpt>
      <trkpt lat="48.99879" lon="22.898029">
        <ele>903</ele>
      </trkpt>
      <trkpt lat="48.998824" lon="22.898424">
        <ele>902.79</ele>
      </trkpt>
      <trkpt lat="48.998893" lon="22.898715">
        <ele>903.9</ele>
      </trkpt>
      <trkpt lat="48.998957" lon="22.899039">
        <ele>908.22</ele>
      </trkpt>
      <trkpt lat="48.998943" lon="22.899286">
        <ele>909.41</ele>
      </trkpt>
      <trkpt lat="48.998885" lon="22.899514">
        <ele>908.89</ele>
      </trkpt>
      <trkpt lat="48.99864" lon="22.900123">
        <ele>906.79</ele>
      </trkpt>
      <trkpt lat="48.998366" lon="22.900655">
        <ele>905.47</ele>
      </trkpt>
      <trkpt lat="48.998199" lon="22.900913">
        <ele>904.07</ele>
      </trkpt>
      <trkpt lat="48.998037" lon="22.90107">
        <ele>902.93</ele>
      </trkpt>
      <trkpt lat="48.997767" lon="22.901224">
        <ele>900.06</ele>
      </trkpt>
      <trkpt lat="48.997348" lon="22.901384">
        <ele>899.71</ele>
      </trkpt>
      <trkpt lat="48.997263" lon="22.901451">
        <ele>900.23</ele>
      </trkpt>
      <trkpt lat="48.996889" lon="22.901913">
        <ele>903.03</ele>
      </trkpt>
      <trkpt lat="48.996645" lon="22.902372">
        <ele>910.7</ele>
      </trkpt>
      <trkpt lat="48.99649" lon="22.902507">
        <ele>910.47</ele>
      </trkpt>
      <trkpt lat="48.996187" lon="22.902676">
        <ele>911.2</ele>
      </trkpt>
      <trkpt lat="48.995776" lon="22.902793">
        <ele>912.12</ele>
      </trkpt>
      <trkpt lat="48.995466" lon="22.902813">
        <ele>910.85</ele>
      </trkpt>
      <trkpt lat="48.995309" lon="22.902761">
        <ele>909.88</ele>
      </trkpt>
      <trkpt lat="48.995054" lon="22.90266">
        <ele>911.21</ele>
      </trkpt>
      <trkpt lat="48.994901" lon="22.902658">
        <ele>912.98</ele>
      </trkpt>
      <trkpt lat="48.99484" lon="22.902669">
        <ele>914.41</ele>
      </trkpt>
      <trkpt lat="48.994783" lon="22.902709">
        <ele>915.86</ele>
      </trkpt>
      <trkpt lat="48.994704" lon="22.903044">
        <ele>918.71</ele>
      </trkpt>
      <trkpt lat="48.994695" lon="22.90337">
        <ele>921.99</ele>
      </trkpt>
      <trkpt lat="48.994655" lon="22.903484">
        <ele>922.89</ele>
      </trkpt>
      <trkpt lat="48.994448" lon="22.903763">
        <ele>924.54</ele>
      </trkpt>
      <trkpt lat="48.994359" lon="22.904009">
        <ele>925.22</ele>
      </trkpt>
      <trkpt lat="48.994268" lon="22.904377">
        <ele>931.27</ele>
      </trkpt>
      <trkpt lat="48.994174" lon="22.904814">
        <ele>939.24</ele>
      </trkpt>
      <trkpt lat="48.994081" lon="22.905251">
        <ele>942.38</ele>
      </trkpt>
      <trkpt lat="48.993981" lon="22.905546">
        <ele>941.32</ele>
      </trkpt>
      <trkpt lat="48.993829" lon="22.905849">
        <ele>939.88</ele>
      </trkpt>
      <trkpt lat="48.993783" lon="22.90606">
        <ele>943.32</ele>
      </trkpt>
      <trkpt lat="48.993724" lon="22.906193">
        <ele>944.28</ele>
      </trkpt>
      <trkpt lat="48.993523" lon="22.906392">
        <ele>940.03</ele>
      </trkpt>
      <trkpt lat="48.993306" lon="22.90663">
        <ele>933.52</ele>
      </trkpt>
      <trkpt lat="48.992967" lon="22.906827">
        <ele>926.84</ele>
      </trkpt>
      <trkpt lat="48.992514" lon="22.907133">
        <ele>926.25</ele>
      </trkpt>
      <trkpt lat="48.99218" lon="22.907376">
        <ele>925.5</ele>
      </trkpt>
      <trkpt lat="48.991972" lon="22.907586">
        <ele>927.55</ele>
      </trkpt>
      <trkpt lat="48.991763" lon="22.907795">
        <ele>924.76</ele>
      </trkpt>
      <trkpt lat="48.991541" lon="22.908102">
        <ele>923.38</ele>
      </trkpt>
      <trkpt lat="48.991348" lon="22.908452">
        <ele>922.23</ele>
      </trkpt>
      <trkpt lat="48.991259" lon="22.908699">
        <ele>922.18</ele>
      </trkpt>
      <trkpt lat="48.991244" lon="22.908938">
        <ele>925.14</ele>
      </trkpt>
      <trkpt lat="48.99121" lon="22.909042">
        <ele>926.59</ele>
      </trkpt>
      <trkpt lat="48.991005" lon="22.909265">
        <ele>931.06</ele>
      </trkpt>
      <trkpt lat="48.990827" lon="22.909557">
        <ele>939.92</ele>
      </trkpt>
      <trkpt lat="48.990757" lon="22.909868">
        <ele>948.96</ele>
      </trkpt>
      <trkpt lat="48.990628" lon="22.910103">
        <ele>953.47</ele>
      </trkpt>
      <trkpt lat="48.990531" lon="22.910347">
        <ele>956.99</ele>
      </trkpt>
      <trkpt lat="48.990507" lon="22.910652">
        <ele>963.85</ele>
      </trkpt>
      <trkpt lat="48.990458" lon="22.910756">
        <ele>966.12</ele>
      </trkpt>
      <trkpt lat="48.990342" lon="22.910845">
        <ele>966.21</ele>
      </trkpt>
      <trkpt lat="48.990152" lon="22.910924">
        <ele>964.7</ele>
      </trkpt>
      <trkpt lat="48.989876" lon="22.91145">
        <ele>973.24</ele>
      </trkpt>
      <trkpt lat="48.989562" lon="22.911864">
        <ele>973.63</ele>
      </trkpt>
      <trkpt lat="48.989257" lon="22.912383">
        <ele>975.76</ele>
      </trkpt>
      <trkpt lat="48.988897" lon="22.912838">
        <ele>976.94</ele>
      </trkpt>
      <trkpt lat="48.988476" lon="22.913323">
        <ele>977</ele>
      </trkpt>
      <trkpt lat="48.988383" lon="22.91352">
        <ele>978.78</ele>
      </trkpt>
      <trkpt lat="48.988151" lon="22.913908">
        <ele>978.6</ele>
      </trkpt>
      <trkpt lat="48.988076" lon="22.914104">
        <ele>979.11</ele>
      </trkpt>
      <trkpt lat="48.98799" lon="22.914276">
        <ele>978.2</ele>
      </trkpt>
      <trkpt lat="48.987905" lon="22.91437">
        <ele>976.35</ele>
      </trkpt>
      <trkpt lat="48.987905" lon="22.91437">
        <ele>976.34</ele>
      </trkpt>
      <trkpt lat="48.987641" lon="22.914497">
        <ele>969.54</ele>
      </trkpt>
      <trkpt lat="48.987326" lon="22.914594">
        <ele>963.98</ele>
      </trkpt>
      <trkpt lat="48.986974" lon="22.914776">
        <ele>960.41</ele>
      </trkpt>
      <trkpt lat="48.986597" lon="22.914904">
        <ele>962.1</ele>
      </trkpt>
      <trkpt lat="48.986346" lon="22.914959">
        <ele>966.28</ele>
      </trkpt>
      <trkpt lat="48.98619" lon="22.914962">
        <ele>970.32</ele>
      </trkpt>
      <trkpt lat="48.986126" lon="22.914884">
        <ele>972.05</ele>
      </trkpt>
      <trkpt lat="48.986027" lon="22.91448">
        <ele>971.54</ele>
      </trkpt>
      <trkpt lat="48.985761" lon="22.914218">
        <ele>978.57</ele>
      </trkpt>
      <trkpt lat="48.985495" lon="22.913956">
        <ele>980.03</ele>
      </trkpt>
      <trkpt lat="48.985231" lon="22.913922">
        <ele>981.91</ele>
      </trkpt>
      <trkpt lat="48.984967" lon="22.913888">
        <ele>978.02</ele>
      </trkpt>
      <trkpt lat="48.984644" lon="22.91403">
        <ele>980.34</ele>
      </trkpt>
      <trkpt lat="48.984321" lon="22.914172">
        <ele>980.15</ele>
      </trkpt>
      <trkpt lat="48.984021" lon="22.914366">
        <ele>974.92</ele>
      </trkpt>
      <trkpt lat="48.983721" lon="22.914561">
        <ele>964.35</ele>
      </trkpt>
      <trkpt lat="48.983537" lon="22.914826">
        <ele>962.15</ele>
      </trkpt>
      <trkpt lat="48.983353" lon="22.915092">
        <ele>963.22</ele>
      </trkpt>
      <trkpt lat="48.983108" lon="22.915679">
        <ele>972.43</ele>
      </trkpt>
      <trkpt lat="48.982886" lon="22.915939">
        <ele>971.14</ele>
      </trkpt>
      <trkpt lat="48.982663" lon="22.916199">
        <ele>974.72</ele>
      </trkpt>
      <trkpt lat="48.982217" lon="22.916718">
        <ele>985.93</ele>
      </trkpt>
      <trkpt lat="48.982056" lon="22.916892">
        <ele>987.76</ele>
      </trkpt>
      <trkpt lat="48.981863" lon="22.917228">
        <ele>992.66</ele>
      </trkpt>
      <trkpt lat="48.981471" lon="22.917502">
        <ele>992.18</ele>
      </trkpt>
      <trkpt lat="48.980771" lon="22.917396">
        <ele>974.75</ele>
      </trkpt>
      <trkpt lat="48.980554" lon="22.917498">
        <ele>971.38</ele>
      </trkpt>
      <trkpt lat="48.980119" lon="22.917703">
        <ele>971.62</ele>
      </trkpt>
      <trkpt lat="48.979988" lon="22.91788">
        <ele>969.4</ele>
      </trkpt>
      <trkpt lat="48.979505" lon="22.917678">
        <ele>966.51</ele>
      </trkpt>
      <trkpt lat="48.979321" lon="22.917849">
        <ele>964.1</ele>
      </trkpt>
      <trkpt lat="48.979137" lon="22.91802">
        <ele>959.53</ele>
      </trkpt>
      <trkpt lat="48.978806" lon="22.91793">
        <ele>951.64</ele>
      </trkpt>
      <trkpt lat="48.978611" lon="22.917743">
        <ele>947.55</ele>
      </trkpt>
      <trkpt lat="48.978399" lon="22.917615">
        <ele>944.86</ele>
      </trkpt>
      <trkpt lat="48.978301" lon="22.917541">
        <ele>944.41</ele>
      </trkpt>
      <trkpt lat="48.978151" lon="22.918106">
        <ele>939.33</ele>
      </trkpt>
      <trkpt lat="48.977973" lon="22.918522">
        <ele>932.12</ele>
      </trkpt>
      <trkpt lat="48.977946" lon="22.918634">
        <ele>930.01</ele>
      </trkpt>
      <trkpt lat="48.977722" lon="22.918569">
        <ele>931.36</ele>
      </trkpt>
      <trkpt lat="48.977582" lon="22.918594">
        <ele>932.28</ele>
      </trkpt>
      <trkpt lat="48.977172" lon="22.918734">
        <ele>933.82</ele>
      </trkpt>
      <trkpt lat="48.976986" lon="22.9188">
        <ele>934.72</ele>
      </trkpt>
      <trkpt lat="48.976578" lon="22.918802">
        <ele>943.75</ele>
      </trkpt>
      <trkpt lat="48.976347" lon="22.918864">
        <ele>946.37</ele>
      </trkpt>
      <trkpt lat="48.976074" lon="22.91907">
        <ele>946.31</ele>
      </trkpt>
      <trkpt lat="48.975544" lon="22.919275">
        <ele>952.1</ele>
      </trkpt>
      <trkpt lat="48.97503" lon="22.919639">
        <ele>953.83</ele>
      </trkpt>
      <trkpt lat="48.974741" lon="22.919883">
        <ele>953.91</ele>
      </trkpt>
      <trkpt lat="48.974629" lon="22.919988">
        <ele>952.86</ele>
      </trkpt>
      <trkpt lat="48.974196" lon="22.920144">
        <ele>955.76</ele>
      </trkpt>
      <trkpt lat="48.974046" lon="22.920228">
        <ele>955.22</ele>
      </trkpt>
      <trkpt lat="48.973833" lon="22.920519">
        <ele>951.48</ele>
      </trkpt>
      <trkpt lat="48.973503" lon="22.921004">
        <ele>944.86</ele>
      </trkpt>
      <trkpt lat="48.972787" lon="22.921683">
        <ele>940.02</ele>
      </trkpt>
      <trkpt lat="48.972285" lon="22.922051">
        <ele>940.49</ele>
      </trkpt>
      <trkpt lat="48.971962" lon="22.922253">
        <ele>943.39</ele>
      </trkpt>
      <trkpt lat="48.97172" lon="22.922347">
        <ele>947.08</ele>
      </trkpt>
      <trkpt lat="48.971238" lon="22.922536">
        <ele>949.31</ele>
      </trkpt>
      <trkpt lat="48.970801" lon="22.922592">
        <ele>951.49</ele>
      </trkpt>
      <trkpt lat="48.970539" lon="22.922566">
        <ele>954.06</ele>
      </trkpt>
      <trkpt lat="48.969914" lon="22.922755">
        <ele>957.36</ele>
      </trkpt>
      <trkpt lat="48.969616" lon="22.922842">
        <ele>956.84</ele>
      </trkpt>
      <trkpt lat="48.969468" lon="22.922812">
        <ele>958.7</ele>
      </trkpt>
      <trkpt lat="48.969412" lon="22.922789">
        <ele>959.05</ele>
      </trkpt>
      <trkpt lat="48.969412" lon="22.922788">
        <ele>959.06</ele>
      </trkpt>
      <trkpt lat="48.969324" lon="22.922751">
        <ele>959.62</ele>
      </trkpt>
      <trkpt lat="48.969023" lon="22.922462">
        <ele>963.49</ele>
      </trkpt>
      <trkpt lat="48.968762" lon="22.922098">
        <ele>962.33</ele>
      </trkpt>
      <trkpt lat="48.968538" lon="22.921594">
        <ele>959.5</ele>
      </trkpt>
      <trkpt lat="48.968318" lon="22.920762">
        <ele>951.43</ele>
      </trkpt>
      <trkpt lat="48.968226" lon="22.920081">
        <ele>945.04</ele>
      </trkpt>
      <trkpt lat="48.968192" lon="22.919385">
        <ele>941.59</ele>
      </trkpt>
      <trkpt lat="48.968175" lon="22.919036">
        <ele>941.14</ele>
      </trkpt>
      <trkpt lat="48.968203" lon="22.918328">
        <ele>941.75</ele>
      </trkpt>
      <trkpt lat="48.968201" lon="22.917341">
        <ele>944.38</ele>
      </trkpt>
      <trkpt lat="48.968171" lon="22.916971">
        <ele>945.1</ele>
      </trkpt>
      <trkpt lat="48.96812" lon="22.916772">
        <ele>945.87</ele>
      </trkpt>
      <trkpt lat="48.96801" lon="22.916556">
        <ele>947.25</ele>
      </trkpt>
      <trkpt lat="48.96786" lon="22.916379">
        <ele>949.22</ele>
      </trkpt>
      <trkpt lat="48.967682" lon="22.916231">
        <ele>952.03</ele>
      </trkpt>
      <trkpt lat="48.967313" lon="22.916003">
        <ele>955.58</ele>
      </trkpt>
      <trkpt lat="48.96712" lon="22.915779">
        <ele>956.63</ele>
      </trkpt>
      <trkpt lat="48.966937" lon="22.91536">
        <ele>959.53</ele>
      </trkpt>
      <trkpt lat="48.96669" lon="22.914676">
        <ele>965.3</ele>
      </trkpt>
      <trkpt lat="48.966561" lon="22.914243">
        <ele>967.62</ele>
      </trkpt>
      <trkpt lat="48.966432" lon="22.913811">
        <ele>966.9</ele>
      </trkpt>
      <trkpt lat="48.966337" lon="22.913559">
        <ele>966.06</ele>
      </trkpt>
      <trkpt lat="48.966227" lon="22.913358">
        <ele>965.81</ele>
      </trkpt>
      <trkpt lat="48.966099" lon="22.913107">
        <ele>967.14</ele>
      </trkpt>
      <trkpt lat="48.96563" lon="22.912243">
        <ele>970.8</ele>
      </trkpt>
      <trkpt lat="48.965588" lon="22.911825">
        <ele>969.43</ele>
      </trkpt>
      <trkpt lat="48.965577" lon="22.911718">
        <ele>969.08</ele>
      </trkpt>
      <trkpt lat="48.965633" lon="22.911254">
        <ele>966.87</ele>
      </trkpt>
      <trkpt lat="48.965743" lon="22.910327">
        <ele>958.99</ele>
      </trkpt>
      <trkpt lat="48.965861" lon="22.909709">
        <ele>954.82</ele>
      </trkpt>
      <trkpt lat="48.965905" lon="22.909293">
        <ele>953.12</ele>
      </trkpt>
      <trkpt lat="48.966118" lon="22.908387">
        <ele>952.17</ele>
      </trkpt>
      <trkpt lat="48.966202" lon="22.90773">
        <ele>952.72</ele>
      </trkpt>
      <trkpt lat="48.966231" lon="22.907287">
        <ele>953.12</ele>
      </trkpt>
      <trkpt lat="48.966149" lon="22.906517">
        <ele>952.39</ele>
      </trkpt>
      <trkpt lat="48.966122" lon="22.906184">
        <ele>952.09</ele>
      </trkpt>
      <trkpt lat="48.966125" lon="22.90599">
        <ele>951.55</ele>
      </trkpt>
      <trkpt lat="48.96621" lon="22.90563">
        <ele>951</ele>
      </trkpt>
      <trkpt lat="48.966367" lon="22.905318">
        <ele>950</ele>
      </trkpt>
      <trkpt lat="48.966594" lon="22.904973">
        <ele>948.35</ele>
      </trkpt>
      <trkpt lat="48.96728" lon="22.904274">
        <ele>942.47</ele>
      </trkpt>
      <trkpt lat="48.967738" lon="22.903808">
        <ele>940.36</ele>
      </trkpt>
      <trkpt lat="48.968561" lon="22.903008">
        <ele>944.54</ele>
      </trkpt>
      <trkpt lat="48.968689" lon="22.902884">
        <ele>945.82</ele>
      </trkpt>
      <trkpt lat="48.969088" lon="22.90238">
        <ele>949.43</ele>
      </trkpt>
      <trkpt lat="48.969301" lon="22.901949">
        <ele>950.32</ele>
      </trkpt>
      <trkpt lat="48.969382" lon="22.901714">
        <ele>952.03</ele>
      </trkpt>
      <trkpt lat="48.969406" lon="22.901618">
        <ele>952.48</ele>
      </trkpt>
      <trkpt lat="48.969395" lon="22.901479">
        <ele>953.85</ele>
      </trkpt>
      <trkpt lat="48.969377" lon="22.901379">
        <ele>954.7</ele>
      </trkpt>
      <trkpt lat="48.969297" lon="22.901189">
        <ele>955.49</ele>
      </trkpt>
      <trkpt lat="48.96901" lon="22.900733">
        <ele>956.44</ele>
      </trkpt>
      <trkpt lat="48.968807" lon="22.9004">
        <ele>954.97</ele>
      </trkpt>
      <trkpt lat="48.968775" lon="22.900259">
        <ele>956.05</ele>
      </trkpt>
      <trkpt lat="48.96877" lon="22.900177">
        <ele>956.79</ele>
      </trkpt>
      <trkpt lat="48.968779" lon="22.900106">
        <ele>957.67</ele>
      </trkpt>
      <trkpt lat="48.968808" lon="22.899996">
        <ele>959.26</ele>
      </trkpt>
      <trkpt lat="48.968892" lon="22.89982">
        <ele>962.48</ele>
      </trkpt>
      <trkpt lat="48.968933" lon="22.899596">
        <ele>964.9</ele>
      </trkpt>
      <trkpt lat="48.968949" lon="22.899351">
        <ele>966.7</ele>
      </trkpt>
      <trkpt lat="48.968948" lon="22.899117">
        <ele>967.46</ele>
      </trkpt>
      <trkpt lat="48.968969" lon="22.89898">
        <ele>968.3</ele>
      </trkpt>
      <trkpt lat="48.969011" lon="22.898796">
        <ele>969.48</ele>
      </trkpt>
      <trkpt lat="48.969029" lon="22.898548">
        <ele>969.88</ele>
      </trkpt>
      <trkpt lat="48.969127" lon="22.898682">
        <ele>971.81</ele>
      </trkpt>
      <trkpt lat="48.969127" lon="22.898682">
        <ele>971.81</ele>
      </trkpt>
      <trkpt lat="48.969127" lon="22.898682">
        <ele>971.81</ele>
      </trkpt>
      <trkpt lat="48.968873" lon="22.898344">
        <ele>968.52</ele>
      </trkpt>
      <trkpt lat="48.968635" lon="22.898061">
        <ele>966.8</ele>
      </trkpt>
      <trkpt lat="48.968553" lon="22.897996">
        <ele>966.66</ele>
      </trkpt>
      <trkpt lat="48.968241" lon="22.897874">
        <ele>964.67</ele>
      </trkpt>
      <trkpt lat="48.968138" lon="22.897844">
        <ele>963.93</ele>
      </trkpt>
      <trkpt lat="48.967974" lon="22.897694">
        <ele>961.56</ele>
      </trkpt>
      <trkpt lat="48.967933" lon="22.897624">
        <ele>961.16</ele>
      </trkpt>
      <trkpt lat="48.967864" lon="22.897552">
        <ele>960.58</ele>
      </trkpt>
      <trkpt lat="48.967829" lon="22.897532">
        <ele>960.27</ele>
      </trkpt>
      <trkpt lat="48.967788" lon="22.89753">
        <ele>959.91</ele>
      </trkpt>
      <trkpt lat="48.967579" lon="22.897641">
        <ele>957.21</ele>
      </trkpt>
      <trkpt lat="48.967527" lon="22.897654">
        <ele>956.22</ele>
      </trkpt>
      <trkpt lat="48.967483" lon="22.89765">
        <ele>955.46</ele>
      </trkpt>
      <trkpt lat="48.967433" lon="22.897601">
        <ele>954.71</ele>
      </trkpt>
      <trkpt lat="48.967385" lon="22.897525">
        <ele>954.3</ele>
      </trkpt>
      <trkpt lat="48.96735" lon="22.897364">
        <ele>954.06</ele>
      </trkpt>
      <trkpt lat="48.967342" lon="22.897202">
        <ele>953.94</ele>
      </trkpt>
      <trkpt lat="48.967358" lon="22.897016">
        <ele>954.13</ele>
      </trkpt>
      <trkpt lat="48.96734" lon="22.896935">
        <ele>953.75</ele>
      </trkpt>
      <trkpt lat="48.967083" lon="22.896581">
        <ele>952.83</ele>
      </trkpt>
      <trkpt lat="48.966718" lon="22.896232">
        <ele>954.16</ele>
      </trkpt>
      <trkpt lat="48.966308" lon="22.895812">
        <ele>954.34</ele>
      </trkpt>
      <trkpt lat="48.966194" lon="22.895729">
        <ele>952.41</ele>
      </trkpt>
      <trkpt lat="48.966076" lon="22.895619">
        <ele>950.34</ele>
      </trkpt>
      <trkpt lat="48.965961" lon="22.895394">
        <ele>948.46</ele>
      </trkpt>
      <trkpt lat="48.965845" lon="22.895122">
        <ele>946.7</ele>
      </trkpt>
      <trkpt lat="48.965825" lon="22.895056">
        <ele>946.58</ele>
      </trkpt>
      <trkpt lat="48.96578" lon="22.894985">
        <ele>946.6</ele>
      </trkpt>
      <trkpt lat="48.965702" lon="22.894916">
        <ele>946.38</ele>
      </trkpt>
      <trkpt lat="48.965594" lon="22.894777">
        <ele>945.87</ele>
      </trkpt>
      <trkpt lat="48.9655" lon="22.89457">
        <ele>946.95</ele>
      </trkpt>
      <trkpt lat="48.965318" lon="22.894207">
        <ele>948</ele>
      </trkpt>
      <trkpt lat="48.965161" lon="22.893842">
        <ele>948</ele>
      </trkpt>
      <trkpt lat="48.965034" lon="22.893492">
        <ele>947.41</ele>
      </trkpt>
      <trkpt lat="48.96488" lon="22.892814">
        <ele>944.13</ele>
      </trkpt>
      <trkpt lat="48.96483" lon="22.892369">
        <ele>942.79</ele>
      </trkpt>
      <trkpt lat="48.964544" lon="22.891172">
        <ele>938.37</ele>
      </trkpt>
      <trkpt lat="48.964456" lon="22.890587">
        <ele>936.87</ele>
      </trkpt>
      <trkpt lat="48.96436" lon="22.890109">
        <ele>937.11</ele>
      </trkpt>
      <trkpt lat="48.964158" lon="22.889572">
        <ele>936.53</ele>
      </trkpt>
      <trkpt lat="48.963972" lon="22.889228">
        <ele>936.12</ele>
      </trkpt>
      <trkpt lat="48.9637" lon="22.888724">
        <ele>936.65</ele>
      </trkpt>
      <trkpt lat="48.963532" lon="22.888374">
        <ele>937.18</ele>
      </trkpt>
      <trkpt lat="48.963491" lon="22.888046">
        <ele>938.72</ele>
      </trkpt>
      <trkpt lat="48.963142" lon="22.887183">
        <ele>936.44</ele>
      </trkpt>
      <trkpt lat="48.963095" lon="22.886809">
        <ele>936.32</ele>
      </trkpt>
      <trkpt lat="48.962878" lon="22.886549">
        <ele>936.57</ele>
      </trkpt>
      <trkpt lat="48.962444" lon="22.88603">
        <ele>942.66</ele>
      </trkpt>
      <trkpt lat="48.962328" lon="22.885979">
        <ele>944.34</ele>
      </trkpt>
      <trkpt lat="48.961696" lon="22.885195">
        <ele>956.48</ele>
      </trkpt>
      <trkpt lat="48.961427" lon="22.884685">
        <ele>963.6</ele>
      </trkpt>
      <trkpt lat="48.961258" lon="22.884334">
        <ele>966.43</ele>
      </trkpt>
      <trkpt lat="48.961198" lon="22.884149">
        <ele>967.54</ele>
      </trkpt>
      <trkpt lat="48.961057" lon="22.883551">
        <ele>967.7</ele>
      </trkpt>
      <trkpt lat="48.961046" lon="22.883328">
        <ele>967.79</ele>
      </trkpt>
      <trkpt lat="48.960953" lon="22.88307">
        <ele>968.5</ele>
      </trkpt>
      <trkpt lat="48.96084" lon="22.882711">
        <ele>969</ele>
      </trkpt>
      <trkpt lat="48.96077" lon="22.882196">
        <ele>969</ele>
      </trkpt>
      <trkpt lat="48.960722" lon="22.88214">
        <ele>969</ele>
      </trkpt>
      <trkpt lat="48.960701" lon="22.881973">
        <ele>969</ele>
      </trkpt>
      <trkpt lat="48.960719" lon="22.881678">
        <ele>969</ele>
      </trkpt>
      <trkpt lat="48.96072" lon="22.881501">
        <ele>969</ele>
      </trkpt>
      <trkpt lat="48.96071" lon="22.881338">
        <ele>969.68</ele>
      </trkpt>
      <trkpt lat="48.960757" lon="22.881043">
        <ele>970.21</ele>
      </trkpt>
      <trkpt lat="48.96073" lon="22.880768">
        <ele>970.47</ele>
      </trkpt>
      <trkpt lat="48.960708" lon="22.880653">
        <ele>970.11</ele>
      </trkpt>
      <trkpt lat="48.960589" lon="22.880396">
        <ele>970.36</ele>
      </trkpt>
      <trkpt lat="48.960426" lon="22.879997">
        <ele>971.4</ele>
      </trkpt>
      <trkpt lat="48.960321" lon="22.879935">
        <ele>970.83</ele>
      </trkpt>
      <trkpt lat="48.960012" lon="22.879353">
        <ele>974.31</ele>
      </trkpt>
      <trkpt lat="48.959703" lon="22.878771">
        <ele>983.88</ele>
      </trkpt>
      <trkpt lat="48.959549" lon="22.87848">
        <ele>985.5</ele>
      </trkpt>
      <trkpt lat="48.959208" lon="22.877754">
        <ele>993.72</ele>
      </trkpt>
      <trkpt lat="48.959038" lon="22.877274">
        <ele>997.03</ele>
      </trkpt>
      <trkpt lat="48.958992" lon="22.877114">
        <ele>998.88</ele>
      </trkpt>
      <trkpt lat="48.958977" lon="22.876849">
        <ele>1001.1</ele>
      </trkpt>
      <trkpt lat="48.959053" lon="22.876677">
        <ele>1002.42</ele>
      </trkpt>
      <trkpt lat="48.959045" lon="22.876474">
        <ele>1005.84</ele>
      </trkpt>
      <trkpt lat="48.959044" lon="22.876255">
        <ele>1008.4</ele>
      </trkpt>
      <trkpt lat="48.95885" lon="22.876075">
        <ele>1014.16</ele>
      </trkpt>
      <trkpt lat="48.958692" lon="22.875863">
        <ele>1021.36</ele>
      </trkpt>
      <trkpt lat="48.958447" lon="22.875721">
        <ele>1030.05</ele>
      </trkpt>
      <trkpt lat="48.958302" lon="22.875539">
        <ele>1036.07</ele>
      </trkpt>
      <trkpt lat="48.958169" lon="22.875429">
        <ele>1041.09</ele>
      </trkpt>
      <trkpt lat="48.958003" lon="22.875045">
        <ele>1050.77</ele>
      </trkpt>
      <trkpt lat="48.958001" lon="22.874922">
        <ele>1052.64</ele>
      </trkpt>
      <trkpt lat="48.957973" lon="22.874734">
        <ele>1055.29</ele>
      </trkpt>
      <trkpt lat="48.957936" lon="22.874611">
        <ele>1056.99</ele>
      </trkpt>
      <trkpt lat="48.957945" lon="22.874168">
        <ele>1060.48</ele>
      </trkpt>
      <trkpt lat="48.957887" lon="22.873702">
        <ele>1065.13</ele>
      </trkpt>
      <trkpt lat="48.957818" lon="22.873425">
        <ele>1070.67</ele>
      </trkpt>
      <trkpt lat="48.957804" lon="22.872993">
        <ele>1073.91</ele>
      </trkpt>
      <trkpt lat="48.957675" lon="22.872658">
        <ele>1077.57</ele>
      </trkpt>
      <trkpt lat="48.957522" lon="22.872602">
        <ele>1080.64</ele>
      </trkpt>
      <trkpt lat="48.9575" lon="22.872611">
        <ele>1081.27</ele>
      </trkpt>
      <trkpt lat="48.9575" lon="22.87261">
        <ele>1081.27</ele>
      </trkpt>
      <trkpt lat="48.957373" lon="22.872661">
        <ele>1084.86</ele>
      </trkpt>
      <trkpt lat="48.957233" lon="22.872731">
        <ele>1089.85</ele>
      </trkpt>
      <trkpt lat="48.957036" lon="22.872752">
        <ele>1096.36</ele>
      </trkpt>
      <trkpt lat="48.956811" lon="22.872862">
        <ele>1104.56</ele>
      </trkpt>
      <trkpt lat="48.956739" lon="22.872969">
        <ele>1107.73</ele>
      </trkpt>
      <trkpt lat="48.956642" lon="22.873001">
        <ele>1110.96</ele>
      </trkpt>
      <trkpt lat="48.956492" lon="22.872953">
        <ele>1113.68</ele>
      </trkpt>
      <trkpt lat="48.9562" lon="22.872818">
        <ele>1117.71</ele>
      </trkpt>
      <trkpt lat="48.955907" lon="22.872682">
        <ele>1117.05</ele>
      </trkpt>
      <trkpt lat="48.955687" lon="22.872696">
        <ele>1114.41</ele>
      </trkpt>
      <trkpt lat="48.955481" lon="22.872583">
        <ele>1111.93</ele>
      </trkpt>
      <trkpt lat="48.955057" lon="22.872489">
        <ele>1110</ele>
      </trkpt>
      <trkpt lat="48.955011" lon="22.872221">
        <ele>1110</ele>
      </trkpt>
      <trkpt lat="48.954411" lon="22.872555">
        <ele>1108.95</ele>
      </trkpt>
      <trkpt lat="48.954187" lon="22.87262">
        <ele>1108</ele>
      </trkpt>
      <trkpt lat="48.953596" lon="22.872901">
        <ele>1107.05</ele>
      </trkpt>
      <trkpt lat="48.9533" lon="22.873041">
        <ele>1108.38</ele>
      </trkpt>
      <trkpt lat="48.952974" lon="22.873255">
        <ele>1107.9</ele>
      </trkpt>
      <trkpt lat="48.952713" lon="22.873532">
        <ele>1105.07</ele>
      </trkpt>
      <trkpt lat="48.952511" lon="22.873695">
        <ele>1104.33</ele>
      </trkpt>
      <trkpt lat="48.952322" lon="22.873802">
        <ele>1104.12</ele>
      </trkpt>
      <trkpt lat="48.951981" lon="22.87389">
        <ele>1103.55</ele>
      </trkpt>
      <trkpt lat="48.951106" lon="22.873928">
        <ele>1101.93</ele>
      </trkpt>
      <trkpt lat="48.950815" lon="22.873941">
        <ele>1103.17</ele>
      </trkpt>
      <trkpt lat="48.950406" lon="22.873998">
        <ele>1105.57</ele>
      </trkpt>
      <trkpt lat="48.949887" lon="22.874042">
        <ele>1110.91</ele>
      </trkpt>
      <trkpt lat="48.949476" lon="22.873886">
        <ele>1113.52</ele>
      </trkpt>
      <trkpt lat="48.949002" lon="22.873913">
        <ele>1110.89</ele>
      </trkpt>
      <trkpt lat="48.948541" lon="22.87399">
        <ele>1113.64</ele>
      </trkpt>
      <trkpt lat="48.94831" lon="22.874029">
        <ele>1117.49</ele>
      </trkpt>
      <trkpt lat="48.94821" lon="22.873997">
        <ele>1119.46</ele>
      </trkpt>
      <trkpt lat="48.948014" lon="22.874018">
        <ele>1123.35</ele>
      </trkpt>
      <trkpt lat="48.947953" lon="22.874053">
        <ele>1124.44</ele>
      </trkpt>
      <trkpt lat="48.947738" lon="22.874042">
        <ele>1126.93</ele>
      </trkpt>
      <trkpt lat="48.947586" lon="22.874163">
        <ele>1126.6</ele>
      </trkpt>
      <trkpt lat="48.947509" lon="22.874152">
        <ele>1126.88</ele>
      </trkpt>
      <trkpt lat="48.946915" lon="22.873879">
        <ele>1134.16</ele>
      </trkpt>
      <trkpt lat="48.946852" lon="22.873865">
        <ele>1134.8</ele>
      </trkpt>
      <trkpt lat="48.946707" lon="22.873736">
        <ele>1136.83</ele>
      </trkpt>
      <trkpt lat="48.946496" lon="22.873321">
        <ele>1139.5</ele>
      </trkpt>
      <trkpt lat="48.946458" lon="22.87331">
        <ele>1139.44</ele>
      </trkpt>
      <trkpt lat="48.946249" lon="22.873122">
        <ele>1140.02</ele>
      </trkpt>
      <trkpt lat="48.946063" lon="22.872942">
        <ele>1142.07</ele>
      </trkpt>
      <trkpt lat="48.945919" lon="22.87268">
        <ele>1145.47</ele>
      </trkpt>
      <trkpt lat="48.945786" lon="22.872454">
        <ele>1150.35</ele>
      </trkpt>
      <trkpt lat="48.945742" lon="22.87236">
        <ele>1151.72</ele>
      </trkpt>
      <trkpt lat="48.945679" lon="22.872304">
        <ele>1153.18</ele>
      </trkpt>
      <trkpt lat="48.945529" lon="22.872256">
        <ele>1154</ele>
      </trkpt>
      <trkpt lat="48.945154" lon="22.872261">
        <ele>1155.5</ele>
      </trkpt>
      <trkpt lat="48.944715" lon="22.87221">
        <ele>1161.4</ele>
      </trkpt>
      <trkpt lat="48.944298" lon="22.872264">
        <ele>1165.08</ele>
      </trkpt>
      <trkpt lat="48.944044" lon="22.872269">
        <ele>1167.33</ele>
      </trkpt>
      <trkpt lat="48.943415" lon="22.872448">
        <ele>1173.46</ele>
      </trkpt>
      <trkpt lat="48.943132" lon="22.872568">
        <ele>1175.27</ele>
      </trkpt>
      <trkpt lat="48.942728" lon="22.872692">
        <ele>1178.82</ele>
      </trkpt>
      <trkpt lat="48.942318" lon="22.872703">
        <ele>1179.91</ele>
      </trkpt>
      <trkpt lat="48.941314" lon="22.873062">
        <ele>1182</ele>
      </trkpt>
      <trkpt lat="48.941254" lon="22.873098">
        <ele>1181.99</ele>
      </trkpt>
      <trkpt lat="48.941254" lon="22.873098">
        <ele>1181.99</ele>
      </trkpt>
      <trkpt lat="48.940506" lon="22.873551">
        <ele>1181.9</ele>
      </trkpt>
      <trkpt lat="48.939966" lon="22.873877">
        <ele>1178.15</ele>
      </trkpt>
      <trkpt lat="48.939687" lon="22.874017">
        <ele>1175.55</ele>
      </trkpt>
      <trkpt lat="48.939591" lon="22.87404">
        <ele>1175.08</ele>
      </trkpt>
      <trkpt lat="48.939497" lon="22.874147">
        <ele>1173.5</ele>
      </trkpt>
      <trkpt lat="48.93943" lon="22.874353">
        <ele>1169.82</ele>
      </trkpt>
      <trkpt lat="48.939335" lon="22.874781">
        <ele>1163.01</ele>
      </trkpt>
      <trkpt lat="48.93918" lon="22.875152">
        <ele>1158.32</ele>
      </trkpt>
      <trkpt lat="48.939005" lon="22.875391">
        <ele>1154</ele>
      </trkpt>
      <trkpt lat="48.938686" lon="22.875712">
        <ele>1149.64</ele>
      </trkpt>
      <trkpt lat="48.938269" lon="22.875924">
        <ele>1145.76</ele>
      </trkpt>
      <trkpt lat="48.938016" lon="22.87611">
        <ele>1142.6</ele>
      </trkpt>
      <trkpt lat="48.93753" lon="22.876153">
        <ele>1136.01</ele>
      </trkpt>
      <trkpt lat="48.93738" lon="22.876109">
        <ele>1134.12</ele>
      </trkpt>
      <trkpt lat="48.937163" lon="22.875901">
        <ele>1128.91</ele>
      </trkpt>
      <trkpt lat="48.936968" lon="22.875928">
        <ele>1129.61</ele>
      </trkpt>
      <trkpt lat="48.936672" lon="22.876054">
        <ele>1128.99</ele>
      </trkpt>
      <trkpt lat="48.936352" lon="22.876266">
        <ele>1123.77</ele>
      </trkpt>
      <trkpt lat="48.936084" lon="22.876341">
        <ele>1118.54</ele>
      </trkpt>
      <trkpt lat="48.93582" lon="22.876445">
        <ele>1117.54</ele>
      </trkpt>
      <trkpt lat="48.935642" lon="22.876614">
        <ele>1116.96</ele>
      </trkpt>
      <trkpt lat="48.935473" lon="22.876634">
        <ele>1115.53</ele>
      </trkpt>
      <trkpt lat="48.935093" lon="22.876646">
        <ele>1110.24</ele>
      </trkpt>
      <trkpt lat="48.934926" lon="22.876716">
        <ele>1108.68</ele>
      </trkpt>
      <trkpt lat="48.934721" lon="22.876862">
        <ele>1107.49</ele>
      </trkpt>
      <trkpt lat="48.934489" lon="22.877046">
        <ele>1105.05</ele>
      </trkpt>
      <trkpt lat="48.934397" lon="22.877099">
        <ele>1103.43</ele>
      </trkpt>
      <trkpt lat="48.934313" lon="22.87712">
        <ele>1102.09</ele>
      </trkpt>
      <trkpt lat="48.934" lon="22.877065">
        <ele>1098.31</ele>
      </trkpt>
      <trkpt lat="48.933894" lon="22.877034">
        <ele>1097.02</ele>
      </trkpt>
      <trkpt lat="48.933776" lon="22.877045">
        <ele>1096.31</ele>
      </trkpt>
      <trkpt lat="48.933457" lon="22.87721">
        <ele>1096.08</ele>
      </trkpt>
      <trkpt lat="48.932973" lon="22.877529">
        <ele>1095.94</ele>
      </trkpt>
      <trkpt lat="48.932676" lon="22.877776">
        <ele>1097</ele>
      </trkpt>
      <trkpt lat="48.93223" lon="22.878175">
        <ele>1099.24</ele>
      </trkpt>
      <trkpt lat="48.931804" lon="22.878585">
        <ele>1097.89</ele>
      </trkpt>
      <trkpt lat="48.931602" lon="22.878756">
        <ele>1097.94</ele>
      </trkpt>
      <trkpt lat="48.931481" lon="22.878874">
        <ele>1097.89</ele>
      </trkpt>
      <trkpt lat="48.931186" lon="22.879295">
        <ele>1100.37</ele>
      </trkpt>
      <trkpt lat="48.931036" lon="22.879572">
        <ele>1103.7</ele>
      </trkpt>
      <trkpt lat="48.930697" lon="22.880044">
        <ele>1113.09</ele>
      </trkpt>
      <trkpt lat="48.930482" lon="22.880173">
        <ele>1118.17</ele>
      </trkpt>
      <trkpt lat="48.930218" lon="22.880378">
        <ele>1127.36</ele>
      </trkpt>
      <trkpt lat="48.929636" lon="22.880648">
        <ele>1141.92</ele>
      </trkpt>
      <trkpt lat="48.929261" lon="22.881033">
        <ele>1149.06</ele>
      </trkpt>
      <trkpt lat="48.928771" lon="22.881533">
        <ele>1153.25</ele>
      </trkpt>
      <trkpt lat="48.928526" lon="22.881783">
        <ele>1160.21</ele>
      </trkpt>
      <trkpt lat="48.928334" lon="22.882101">
        <ele>1167.12</ele>
      </trkpt>
      <trkpt lat="48.928082" lon="22.882437">
        <ele>1174.91</ele>
      </trkpt>
      <trkpt lat="48.927905" lon="22.882625">
        <ele>1178.7</ele>
      </trkpt>
      <trkpt lat="48.927735" lon="22.882734">
        <ele>1180.9</ele>
      </trkpt>
      <trkpt lat="48.927539" lon="22.882778">
        <ele>1181.97</ele>
      </trkpt>
      <trkpt lat="48.92749" lon="22.883102">
        <ele>1184.61</ele>
      </trkpt>
      <trkpt lat="48.927448" lon="22.883252">
        <ele>1185.04</ele>
      </trkpt>
      <trkpt lat="48.927342" lon="22.883369">
        <ele>1187.45</ele>
      </trkpt>
      <trkpt lat="48.927166" lon="22.883488">
        <ele>1191.14</ele>
      </trkpt>
      <trkpt lat="48.927081" lon="22.88381">
        <ele>1191.92</ele>
      </trkpt>
      <trkpt lat="48.92679" lon="22.884338">
        <ele>1193.43</ele>
      </trkpt>
      <trkpt lat="48.926626" lon="22.884629">
        <ele>1190.75</ele>
      </trkpt>
      <trkpt lat="48.926607" lon="22.884788">
        <ele>1188.06</ele>
      </trkpt>
      <trkpt lat="48.926526" lon="22.884944">
        <ele>1185.7</ele>
      </trkpt>
      <trkpt lat="48.926285" lon="22.885037">
        <ele>1184.57</ele>
      </trkpt>
      <trkpt lat="48.926081" lon="22.885199">
        <ele>1184.17</ele>
      </trkpt>
      <trkpt lat="48.925673" lon="22.885524">
        <ele>1192.7</ele>
      </trkpt>
      <trkpt lat="48.925465" lon="22.885586">
        <ele>1197.14</ele>
      </trkpt>
      <trkpt lat="48.92522" lon="22.885795">
        <ele>1203.87</ele>
      </trkpt>
      <trkpt lat="48.924727" lon="22.886009">
        <ele>1212.3</ele>
      </trkpt>
      <trkpt lat="48.924582" lon="22.886122">
        <ele>1213.64</ele>
      </trkpt>
      <trkpt lat="48.924283" lon="22.886245">
        <ele>1215.57</ele>
      </trkpt>
      <trkpt lat="48.924188" lon="22.886268">
        <ele>1216.27</ele>
      </trkpt>
      <trkpt lat="48.923959" lon="22.886428">
        <ele>1217.06</ele>
      </trkpt>
      <trkpt lat="48.923738" lon="22.886657">
        <ele>1219.04</ele>
      </trkpt>
      <trkpt lat="48.923388" lon="22.88691">
        <ele>1222.07</ele>
      </trkpt>
      <trkpt lat="48.923215" lon="22.887174">
        <ele>1222.62</ele>
      </trkpt>
      <trkpt lat="48.923042" lon="22.887352">
        <ele>1223.04</ele>
      </trkpt>
      <trkpt lat="48.922765" lon="22.887502">
        <ele>1223</ele>
      </trkpt>
      <trkpt lat="48.92229" lon="22.88769">
        <ele>1216.24</ele>
      </trkpt>
      <trkpt lat="48.922046" lon="22.887866">
        <ele>1212.84</ele>
      </trkpt>
      <trkpt lat="48.921803" lon="22.888043">
        <ele>1207.3</ele>
      </trkpt>
      <trkpt lat="48.921523" lon="22.888094">
        <ele>1200.93</ele>
      </trkpt>
      <trkpt lat="48.921324" lon="22.888169">
        <ele>1195.79</ele>
      </trkpt>
      <trkpt lat="48.92095" lon="22.888193">
        <ele>1186.81</ele>
      </trkpt>
      <trkpt lat="48.920491" lon="22.888438">
        <ele>1178.92</ele>
      </trkpt>
      <trkpt lat="48.920261" lon="22.888561">
        <ele>1176.89</ele>
      </trkpt>
      <trkpt lat="48.920035" lon="22.88859">
        <ele>1174.92</ele>
      </trkpt>
      <trkpt lat="48.919729" lon="22.888789">
        <ele>1170.83</ele>
      </trkpt>
      <trkpt lat="48.919433" lon="22.889049">
        <ele>1164.91</ele>
      </trkpt>
      <trkpt lat="48.919202" lon="22.889301">
        <ele>1160.23</ele>
      </trkpt>
      <trkpt lat="48.919015" lon="22.889443">
        <ele>1156.1</ele>
      </trkpt>
      <trkpt lat="48.918685" lon="22.889577">
        <ele>1148.76</ele>
      </trkpt>
      <trkpt lat="48.918192" lon="22.889721">
        <ele>1136.66</ele>
      </trkpt>
      <trkpt lat="48.917901" lon="22.88972">
        <ele>1129.52</ele>
      </trkpt>
      <trkpt lat="48.91758" lon="22.889626">
        <ele>1122.25</ele>
      </trkpt>
      <trkpt lat="48.917259" lon="22.88965">
        <ele>1115.72</ele>
      </trkpt>
      <trkpt lat="48.916842" lon="22.889856">
        <ele>1107.92</ele>
      </trkpt>
      <trkpt lat="48.916374" lon="22.890015">
        <ele>1102.89</ele>
      </trkpt>
      <trkpt lat="48.915906" lon="22.890173">
        <ele>1100.84</ele>
      </trkpt>
      <trkpt lat="48.9158" lon="22.890259">
        <ele>1100.29</ele>
      </trkpt>
      <trkpt lat="48.915321" lon="22.890216">
        <ele>1101.73</ele>
      </trkpt>
      <trkpt lat="48.915104" lon="22.890226">
        <ele>1103.13</ele>
      </trkpt>
      <trkpt lat="48.914492" lon="22.890298">
        <ele>1105.21</ele>
      </trkpt>
      <trkpt lat="48.913975" lon="22.890526">
        <ele>1102.12</ele>
      </trkpt>
      <trkpt lat="48.913489" lon="22.890767">
        <ele>1101</ele>
      </trkpt>
      <trkpt lat="48.912876" lon="22.89088">
        <ele>1103</ele>
      </trkpt>
      <trkpt lat="48.91225" lon="22.890944">
        <ele>1106.71</ele>
      </trkpt>
      <trkpt lat="48.911938" lon="22.890977">
        <ele>1110.36</ele>
      </trkpt>
      <trkpt lat="48.911715" lon="22.891089">
        <ele>1112.41</ele>
      </trkpt>
      <trkpt lat="48.911289" lon="22.89162">
        <ele>1113.55</ele>
      </trkpt>
      <trkpt lat="48.911141" lon="22.89169">
        <ele>1115.03</ele>
      </trkpt>
      <trkpt lat="48.910802" lon="22.891685">
        <ele>1118.49</ele>
      </trkpt>
      <trkpt lat="48.910765" lon="22.891692">
        <ele>1118.74</ele>
      </trkpt>
      <trkpt lat="48.910765" lon="22.891692">
        <ele>1118.74</ele>
      </trkpt>
      <trkpt lat="48.910711" lon="22.891702">
        <ele>1119.11</ele>
      </trkpt>
      <trkpt lat="48.910422" lon="22.89206">
        <ele>1119.47</ele>
      </trkpt>
      <trkpt lat="48.910189" lon="22.892425">
        <ele>1118.95</ele>
      </trkpt>
      <trkpt lat="48.909836" lon="22.892833">
        <ele>1116.92</ele>
      </trkpt>
      <trkpt lat="48.909265" lon="22.893337">
        <ele>1111.91</ele>
      </trkpt>
      <trkpt lat="48.90899" lon="22.893702">
        <ele>1109.48</ele>
      </trkpt>
      <trkpt lat="48.908807" lon="22.893906">
        <ele>1107.89</ele>
      </trkpt>
      <trkpt lat="48.908151" lon="22.894453">
        <ele>1107</ele>
      </trkpt>
      <trkpt lat="48.907876" lon="22.894764">
        <ele>1106.82</ele>
      </trkpt>
      <trkpt lat="48.907439" lon="22.895279">
        <ele>1104.94</ele>
      </trkpt>
      <trkpt lat="48.907037" lon="22.895933">
        <ele>1103.62</ele>
      </trkpt>
      <trkpt lat="48.906797" lon="22.896341">
        <ele>1103.54</ele>
      </trkpt>
      <trkpt lat="48.906714" lon="22.896545">
        <ele>1103.77</ele>
      </trkpt>
      <trkpt lat="48.906497" lon="22.897021">
        <ele>1103.84</ele>
      </trkpt>
      <trkpt lat="48.906294" lon="22.897558">
        <ele>1105.31</ele>
      </trkpt>
      <trkpt lat="48.906097" lon="22.897951">
        <ele>1107.62</ele>
      </trkpt>
      <trkpt lat="48.905887" lon="22.898232">
        <ele>1110.59</ele>
      </trkpt>
      <trkpt lat="48.905365" lon="22.898643">
        <ele>1120.29</ele>
      </trkpt>
      <trkpt lat="48.904948" lon="22.898874">
        <ele>1129.74</ele>
      </trkpt>
      <trkpt lat="48.904514" lon="22.89889">
        <ele>1140.06</ele>
      </trkpt>
      <trkpt lat="48.904322" lon="22.898941">
        <ele>1142.72</ele>
      </trkpt>
      <trkpt lat="48.904202" lon="22.899013">
        <ele>1143.98</ele>
      </trkpt>
      <trkpt lat="48.903976" lon="22.899302">
        <ele>1146.79</ele>
      </trkpt>
      <trkpt lat="48.90356" lon="22.89986">
        <ele>1150.8</ele>
      </trkpt>
      <trkpt lat="48.903363" lon="22.900246">
        <ele>1154.1</ele>
      </trkpt>
      <trkpt lat="48.903243" lon="22.900429">
        <ele>1156.22</ele>
      </trkpt>
      <trkpt lat="48.902883" lon="22.90089">
        <ele>1161.59</ele>
      </trkpt>
      <trkpt lat="48.902538" lon="22.901373">
        <ele>1169.8</ele>
      </trkpt>
      <trkpt lat="48.902345" lon="22.90191">
        <ele>1180.68</ele>
      </trkpt>
      <trkpt lat="48.902335" lon="22.902315">
        <ele>1188.61</ele>
      </trkpt>
      <trkpt lat="48.902322" lon="22.90257">
        <ele>1192.9</ele>
      </trkpt>
      <trkpt lat="48.902163" lon="22.902872">
        <ele>1198.82</ele>
      </trkpt>
      <trkpt lat="48.901975" lon="22.90306">
        <ele>1203.79</ele>
      </trkpt>
      <trkpt lat="48.901867" lon="22.90337">
        <ele>1210.47</ele>
      </trkpt>
      <trkpt lat="48.901643" lon="22.903661">
        <ele>1217.21</ele>
      </trkpt>
      <trkpt lat="48.901419" lon="22.903952">
        <ele>1219.32</ele>
      </trkpt>
      <trkpt lat="48.901263" lon="22.904608">
        <ele>1214.73</ele>
      </trkpt>
      <trkpt lat="48.901009" lon="22.90582">
        <ele>1204.63</ele>
      </trkpt>
      <trkpt lat="48.900992" lon="22.905959">
        <ele>1202.76</ele>
      </trkpt>
      <trkpt lat="48.901013" lon="22.906058">
        <ele>1202.16</ele>
      </trkpt>
      <trkpt lat="48.900996" lon="22.906153">
        <ele>1200.76</ele>
      </trkpt>
      <trkpt lat="48.90095" lon="22.906252">
        <ele>1198.8</ele>
      </trkpt>
      <trkpt lat="48.900804" lon="22.906407">
        <ele>1195.09</ele>
      </trkpt>
      <trkpt lat="48.900623" lon="22.90679">
        <ele>1189.44</ele>
      </trkpt>
      <trkpt lat="48.900263" lon="22.907555">
        <ele>1181.71</ele>
      </trkpt>
      <trkpt lat="48.900022" lon="22.908314">
        <ele>1176.16</ele>
      </trkpt>
      <trkpt lat="48.899873" lon="22.908601">
        <ele>1174.31</ele>
      </trkpt>
      <trkpt lat="48.899427" lon="22.909462">
        <ele>1176.03</ele>
      </trkpt>
      <trkpt lat="48.898912" lon="22.910514">
        <ele>1186.07</ele>
      </trkpt>
      <trkpt lat="48.897925" lon="22.911962">
        <ele>1204.4</ele>
      </trkpt>
      <trkpt lat="48.897692" lon="22.91244">
        <ele>1209.39</ele>
      </trkpt>
      <trkpt lat="48.897509" lon="22.912787">
        <ele>1213.03</ele>
      </trkpt>
      <trkpt lat="48.897371" lon="22.913309">
        <ele>1215.85</ele>
      </trkpt>
      <trkpt lat="48.896927" lon="22.914218">
        <ele>1226.64</ele>
      </trkpt>
      <trkpt lat="48.896474" lon="22.914789">
        <ele>1238.05</ele>
      </trkpt>
      <trkpt lat="48.896238" lon="22.915176">
        <ele>1244.47</ele>
      </trkpt>
      <trkpt lat="48.896054" lon="22.915573">
        <ele>1249.01</ele>
      </trkpt>
      <trkpt lat="48.895818" lon="22.915857">
        <ele>1254.83</ele>
      </trkpt>
      <trkpt lat="48.895578" lon="22.916466">
        <ele>1259</ele>
      </trkpt>
      <trkpt lat="48.895481" lon="22.91693">
        <ele>1260.05</ele>
      </trkpt>
      <trkpt lat="48.895398" lon="22.917508">
        <ele>1261.67</ele>
      </trkpt>
      <trkpt lat="48.895273" lon="22.918083">
        <ele>1262.95</ele>
      </trkpt>
      <trkpt lat="48.895176" lon="22.918402">
        <ele>1263.95</ele>
      </trkpt>
      <trkpt lat="48.894983" lon="22.91904">
        <ele>1262.92</ele>
      </trkpt>
      <trkpt lat="48.894746" lon="22.919602">
        <ele>1258.8</ele>
      </trkpt>
      <trkpt lat="48.894546" lon="22.920025">
        <ele>1256.18</ele>
      </trkpt>
      <trkpt lat="48.894296" lon="22.920406">
        <ele>1251.04</ele>
      </trkpt>
      <trkpt lat="48.89415" lon="22.920649">
        <ele>1248.97</ele>
      </trkpt>
      <trkpt lat="48.893825" lon="22.920949">
        <ele>1244.55</ele>
      </trkpt>
      <trkpt lat="48.893482" lon="22.921367">
        <ele>1240.32</ele>
      </trkpt>
      <trkpt lat="48.893037" lon="22.921994">
        <ele>1237.69</ele>
      </trkpt>
      <trkpt lat="48.892776" lon="22.922471">
        <ele>1236.98</ele>
      </trkpt>
      <trkpt lat="48.892552" lon="22.922928">
        <ele>1236</ele>
      </trkpt>
      <trkpt lat="48.892443" lon="22.923335">
        <ele>1234.09</ele>
      </trkpt>
      <trkpt lat="48.892053" lon="22.924142">
        <ele>1235.66</ele>
      </trkpt>
      <trkpt lat="48.891579" lon="22.925269">
        <ele>1240.76</ele>
      </trkpt>
      <trkpt lat="48.891054" lon="22.926398">
        <ele>1243.86</ele>
      </trkpt>
      <trkpt lat="48.890813" lon="22.926883">
        <ele>1244</ele>
      </trkpt>
      <trkpt lat="48.890602" lon="22.927318">
        <ele>1241.93</ele>
      </trkpt>
      <trkpt lat="48.890222" lon="22.927927">
        <ele>1236.5</ele>
      </trkpt>
      <trkpt lat="48.890021" lon="22.928184">
        <ele>1232.95</ele>
      </trkpt>
      <trkpt lat="48.889847" lon="22.928362">
        <ele>1229.66</ele>
      </trkpt>
      <trkpt lat="48.889499" lon="22.928654">
        <ele>1224.18</ele>
      </trkpt>
      <trkpt lat="48.889249" lon="22.928839">
        <ele>1221.89</ele>
      </trkpt>
      <trkpt lat="48.888928" lon="22.929115">
        <ele>1220</ele>
      </trkpt>
      <trkpt lat="48.888678" lon="22.929461">
        <ele>1218.26</ele>
      </trkpt>
      <trkpt lat="48.888529" lon="22.929708">
        <ele>1216.79</ele>
      </trkpt>
      <trkpt lat="48.888431" lon="22.929783">
        <ele>1216.8</ele>
      </trkpt>
      <trkpt lat="48.888071" lon="22.929847">
        <ele>1219.38</ele>
      </trkpt>
      <trkpt lat="48.887958" lon="22.929955">
        <ele>1219.1</ele>
      </trkpt>
      <trkpt lat="48.887808" lon="22.93019">
        <ele>1218</ele>
      </trkpt>
      <trkpt lat="48.887654" lon="22.930619">
        <ele>1215.49</ele>
      </trkpt>
      <trkpt lat="48.887554" lon="22.930866">
        <ele>1214.73</ele>
      </trkpt>
      <trkpt lat="48.887486" lon="22.93097">
        <ele>1213.89</ele>
      </trkpt>
      <trkpt lat="48.887486" lon="22.93097">
        <ele>1213.9</ele>
      </trkpt>
      <trkpt lat="48.887279" lon="22.931284">
        <ele>1211.4</ele>
      </trkpt>
      <trkpt lat="48.887272" lon="22.931445">
        <ele>1212.75</ele>
      </trkpt>
      <trkpt lat="48.887053" lon="22.932003">
        <ele>1209.26</ele>
      </trkpt>
      <trkpt lat="48.887014" lon="22.932162">
        <ele>1208.3</ele>
      </trkpt>
      <trkpt lat="48.886898" lon="22.932454">
        <ele>1206.48</ele>
      </trkpt>
      <trkpt lat="48.886687" lon="22.932947">
        <ele>1205.77</ele>
      </trkpt>
      <trkpt lat="48.886687" lon="22.933108">
        <ele>1207.31</ele>
      </trkpt>
      <trkpt lat="48.886545" lon="22.933425">
        <ele>1207.86</ele>
      </trkpt>
      <trkpt lat="48.886517" lon="22.93358">
        <ele>1209.4</ele>
      </trkpt>
      <trkpt lat="48.886279" lon="22.93408">
        <ele>1211.29</ele>
      </trkpt>
      <trkpt lat="48.886194" lon="22.934275">
        <ele>1212.65</ele>
      </trkpt>
      <trkpt lat="48.886136" lon="22.934449">
        <ele>1214.18</ele>
      </trkpt>
      <trkpt lat="48.885939" lon="22.934803">
        <ele>1217.9</ele>
      </trkpt>
      <trkpt lat="48.885713" lon="22.935146">
        <ele>1221.49</ele>
      </trkpt>
      <trkpt lat="48.885565" lon="22.935538">
        <ele>1226.26</ele>
      </trkpt>
      <trkpt lat="48.885417" lon="22.93593">
        <ele>1229.03</ele>
      </trkpt>
      <trkpt lat="48.885364" lon="22.936428">
        <ele>1232.48</ele>
      </trkpt>
      <trkpt lat="48.885341" lon="22.936855">
        <ele>1234.89</ele>
      </trkpt>
      <trkpt lat="48.885023" lon="22.937672">
        <ele>1243.81</ele>
      </trkpt>
      <trkpt lat="48.885006" lon="22.937864">
        <ele>1246.36</ele>
      </trkpt>
      <trkpt lat="48.884916" lon="22.938247">
        <ele>1251.97</ele>
      </trkpt>
      <trkpt lat="48.884725" lon="22.938633">
        <ele>1258.73</ele>
      </trkpt>
      <trkpt lat="48.884366" lon="22.939449">
        <ele>1271.63</ele>
      </trkpt>
      <trkpt lat="48.884373" lon="22.939663">
        <ele>1277.22</ele>
      </trkpt>
      <trkpt lat="48.884337" lon="22.94021">
        <ele>1281.19</ele>
      </trkpt>
      <trkpt lat="48.88426" lon="22.940532">
        <ele>1280.71</ele>
      </trkpt>
      <trkpt lat="48.884302" lon="22.941019">
        <ele>1280.1</ele>
      </trkpt>
      <trkpt lat="48.884359" lon="22.94168">
        <ele>1275.04</ele>
      </trkpt>
      <trkpt lat="48.884394" lon="22.941809">
        <ele>1275.18</ele>
      </trkpt>
      <trkpt lat="48.884366" lon="22.942163">
        <ele>1272.08</ele>
      </trkpt>
      <trkpt lat="48.88438" lon="22.942957">
        <ele>1269.86</ele>
      </trkpt>
      <trkpt lat="48.884323" lon="22.943751">
        <ele>1268.67</ele>
      </trkpt>
      <trkpt lat="48.884182" lon="22.944545">
        <ele>1267.09</ele>
      </trkpt>
      <trkpt lat="48.884055" lon="22.944958">
        <ele>1263.83</ele>
      </trkpt>
      <trkpt lat="48.883928" lon="22.945371">
        <ele>1262.96</ele>
      </trkpt>
      <trkpt lat="48.883632" lon="22.946186">
        <ele>1258.26</ele>
      </trkpt>
      <trkpt lat="48.883491" lon="22.946476">
        <ele>1254.73</ele>
      </trkpt>
      <trkpt lat="48.88342" lon="22.946777">
        <ele>1253.4</ele>
      </trkpt>
      <trkpt lat="48.883103" lon="22.947045">
        <ele>1246.15</ele>
      </trkpt>
      <trkpt lat="48.882806" lon="22.947227">
        <ele>1243.92</ele>
      </trkpt>
      <trkpt lat="48.882676" lon="22.947227">
        <ele>1243</ele>
      </trkpt>
      <trkpt lat="48.882097" lon="22.947254">
        <ele>1246.12</ele>
      </trkpt>
      <trkpt lat="48.881962" lon="22.947276">
        <ele>1246.74</ele>
      </trkpt>
      <trkpt lat="48.881886" lon="22.947359">
        <ele>1247.93</ele>
      </trkpt>
      <trkpt lat="48.881614" lon="22.947817">
        <ele>1251.01</ele>
      </trkpt>
      <trkpt lat="48.881452" lon="22.947957">
        <ele>1253.51</ele>
      </trkpt>
      <trkpt lat="48.881205" lon="22.948289">
        <ele>1258.18</ele>
      </trkpt>
      <trkpt lat="48.881" lon="22.9486">
        <ele>1260.97</ele>
      </trkpt>
      <trkpt lat="48.880774" lon="22.94904">
        <ele>1264.73</ele>
      </trkpt>
      <trkpt lat="48.880598" lon="22.949416">
        <ele>1265.03</ele>
      </trkpt>
      <trkpt lat="48.880436" lon="22.950156">
        <ele>1257.48</ele>
      </trkpt>
      <trkpt lat="48.8804" lon="22.950735">
        <ele>1252.36</ele>
      </trkpt>
      <trkpt lat="48.880266" lon="22.951014">
        <ele>1251.31</ele>
      </trkpt>
      <trkpt lat="48.880203" lon="22.951304">
        <ele>1250.09</ele>
      </trkpt>
      <trkpt lat="48.879843" lon="22.952152">
        <ele>1246.68</ele>
      </trkpt>
      <trkpt lat="48.879709" lon="22.952688">
        <ele>1244.03</ele>
      </trkpt>
      <trkpt lat="48.879342" lon="22.953493">
        <ele>1236.59</ele>
      </trkpt>
      <trkpt lat="48.879286" lon="22.953718">
        <ele>1236.33</ele>
      </trkpt>
      <trkpt lat="48.878968" lon="22.954405">
        <ele>1233.92</ele>
      </trkpt>
      <trkpt lat="48.878693" lon="22.955038">
        <ele>1236.1</ele>
      </trkpt>
      <trkpt lat="48.878467" lon="22.955338">
        <ele>1237.59</ele>
      </trkpt>
      <trkpt lat="48.878248" lon="22.955714">
        <ele>1238.42</ele>
      </trkpt>
      <trkpt lat="48.878157" lon="22.956186">
        <ele>1237.4</ele>
      </trkpt>
      <trkpt lat="48.877903" lon="22.957151">
        <ele>1232.72</ele>
      </trkpt>
      <trkpt lat="48.877889" lon="22.957495">
        <ele>1232.45</ele>
      </trkpt>
      <trkpt lat="48.877832" lon="22.957763">
        <ele>1231.87</ele>
      </trkpt>
      <trkpt lat="48.877804" lon="22.958031">
        <ele>1231.4</ele>
      </trkpt>
      <trkpt lat="48.877719" lon="22.958267">
        <ele>1231.23</ele>
      </trkpt>
      <trkpt lat="48.877712" lon="22.959276">
        <ele>1233.08</ele>
      </trkpt>
      <trkpt lat="48.877666" lon="22.959594">
        <ele>1232.95</ele>
      </trkpt>
      <trkpt lat="48.877649" lon="22.959715">
        <ele>1232.74</ele>
      </trkpt>
      <trkpt lat="48.877691" lon="22.96007">
        <ele>1233</ele>
      </trkpt>
      <trkpt lat="48.877776" lon="22.960348">
        <ele>1234.04</ele>
      </trkpt>
      <trkpt lat="48.877783" lon="22.961024">
        <ele>1238.63</ele>
      </trkpt>
      <trkpt lat="48.877691" lon="22.961346">
        <ele>1240.69</ele>
      </trkpt>
      <trkpt lat="48.877522" lon="22.962001">
        <ele>1240.63</ele>
      </trkpt>
      <trkpt lat="48.877472" lon="22.962473">
        <ele>1240.9</ele>
      </trkpt>
      <trkpt lat="48.877423" lon="22.962945">
        <ele>1244.68</ele>
      </trkpt>
      <trkpt lat="48.877117" lon="22.963725">
        <ele>1245.22</ele>
      </trkpt>
      <trkpt lat="48.876964" lon="22.964114">
        <ele>1247.14</ele>
      </trkpt>
      <trkpt lat="48.876647" lon="22.964973">
        <ele>1253.68</ele>
      </trkpt>
      <trkpt lat="48.876375" lon="22.965746">
        <ele>1256.88</ele>
      </trkpt>
      <trkpt lat="48.876308" lon="22.965902">
        <ele>1257</ele>
      </trkpt>
      <trkpt lat="48.876107" lon="22.966129">
        <ele>1258</ele>
      </trkpt>
      <trkpt lat="48.875998" lon="22.966298">
        <ele>1257.75</ele>
      </trkpt>
      <trkpt lat="48.875915" lon="22.966514">
        <ele>1258.33</ele>
      </trkpt>
      <trkpt lat="48.875722" lon="22.967108">
        <ele>1257.36</ele>
      </trkpt>
      <trkpt lat="48.875546" lon="22.967848">
        <ele>1253.5</ele>
      </trkpt>
      <trkpt lat="48.875412" lon="22.968352">
        <ele>1254.59</ele>
      </trkpt>
      <trkpt lat="48.875329" lon="22.968543">
        <ele>1257.1</ele>
      </trkpt>
      <trkpt lat="48.875207" lon="22.968771">
        <ele>1259.77</ele>
      </trkpt>
      <trkpt lat="48.875138" lon="22.968884">
        <ele>1261.31</ele>
      </trkpt>
      <trkpt lat="48.874927" lon="22.969171">
        <ele>1265.4</ele>
      </trkpt>
      <trkpt lat="48.874899" lon="22.969256">
        <ele>1266.55</ele>
      </trkpt>
      <trkpt lat="48.874792" lon="22.969675">
        <ele>1270.42</ele>
      </trkpt>
      <trkpt lat="48.874714" lon="22.969912">
        <ele>1273.14</ele>
      </trkpt>
      <trkpt lat="48.874574" lon="22.970169">
        <ele>1276.17</ele>
      </trkpt>
      <trkpt lat="48.874574" lon="22.970169">
        <ele>1276.16</ele>
      </trkpt>
      <trkpt lat="48.874283" lon="22.97051">
        <ele>1281.14</ele>
      </trkpt>
      <trkpt lat="48.874051" lon="22.970669">
        <ele>1282</ele>
      </trkpt>
      <trkpt lat="48.873897" lon="22.970755">
        <ele>1282.13</ele>
      </trkpt>
      <trkpt lat="48.873718" lon="22.970785">
        <ele>1279.75</ele>
      </trkpt>
      <trkpt lat="48.873619" lon="22.970791">
        <ele>1278.84</ele>
      </trkpt>
      <trkpt lat="48.873511" lon="22.97076">
        <ele>1277.49</ele>
      </trkpt>
      <trkpt lat="48.873317" lon="22.970659">
        <ele>1272.91</ele>
      </trkpt>
      <trkpt lat="48.873113" lon="22.970519">
        <ele>1268.52</ele>
      </trkpt>
      <trkpt lat="48.872908" lon="22.970379">
        <ele>1266.53</ele>
      </trkpt>
      <trkpt lat="48.872674" lon="22.970133">
        <ele>1265.16</ele>
      </trkpt>
      <trkpt lat="48.872132" lon="22.969703">
        <ele>1262.24</ele>
      </trkpt>
      <trkpt lat="48.871679" lon="22.969543">
        <ele>1256.39</ele>
      </trkpt>
      <trkpt lat="48.871299" lon="22.969467">
        <ele>1252.6</ele>
      </trkpt>
      <trkpt lat="48.871095" lon="22.969403">
        <ele>1252</ele>
      </trkpt>
      <trkpt lat="48.870819" lon="22.969526">
        <ele>1250.1</ele>
      </trkpt>
      <trkpt lat="48.870409" lon="22.969844">
        <ele>1245.12</ele>
      </trkpt>
      <trkpt lat="48.870174" lon="22.969981">
        <ele>1242.74</ele>
      </trkpt>
      <trkpt lat="48.86994" lon="22.970118">
        <ele>1242.66</ele>
      </trkpt>
      <trkpt lat="48.869687" lon="22.970252">
        <ele>1244.12</ele>
      </trkpt>
      <trkpt lat="48.869422" lon="22.970415">
        <ele>1247.4</ele>
      </trkpt>
      <trkpt lat="48.868716" lon="22.970969">
        <ele>1254.56</ele>
      </trkpt>
      <trkpt lat="48.868313" lon="22.971131">
        <ele>1257.71</ele>
      </trkpt>
      <trkpt lat="48.867819" lon="22.97112">
        <ele>1263.84</ele>
      </trkpt>
      <trkpt lat="48.867325" lon="22.970938">
        <ele>1275.71</ele>
      </trkpt>
      <trkpt lat="48.866908" lon="22.971013">
        <ele>1279.95</ele>
      </trkpt>
      <trkpt lat="48.866624" lon="22.970985">
        <ele>1282.01</ele>
      </trkpt>
      <trkpt lat="48.866437" lon="22.970942">
        <ele>1282.82</ele>
      </trkpt>
      <trkpt lat="48.866148" lon="22.970905">
        <ele>1283.94</ele>
      </trkpt>
      <trkpt lat="48.865611" lon="22.970712">
        <ele>1284.79</ele>
      </trkpt>
      <trkpt lat="48.865149" lon="22.970583">
        <ele>1286.03</ele>
      </trkpt>
      <trkpt lat="48.86444" lon="22.970567">
        <ele>1285.31</ele>
      </trkpt>
      <trkpt lat="48.863451" lon="22.970797">
        <ele>1278.12</ele>
      </trkpt>
      <trkpt lat="48.863155" lon="22.970862">
        <ele>1274.38</ele>
      </trkpt>
      <trkpt lat="48.862647" lon="22.970771">
        <ele>1270.23</ele>
      </trkpt>
      <trkpt lat="48.862364" lon="22.970653">
        <ele>1268.44</ele>
      </trkpt>
      <trkpt lat="48.862057" lon="22.970572">
        <ele>1268.15</ele>
      </trkpt>
      <trkpt lat="48.86165" lon="22.970627">
        <ele>1266.45</ele>
      </trkpt>
      <trkpt lat="48.861129" lon="22.970819">
        <ele>1263.2</ele>
      </trkpt>
      <trkpt lat="48.860829" lon="22.971066">
        <ele>1262.93</ele>
      </trkpt>
      <trkpt lat="48.860611" lon="22.971173">
        <ele>1262.84</ele>
      </trkpt>
      <trkpt lat="48.860147" lon="22.971743">
        <ele>1259.63</ele>
      </trkpt>
      <trkpt lat="48.859518" lon="22.972193">
        <ele>1255.05</ele>
      </trkpt>
      <trkpt lat="48.859245" lon="22.972305">
        <ele>1252.66</ele>
      </trkpt>
      <trkpt lat="48.858994" lon="22.972337">
        <ele>1250.36</ele>
      </trkpt>
      <trkpt lat="48.858578" lon="22.972273">
        <ele>1247.76</ele>
      </trkpt>
      <trkpt lat="48.858248" lon="22.972129">
        <ele>1244.83</ele>
      </trkpt>
      <trkpt lat="48.857253" lon="22.971925">
        <ele>1235.05</ele>
      </trkpt>
      <trkpt lat="48.856864" lon="22.971925">
        <ele>1231.83</ele>
      </trkpt>
      <trkpt lat="48.856639" lon="22.971989">
        <ele>1229.29</ele>
      </trkpt>
      <trkpt lat="48.856271" lon="22.972011">
        <ele>1225.8</ele>
      </trkpt>
      <trkpt lat="48.85595" lon="22.972005">
        <ele>1223.02</ele>
      </trkpt>
      <trkpt lat="48.855629" lon="22.972">
        <ele>1221.32</ele>
      </trkpt>
      <trkpt lat="48.855082" lon="22.971968">
        <ele>1220.04</ele>
      </trkpt>
      <trkpt lat="48.854535" lon="22.971936">
        <ele>1224</ele>
      </trkpt>
      <trkpt lat="48.854104" lon="22.971936">
        <ele>1224.74</ele>
      </trkpt>
      <trkpt lat="48.853765" lon="22.972032">
        <ele>1224.9</ele>
      </trkpt>
      <trkpt lat="48.853363" lon="22.972043">
        <ele>1226</ele>
      </trkpt>
      <trkpt lat="48.853111" lon="22.972102">
        <ele>1226.55</ele>
      </trkpt>
      <trkpt lat="48.852782" lon="22.972096">
        <ele>1228.46</ele>
      </trkpt>
      <trkpt lat="48.852453" lon="22.972089">
        <ele>1233.72</ele>
      </trkpt>
      <trkpt lat="48.852331" lon="22.972041">
        <ele>1235.86</ele>
      </trkpt>
      <trkpt lat="48.8522" lon="22.971887">
        <ele>1236.74</ele>
      </trkpt>
      <trkpt lat="48.852042" lon="22.971708">
        <ele>1235.58</ele>
      </trkpt>
      <trkpt lat="48.852024" lon="22.971702">
        <ele>1235.53</ele>
      </trkpt>
      <trkpt lat="48.852024" lon="22.971702">
        <ele>1235.53</ele>
      </trkpt>
      <trkpt lat="48.851675" lon="22.971589">
        <ele>1234.56</ele>
      </trkpt>
      <trkpt lat="48.85114" lon="22.971594">
        <ele>1235.61</ele>
      </trkpt>
      <trkpt lat="48.850579" lon="22.97195">
        <ele>1241.88</ele>
      </trkpt>
      <trkpt lat="48.850199" lon="22.972067">
        <ele>1240.62</ele>
      </trkpt>
      <trkpt lat="48.849883" lon="22.972175">
        <ele>1243.08</ele>
      </trkpt>
      <trkpt lat="48.849693" lon="22.972205">
        <ele>1245.47</ele>
      </trkpt>
      <trkpt lat="48.849397" lon="22.972377">
        <ele>1251.19</ele>
      </trkpt>
      <trkpt lat="48.849266" lon="22.972491">
        <ele>1253.65</ele>
      </trkpt>
      <trkpt lat="48.848964" lon="22.972627">
        <ele>1256.79</ele>
      </trkpt>
      <trkpt lat="48.848548" lon="22.972734">
        <ele>1261.85</ele>
      </trkpt>
      <trkpt lat="48.848359" lon="22.972975">
        <ele>1269.6</ele>
      </trkpt>
      <trkpt lat="48.848227" lon="22.973055">
        <ele>1271.98</ele>
      </trkpt>
      <trkpt lat="48.848084" lon="22.973051">
        <ele>1272.33</ele>
      </trkpt>
      <trkpt lat="48.847921" lon="22.973268">
        <ele>1277.52</ele>
      </trkpt>
      <trkpt lat="48.847773" lon="22.973495">
        <ele>1282.88</ele>
      </trkpt>
      <trkpt lat="48.847534" lon="22.973544">
        <ele>1286.39</ele>
      </trkpt>
      <trkpt lat="48.847455" lon="22.97367">
        <ele>1289.28</ele>
      </trkpt>
      <trkpt lat="48.847295" lon="22.973832">
        <ele>1292.47</ele>
      </trkpt>
      <trkpt lat="48.847111" lon="22.973853">
        <ele>1292.44</ele>
      </trkpt>
      <trkpt lat="48.846984" lon="22.97404">
        <ele>1294.06</ele>
      </trkpt>
      <trkpt lat="48.846583" lon="22.974373">
        <ele>1295.01</ele>
      </trkpt>
      <trkpt lat="48.84643" lon="22.974361">
        <ele>1294.26</ele>
      </trkpt>
      <trkpt lat="48.846378" lon="22.974374">
        <ele>1294.03</ele>
      </trkpt>
      <trkpt lat="48.846341" lon="22.974422">
        <ele>1294.26</ele>
      </trkpt>
      <trkpt lat="48.846276" lon="22.974544">
        <ele>1295.07</ele>
      </trkpt>
      <trkpt lat="48.846129" lon="22.974597">
        <ele>1295.07</ele>
      </trkpt>
      <trkpt lat="48.845917" lon="22.974613">
        <ele>1295.84</ele>
      </trkpt>
      <trkpt lat="48.84579" lon="22.974639">
        <ele>1296.37</ele>
      </trkpt>
      <trkpt lat="48.845601" lon="22.974727">
        <ele>1298.08</ele>
      </trkpt>
      <trkpt lat="48.845361" lon="22.974811">
        <ele>1298.54</ele>
      </trkpt>
      <trkpt lat="48.845169" lon="22.974847">
        <ele>1296.14</ele>
      </trkpt>
      <trkpt lat="48.845011" lon="22.974852">
        <ele>1293.11</ele>
      </trkpt>
      <trkpt lat="48.844902" lon="22.974977">
        <ele>1290.81</ele>
      </trkpt>
      <trkpt lat="48.844744" lon="22.974956">
        <ele>1287.48</ele>
      </trkpt>
      <trkpt lat="48.844623" lon="22.975017">
        <ele>1286.11</ele>
      </trkpt>
      <trkpt lat="48.844508" lon="22.975129">
        <ele>1286.42</ele>
      </trkpt>
      <trkpt lat="48.844406" lon="22.97536">
        <ele>1286.13</ele>
      </trkpt>
      <trkpt lat="48.84415" lon="22.975651">
        <ele>1285.61</ele>
      </trkpt>
      <trkpt lat="48.843991" lon="22.976033">
        <ele>1287.11</ele>
      </trkpt>
      <trkpt lat="48.843877" lon="22.976335">
        <ele>1287.66</ele>
      </trkpt>
      <trkpt lat="48.843762" lon="22.976637">
        <ele>1285.66</ele>
      </trkpt>
      <trkpt lat="48.843649" lon="22.976851">
        <ele>1283.42</ele>
      </trkpt>
      <trkpt lat="48.843528" lon="22.977007">
        <ele>1281.05</ele>
      </trkpt>
      <trkpt lat="48.843477" lon="22.977195">
        <ele>1279.14</ele>
      </trkpt>
      <trkpt lat="48.843307" lon="22.97737">
        <ele>1276.29</ele>
      </trkpt>
      <trkpt lat="48.843" lon="22.977552">
        <ele>1271.24</ele>
      </trkpt>
      <trkpt lat="48.842777" lon="22.977898">
        <ele>1268.08</ele>
      </trkpt>
      <trkpt lat="48.842582" lon="22.978169">
        <ele>1267</ele>
      </trkpt>
      <trkpt lat="48.842419" lon="22.978341">
        <ele>1266.99</ele>
      </trkpt>
      <trkpt lat="48.842329" lon="22.978455">
        <ele>1266.81</ele>
      </trkpt>
      <trkpt lat="48.842322" lon="22.978613">
        <ele>1266.91</ele>
      </trkpt>
      <trkpt lat="48.84222" lon="22.978783">
        <ele>1266.18</ele>
      </trkpt>
      <trkpt lat="48.841929" lon="22.978886">
        <ele>1263.49</ele>
      </trkpt>
      <trkpt lat="48.841856" lon="22.979048">
        <ele>1262.58</ele>
      </trkpt>
      <trkpt lat="48.841682" lon="22.979078">
        <ele>1262</ele>
      </trkpt>
      <trkpt lat="48.841498" lon="22.979188">
        <ele>1262</ele>
      </trkpt>
      <trkpt lat="48.840954" lon="22.979815">
        <ele>1263.97</ele>
      </trkpt>
      <trkpt lat="48.840571" lon="22.980382">
        <ele>1266.69</ele>
      </trkpt>
      <trkpt lat="48.840212" lon="22.980729">
        <ele>1271.5</ele>
      </trkpt>
      <trkpt lat="48.839902" lon="22.981016">
        <ele>1271.62</ele>
      </trkpt>
      <trkpt lat="48.839557" lon="22.981532">
        <ele>1269</ele>
      </trkpt>
      <trkpt lat="48.839402" lon="22.981798">
        <ele>1268</ele>
      </trkpt>
      <trkpt lat="48.839101" lon="22.982681">
        <ele>1267.1</ele>
      </trkpt>
      <trkpt lat="48.838869" lon="22.983197">
        <ele>1269.12</ele>
      </trkpt>
      <trkpt lat="48.838654" lon="22.983515">
        <ele>1271.45</ele>
      </trkpt>
      <trkpt lat="48.838519" lon="22.983713">
        <ele>1273.94</ele>
      </trkpt>
      <trkpt lat="48.837908" lon="22.984539">
        <ele>1287.84</ele>
      </trkpt>
      <trkpt lat="48.837603" lon="22.984907">
        <ele>1295.38</ele>
      </trkpt>
      <trkpt lat="48.837336" lon="22.985113">
        <ele>1302.21</ele>
      </trkpt>
      <trkpt lat="48.837166" lon="22.985312">
        <ele>1306.45</ele>
      </trkpt>
      <trkpt lat="48.836797" lon="22.985563">
        <ele>1314.42</ele>
      </trkpt>
      <trkpt lat="48.836569" lon="22.985843">
        <ele>1320.08</ele>
      </trkpt>
      <trkpt lat="48.836191" lon="22.986366">
        <ele>1327.78</ele>
      </trkpt>
      <trkpt lat="48.836138" lon="22.986956">
        <ele>1328.5</ele>
      </trkpt>
      <trkpt lat="48.836046" lon="22.98773">
        <ele>1327.22</ele>
      </trkpt>
      <trkpt lat="48.835997" lon="22.988651">
        <ele>1322.99</ele>
      </trkpt>
      <trkpt lat="48.835997" lon="22.98913">
        <ele>1321.78</ele>
      </trkpt>
      <trkpt lat="48.835866" lon="22.989904">
        <ele>1321</ele>
      </trkpt>
      <trkpt lat="48.835584" lon="22.990656">
        <ele>1321</ele>
      </trkpt>
      <trkpt lat="48.835108" lon="22.991805">
        <ele>1322.22</ele>
      </trkpt>
      <trkpt lat="48.834575" lon="22.992808">
        <ele>1328.06</ele>
      </trkpt>
      <trkpt lat="48.834109" lon="22.993471">
        <ele>1331</ele>
      </trkpt>
      <trkpt lat="48.833867" lon="22.993891">
        <ele>1331.77</ele>
      </trkpt>
      <trkpt lat="48.833448" lon="22.994357">
        <ele>1331</ele>
      </trkpt>
      <trkpt lat="48.833203" lon="22.994693">
        <ele>1330.83</ele>
      </trkpt>
      <trkpt lat="48.832907" lon="22.995159">
        <ele>1328.12</ele>
      </trkpt>
      <trkpt lat="48.8328" lon="22.995398">
        <ele>1327.99</ele>
      </trkpt>
      <trkpt lat="48.832517" lon="22.995714">
        <ele>1328.53</ele>
      </trkpt>
      <trkpt lat="48.83232" lon="22.996163">
        <ele>1330</ele>
      </trkpt>
      <trkpt lat="48.832337" lon="22.996395">
        <ele>1328</ele>
      </trkpt>
      <trkpt lat="48.832324" lon="22.996569">
        <ele>1327.11</ele>
      </trkpt>
      <trkpt lat="48.832293" lon="22.996604">
        <ele>1327.18</ele>
      </trkpt>
      <trkpt lat="48.831975" lon="22.997334">
        <ele>1327.52</ele>
      </trkpt>
      <trkpt lat="48.831789" lon="22.997844">
        <ele>1331.88</ele>
      </trkpt>
      <trkpt lat="48.831639" lon="22.998052">
        <ele>1334.39</ele>
      </trkpt>
      <trkpt lat="48.831603" lon="22.998253">
        <ele>1336.34</ele>
      </trkpt>
      <trkpt lat="48.831523" lon="22.998433">
        <ele>1338.14</ele>
      </trkpt>
      <trkpt lat="48.831474" lon="22.998611">
        <ele>1339.93</ele>
      </trkpt>
      <trkpt lat="48.831466" lon="22.998804">
        <ele>1341.89</ele>
      </trkpt>
      <trkpt lat="48.831353" lon="22.998986">
        <ele>1345.01</ele>
      </trkpt>
      <trkpt lat="48.83129" lon="22.999244">
        <ele>1348.88</ele>
      </trkpt>
      <trkpt lat="48.831158" lon="22.999508">
        <ele>1353.29</ele>
      </trkpt>
      <trkpt lat="48.831032" lon="22.999673">
        <ele>1357.9</ele>
      </trkpt>
      <trkpt lat="48.830993" lon="22.999843">
        <ele>1359.91</ele>
      </trkpt>
      <trkpt lat="48.830876" lon="23.000005">
        <ele>1362.94</ele>
      </trkpt>
      <trkpt lat="48.830722" lon="23.000017">
        <ele>1366.69</ele>
      </trkpt>
      <trkpt lat="48.830385" lon="23.000222">
        <ele>1374.93</ele>
      </trkpt>
      <trkpt lat="48.830316" lon="23.000318">
        <ele>1376.69</ele>
      </trkpt>
      <trkpt lat="48.830294" lon="23.000349">
        <ele>1377.38</ele>
      </trkpt>
      <trkpt lat="48.830061" lon="23.000521">
        <ele>1384.44</ele>
      </trkpt>
      <trkpt lat="48.830016" lon="23.000596">
        <ele>1386.37</ele>
      </trkpt>
      <trkpt lat="48.830019" lon="23.000738">
        <ele>1387.78</ele>
      </trkpt>
      <trkpt lat="48.829979" lon="23.000827">
        <ele>1389.41</ele>
      </trkpt>
      <trkpt lat="48.829921" lon="23.000917">
        <ele>1390.38</ele>
      </trkpt>
      <trkpt lat="48.82984" lon="23.000933">
        <ele>1392.05</ele>
      </trkpt>
      <trkpt lat="48.829805" lon="23.000971">
        <ele>1392.29</ele>
      </trkpt>
      <trkpt lat="48.829718" lon="23.000991">
        <ele>1392.33</ele>
      </trkpt>
      <trkpt lat="48.829674" lon="23.000668">
        <ele>1386.23</ele>
      </trkpt>
      <trkpt lat="48.829725" lon="23.000558">
        <ele>1385.4</ele>
      </trkpt>
      <trkpt lat="48.829725" lon="23.000558">
        <ele>1385.39</ele>
      </trkpt>
      <trkpt lat="48.829674" lon="23.000668">
        <ele>1386.23</ele>
      </trkpt>
      <trkpt lat="48.829718" lon="23.000991">
        <ele>1392.33</ele>
      </trkpt>
      <trkpt lat="48.829805" lon="23.000971">
        <ele>1392.29</ele>
      </trkpt>
      <trkpt lat="48.829817" lon="23.001043">
        <ele>1392.11</ele>
      </trkpt>
      <trkpt lat="48.829852" lon="23.001381">
        <ele>1384.87</ele>
      </trkpt>
      <trkpt lat="48.829812" lon="23.00155">
        <ele>1381.94</ele>
      </trkpt>
      <trkpt lat="48.829811" lon="23.001614">
        <ele>1380.25</ele>
      </trkpt>
      <trkpt lat="48.829754" lon="23.002104">
        <ele>1369.65</ele>
      </trkpt>
      <trkpt lat="48.829774" lon="23.002514">
        <ele>1360.15</ele>
      </trkpt>
      <trkpt lat="48.829804" lon="23.002771">
        <ele>1353.48</ele>
      </trkpt>
      <trkpt lat="48.829759" lon="23.00331">
        <ele>1338.68</ele>
      </trkpt>
      <trkpt lat="48.829718" lon="23.003766">
        <ele>1324.41</ele>
      </trkpt>
      <trkpt lat="48.829611" lon="23.004237">
        <ele>1309.49</ele>
      </trkpt>
      <trkpt lat="48.82953" lon="23.004548">
        <ele>1298.58</ele>
      </trkpt>
      <trkpt lat="48.829461" lon="23.004693">
        <ele>1292.4</ele>
      </trkpt>
      <trkpt lat="48.829173" lon="23.004965">
        <ele>1277.65</ele>
      </trkpt>
      <trkpt lat="48.828947" lon="23.00506">
        <ele>1269.36</ele>
      </trkpt>
      <trkpt lat="48.828893" lon="23.005104">
        <ele>1267.35</ele>
      </trkpt>
      <trkpt lat="48.828737" lon="23.005631">
        <ele>1248.32</ele>
      </trkpt>
      <trkpt lat="48.828639" lon="23.006244">
        <ele>1231.56</ele>
      </trkpt>
      <trkpt lat="48.828568" lon="23.006509">
        <ele>1225.7</ele>
      </trkpt>
      <trkpt lat="48.828477" lon="23.006927">
        <ele>1219.1</ele>
      </trkpt>
      <trkpt lat="48.828297" lon="23.007362">
        <ele>1212.56</ele>
      </trkpt>
      <trkpt lat="48.828018" lon="23.007884">
        <ele>1207.76</ele>
      </trkpt>
      <trkpt lat="48.82782" lon="23.008178">
        <ele>1205.47</ele>
      </trkpt>
      <trkpt lat="48.827362" lon="23.008716">
        <ele>1198.29</ele>
      </trkpt>
      <trkpt lat="48.827204" lon="23.008881">
        <ele>1195.29</ele>
      </trkpt>
      <trkpt lat="48.827064" lon="23.009162">
        <ele>1190.13</ele>
      </trkpt>
      <trkpt lat="48.826906" lon="23.009361">
        <ele>1185.62</ele>
      </trkpt>
      <trkpt lat="48.826746" lon="23.00952">
        <ele>1181.44</ele>
      </trkpt>
      <trkpt lat="48.82662" lon="23.009722">
        <ele>1176.79</ele>
      </trkpt>
      <trkpt lat="48.82637" lon="23.009888">
        <ele>1171.44</ele>
      </trkpt>
      <trkpt lat="48.826352" lon="23.009919">
        <ele>1170.76</ele>
      </trkpt>
      <trkpt lat="48.826234" lon="23.010119">
        <ele>1167.32</ele>
      </trkpt>
      <trkpt lat="48.826074" lon="23.010486">
        <ele>1161.65</ele>
      </trkpt>
      <trkpt lat="48.826099" lon="23.01061">
        <ele>1160.43</ele>
      </trkpt>
      <trkpt lat="48.826057" lon="23.010733">
        <ele>1158.19</ele>
      </trkpt>
      <trkpt lat="48.825832" lon="23.010922">
        <ele>1153.91</ele>
      </trkpt>
      <trkpt lat="48.825642" lon="23.011222">
        <ele>1148.06</ele>
      </trkpt>
      <trkpt lat="48.825494" lon="23.011343">
        <ele>1146.06</ele>
      </trkpt>
      <trkpt lat="48.825419" lon="23.011379">
        <ele>1145.5</ele>
      </trkpt>
      <trkpt lat="48.825302" lon="23.011513">
        <ele>1144.08</ele>
      </trkpt>
      <trkpt lat="48.825269" lon="23.011647">
        <ele>1142.15</ele>
      </trkpt>
      <trkpt lat="48.825207" lon="23.012075">
        <ele>1136.57</ele>
      </trkpt>
      <trkpt lat="48.82479" lon="23.012925">
        <ele>1121.88</ele>
      </trkpt>
      <trkpt lat="48.824573" lon="23.013698">
        <ele>1110.5</ele>
      </trkpt>
      <trkpt lat="48.824322" lon="23.014606">
        <ele>1101.71</ele>
      </trkpt>
      <trkpt lat="48.824179" lon="23.014912">
        <ele>1098.07</ele>
      </trkpt>
      <trkpt lat="48.824052" lon="23.015515">
        <ele>1084.61</ele>
      </trkpt>
      <trkpt lat="48.824104" lon="23.015773">
        <ele>1074.03</ele>
      </trkpt>
      <trkpt lat="48.824104" lon="23.015773">
        <ele>1074.02</ele>
      </trkpt>
      <trkpt lat="48.824153" lon="23.016016">
        <ele>1064.08</ele>
      </trkpt>
      <trkpt lat="48.824401" lon="23.016278">
        <ele>1057.92</ele>
      </trkpt>
      <trkpt lat="48.824607" lon="23.016694">
        <ele>1051.36</ele>
      </trkpt>
      <trkpt lat="48.824683" lon="23.016965">
        <ele>1045.14</ele>
      </trkpt>
      <trkpt lat="48.824758" lon="23.017236">
        <ele>1036.83</ele>
      </trkpt>
      <trkpt lat="48.825053" lon="23.01806">
        <ele>1013.31</ele>
      </trkpt>
      <trkpt lat="48.825334" lon="23.018258">
        <ele>1005.13</ele>
      </trkpt>
      <trkpt lat="48.825506" lon="23.018466">
        <ele>997.62</ele>
      </trkpt>
      <trkpt lat="48.825643" lon="23.018914">
        <ele>985.4</ele>
      </trkpt>
      <trkpt lat="48.826023" lon="23.019136">
        <ele>970.43</ele>
      </trkpt>
      <trkpt lat="48.826152" lon="23.019575">
        <ele>960.81</ele>
      </trkpt>
      <trkpt lat="48.826239" lon="23.01992">
        <ele>955.5</ele>
      </trkpt>
      <trkpt lat="48.826333" lon="23.020168">
        <ele>951.08</ele>
      </trkpt>
      <trkpt lat="48.826446" lon="23.020561">
        <ele>946.27</ele>
      </trkpt>
      <trkpt lat="48.826597" lon="23.02079">
        <ele>940.85</ele>
      </trkpt>
      <trkpt lat="48.826683" lon="23.021459">
        <ele>923.07</ele>
      </trkpt>
      <trkpt lat="48.826799" lon="23.022064">
        <ele>901.79</ele>
      </trkpt>
      <trkpt lat="48.826897" lon="23.022247">
        <ele>897.56</ele>
      </trkpt>
      <trkpt lat="48.827006" lon="23.022533">
        <ele>891.24</ele>
      </trkpt>
      <trkpt lat="48.827108" lon="23.022866">
        <ele>885.56</ele>
      </trkpt>
      <trkpt lat="48.827078" lon="23.023028">
        <ele>883.26</ele>
      </trkpt>
      <trkpt lat="48.827078" lon="23.023028">
        <ele>883.26</ele>
      </trkpt>
      <trkpt lat="48.827072" lon="23.02306">
        <ele>882.8</ele>
      </trkpt>
      <trkpt lat="48.826599" lon="23.024009">
        <ele>865.29</ele>
      </trkpt>
      <trkpt lat="48.826368" lon="23.024312">
        <ele>859.6</ele>
      </trkpt>
      <trkpt lat="48.826151" lon="23.024616">
        <ele>851.19</ele>
      </trkpt>
      <trkpt lat="48.825961" lon="23.025124">
        <ele>841.48</ele>
      </trkpt>
      <trkpt lat="48.825822" lon="23.025665">
        <ele>833.92</ele>
      </trkpt>
      <trkpt lat="48.825754" lon="23.026276">
        <ele>826.62</ele>
      </trkpt>
      <trkpt lat="48.825772" lon="23.026417">
        <ele>825.44</ele>
      </trkpt>
      <trkpt lat="48.825795" lon="23.026814">
        <ele>824.68</ele>
      </trkpt>
      <trkpt lat="48.825742" lon="23.027383">
        <ele>818.54</ele>
      </trkpt>
      <trkpt lat="48.82582" lon="23.027716">
        <ele>813.89</ele>
      </trkpt>
      <trkpt lat="48.825975" lon="23.02823">
        <ele>804.72</ele>
      </trkpt>
      <trkpt lat="48.826157" lon="23.02871">
        <ele>795.72</ele>
      </trkpt>
      <trkpt lat="48.82621" lon="23.028849">
        <ele>794.7</ele>
      </trkpt>
      <trkpt lat="48.826228" lon="23.028952">
        <ele>794.78</ele>
      </trkpt>
      <trkpt lat="48.826229" lon="23.02899">
        <ele>795.2</ele>
      </trkpt>
      <trkpt lat="48.826268" lon="23.029057">
        <ele>795.27</ele>
      </trkpt>
      <trkpt lat="48.826484" lon="23.029498">
        <ele>797.44</ele>
      </trkpt>
      <trkpt lat="48.826657" lon="23.029852">
        <ele>794.83</ele>
      </trkpt>
      <trkpt lat="48.826881" lon="23.030619">
        <ele>794.99</ele>
      </trkpt>
      <trkpt lat="48.826975" lon="23.031216">
        <ele>790.48</ele>
      </trkpt>
      <trkpt lat="48.827001" lon="23.031658">
        <ele>787.51</ele>
      </trkpt>
      <trkpt lat="48.827078" lon="23.032294">
        <ele>782.49</ele>
      </trkpt>
      <trkpt lat="48.82713" lon="23.032655">
        <ele>776.46</ele>
      </trkpt>
      <trkpt lat="48.827234" lon="23.033376">
        <ele>774.54</ele>
      </trkpt>
      <trkpt lat="48.827434" lon="23.03379">
        <ele>775.33</ele>
      </trkpt>
      <trkpt lat="48.827536" lon="23.034092">
        <ele>776.58</ele>
      </trkpt>
      <trkpt lat="48.827619" lon="23.03432">
        <ele>774.64</ele>
      </trkpt>
      <trkpt lat="48.827619" lon="23.034398">
        <ele>774.19</ele>
      </trkpt>
      <trkpt lat="48.827596" lon="23.034511">
        <ele>774.14</ele>
      </trkpt>
      <trkpt lat="48.827653" lon="23.034629">
        <ele>771.96</ele>
      </trkpt>
      <trkpt lat="48.827758" lon="23.03481">
        <ele>769.63</ele>
      </trkpt>
      <trkpt lat="48.827822" lon="23.034921">
        <ele>769.94</ele>
      </trkpt>
      <trkpt lat="48.828013" lon="23.035077">
        <ele>768.46</ele>
      </trkpt>
      <trkpt lat="48.828092" lon="23.03513">
        <ele>766.66</ele>
      </trkpt>
      <trkpt lat="48.828257" lon="23.035393">
        <ele>762.31</ele>
      </trkpt>
      <trkpt lat="48.828433" lon="23.035753">
        <ele>760.53</ele>
      </trkpt>
      <trkpt lat="48.828507" lon="23.036027">
        <ele>756.56</ele>
      </trkpt>
      <trkpt lat="48.828511" lon="23.03667">
        <ele>747.99</ele>
      </trkpt>
      <trkpt lat="48.828525" lon="23.037002">
        <ele>744.05</ele>
      </trkpt>
      <trkpt lat="48.828617" lon="23.037451">
        <ele>739.85</ele>
      </trkpt>
      <trkpt lat="48.828618" lon="23.037793">
        <ele>739.92</ele>
      </trkpt>
      <trkpt lat="48.82878" lon="23.038167">
        <ele>737.55</ele>
      </trkpt>
      <trkpt lat="48.829053" lon="23.03861">
        <ele>730.64</ele>
      </trkpt>
      <trkpt lat="48.829409" lon="23.039057">
        <ele>722.82</ele>
      </trkpt>
      <trkpt lat="48.829791" lon="23.039359">
        <ele>715.78</ele>
      </trkpt>
      <trkpt lat="48.830062" lon="23.039671">
        <ele>710.48</ele>
      </trkpt>
      <trkpt lat="48.830333" lon="23.04005">
        <ele>708.1</ele>
      </trkpt>
      <trkpt lat="48.830538" lon="23.040417">
        <ele>706.99</ele>
      </trkpt>
      <trkpt lat="48.830638" lon="23.040728">
        <ele>706.93</ele>
      </trkpt>
      <trkpt lat="48.830667" lon="23.041134">
        <ele>709.22</ele>
      </trkpt>
      <trkpt lat="48.830697" lon="23.04154">
        <ele>708.61</ele>
      </trkpt>
      <trkpt lat="48.830835" lon="23.042326">
        <ele>701.64</ele>
      </trkpt>
      <trkpt lat="48.830978" lon="23.042755">
        <ele>701.74</ele>
      </trkpt>
      <trkpt lat="48.831172" lon="23.043211">
        <ele>694.33</ele>
      </trkpt>
      <trkpt lat="48.831208" lon="23.043544">
        <ele>688.07</ele>
      </trkpt>
      <trkpt lat="48.831208" lon="23.043544">
        <ele>688.08</ele>
      </trkpt>
      <trkpt lat="48.831216" lon="23.043617">
        <ele>686.71</ele>
      </trkpt>
      <trkpt lat="48.831192" lon="23.044147">
        <ele>680.61</ele>
      </trkpt>
      <trkpt lat="48.83125" lon="23.044759">
        <ele>670.99</ele>
      </trkpt>
      <trkpt lat="48.831197" lon="23.045244">
        <ele>663.45</ele>
      </trkpt>
      <trkpt lat="48.831285" lon="23.045623">
        <ele>655.08</ele>
      </trkpt>
      <trkpt lat="48.831323" lon="23.045916">
        <ele>650.99</ele>
      </trkpt>
      <trkpt lat="48.831362" lon="23.046447">
        <ele>649.32</ele>
      </trkpt>
      <trkpt lat="48.831317" lon="23.046703">
        <ele>648.22</ele>
      </trkpt>
      <trkpt lat="48.831293" lon="23.047049">
        <ele>645.16</ele>
      </trkpt>
      <trkpt lat="48.831289" lon="23.047685">
        <ele>638.71</ele>
      </trkpt>
      <trkpt lat="48.831316" lon="23.047935">
        <ele>633.07</ele>
      </trkpt>
      <trkpt lat="48.831374" lon="23.048171">
        <ele>626.58</ele>
      </trkpt>
      <trkpt lat="48.831444" lon="23.048606">
        <ele>616.5</ele>
      </trkpt>
      <trkpt lat="48.831434" lon="23.049092">
        <ele>609.5</ele>
      </trkpt>
      <trkpt lat="48.831483" lon="23.049443">
        <ele>605.16</ele>
      </trkpt>
      <trkpt lat="48.831561" lon="23.049667">
        <ele>600.56</ele>
      </trkpt>
      <trkpt lat="48.831641" lon="23.049781">
        <ele>598.76</ele>
      </trkpt>
      <trkpt lat="48.831757" lon="23.049867">
        <ele>597.24</ele>
      </trkpt>
      <trkpt lat="48.83183" lon="23.049878">
        <ele>596.08</ele>
      </trkpt>
      <trkpt lat="48.831978" lon="23.049974">
        <ele>594.57</ele>
      </trkpt>
      <trkpt lat="48.832133" lon="23.050117">
        <ele>594.73</ele>
      </trkpt>
      <trkpt lat="48.832302" lon="23.050191">
        <ele>596.31</ele>
      </trkpt>
      <trkpt lat="48.83213" lon="23.05107">
        <ele>594.05</ele>
      </trkpt>
      <trkpt lat="48.832124" lon="23.051236">
        <ele>593.14</ele>
      </trkpt>
      <trkpt lat="48.832137" lon="23.051387">
        <ele>593.04</ele>
      </trkpt>
      <trkpt lat="48.832268" lon="23.052125">
        <ele>590.92</ele>
      </trkpt>
      <trkpt lat="48.832286" lon="23.052275">
        <ele>590.05</ele>
      </trkpt>
      <trkpt lat="48.832289" lon="23.052393">
        <ele>589.36</ele>
      </trkpt>
      <trkpt lat="48.83224" lon="23.052889">
        <ele>587.48</ele>
      </trkpt>
      <trkpt lat="48.83224" lon="23.053016">
        <ele>586.74</ele>
      </trkpt>
      <trkpt lat="48.83225" lon="23.053142">
        <ele>586.01</ele>
      </trkpt>
      <trkpt lat="48.832335" lon="23.053498">
        <ele>586</ele>
      </trkpt>
      <trkpt lat="48.832399" lon="23.053781">
        <ele>586</ele>
      </trkpt>
      <trkpt lat="48.832503" lon="23.054087">
        <ele>584.81</ele>
      </trkpt>
      <trkpt lat="48.832708" lon="23.054445">
        <ele>583.09</ele>
      </trkpt>
      <trkpt lat="48.83275" lon="23.054547">
        <ele>583</ele>
      </trkpt>
      <trkpt lat="48.832779" lon="23.054665">
        <ele>583</ele>
      </trkpt>
      <trkpt lat="48.832792" lon="23.054801">
        <ele>582.97</ele>
      </trkpt>
      <trkpt lat="48.832782" lon="23.055609">
        <ele>581.57</ele>
      </trkpt>
      <trkpt lat="48.832803" lon="23.055793">
        <ele>580.64</ele>
      </trkpt>
      <trkpt lat="48.832833" lon="23.055948">
        <ele>580.01</ele>
      </trkpt>
      <trkpt lat="48.83295" lon="23.056247">
        <ele>579.33</ele>
      </trkpt>
      <trkpt lat="48.83299" lon="23.056446">
        <ele>579.14</ele>
      </trkpt>
      <trkpt lat="48.833015" lon="23.056843">
        <ele>579.92</ele>
      </trkpt>
      <trkpt lat="48.833009" lon="23.057389">
        <ele>578.87</ele>
      </trkpt>
      <trkpt lat="48.833032" lon="23.058192">
        <ele>577.07</ele>
      </trkpt>
      <trkpt lat="48.833078" lon="23.058604">
        <ele>577.48</ele>
      </trkpt>
      <trkpt lat="48.833217" lon="23.059841">
        <ele>573.06</ele>
      </trkpt>
      <trkpt lat="48.833263" lon="23.060253">
        <ele>573</ele>
      </trkpt>
      <trkpt lat="48.833356" lon="23.061078">
        <ele>569</ele>
      </trkpt>
      <trkpt lat="48.833629" lon="23.062583">
        <ele>567.04</ele>
      </trkpt>
      <trkpt lat="48.833857" lon="23.063647">
        <ele>565</ele>
      </trkpt>
      <trkpt lat="48.833979" lon="23.064099">
        <ele>563.74</ele>
      </trkpt>
      <trkpt lat="48.834071" lon="23.064491">
        <ele>562.52</ele>
      </trkpt>
      <trkpt lat="48.834216" lon="23.065458">
        <ele>562.46</ele>
      </trkpt>
      <trkpt lat="48.834269" lon="23.065873">
        <ele>561.98</ele>
      </trkpt>
      <trkpt lat="48.834309" lon="23.066289">
        <ele>560.92</ele>
      </trkpt>
      <trkpt lat="48.834337" lon="23.066694">
        <ele>559.22</ele>
      </trkpt>
      <trkpt lat="48.834309" lon="23.066805">
        <ele>558.57</ele>
      </trkpt>
      <trkpt lat="48.834284" lon="23.066874">
        <ele>558.17</ele>
      </trkpt>
      <trkpt lat="48.834247" lon="23.066931">
        <ele>558</ele>
      </trkpt>
      <trkpt lat="48.834141" lon="23.067049">
        <ele>558</ele>
      </trkpt>
      <trkpt lat="48.833956" lon="23.067169">
        <ele>558.42</ele>
      </trkpt>
      <trkpt lat="48.833719" lon="23.067255">
        <ele>559.86</ele>
      </trkpt>
      <trkpt lat="48.833696" lon="23.067275">
        <ele>560.07</ele>
      </trkpt>
    </trkseg>
  </trk>
</gpx>
