<?xml version="1.0" encoding="UTF-8"?>
<gpx version="1.1" creator="phpGPX/1.0RC5" schemaLocation="http://www.topografix.com/GPX/1/1 http://www.topografix.com/GPX/1/1/gpx.xsd http://www.garmin.com/xmlschemas/GpxExtensions/v3 http://www.garmin.com/xmlschemas/GpxExtensionsv3.xsd http://www.garmin.com/xmlschemas/TrackPointExtension/v1 http://www.garmin.com/xmlschemas/TrackPointExtensionv1.xsd http://www.garmin.com/xmlschemas/PowerExtension/v1 http://www.garmin.com/xmlschemas/PowerExtensionv1.xsd http://www.topografix.com/GPX/gpx_style/0/2 http://www.topografix.com/GPX/gpx_style/0/2/gpx_style.xsd" xmlns="http://www.topografix.com/GPX/1/1" xmlns:xsi="http://www.w3.org/2001/XMLSchema-instance" xsi:schemaLocation="http://www.topografix.com/GPX/1/1 http://www.topografix.com/GPX/1/1/gpx.xsd http://www.garmin.com/xmlschemas/GpxExtensions/v3 http://www.garmin.com/xmlschemas/GpxExtensionsv3.xsd http://www.garmin.com/xmlschemas/TrackPointExtension/v1 http://www.garmin.com/xmlschemas/TrackPointExtensionv1.xsd http://www.garmin.com/xmlschemas/PowerExtension/v1 http://www.garmin.com/xmlschemas/PowerExtensionv1.xsd http://www.topografix.com/GPX/gpx_style/0/2 http://www.topografix.com/GPX/gpx_style/0/2/gpx_style.xsd" xmlns:gpxtpx="http://www.garmin.com/xmlschemas/TrackPointExtension/v1" xmlns:gpxx="http://www.garmin.com/xmlschemas/GpxExtensions/v3" xmlns:gpxpx="http://www.garmin.com/xmlschemas/PowerExtension/v1" xmlns:gpx_style="http://www.topografix.com/GPX/gpx_style/0/2">
  <metadata>
    <name>г Говерла з Заросляка</name>
    <author>
      <name>gpx.studio</name>
      <link href="https://gpx.studio"/>
    </author>
  </metadata>
  <trk>
    <name>г Говерла з Заросляка</name>
    <trkseg>
      <trkpt lat="48.16476" lon="24.535539">
        <ele>1277.1619630890818</ele>
      </trkpt>
      <trkpt lat="48.165146" lon="24.535282">
        <ele>1284.2548038115528</ele>
      </trkpt>
      <trkpt lat="48.165697" lon="24.53482">
        <ele>1287.3939173347803</ele>
      </trkpt>
      <trkpt lat="48.166155" lon="24.534263">
        <ele>1291.7204430222043</ele>
      </trkpt>
      <trkpt lat="48.166535" lon="24.533866">
        <ele>1296.922010093545</ele>
      </trkpt>
      <trkpt lat="48.166778" lon="24.53363">
        <ele>1300.0921846823203</ele>
      </trkpt>
      <trkpt lat="48.167007" lon="24.533168">
        <ele>1303.1788158034904</ele>
      </trkpt>
      <trkpt lat="48.167064" lon="24.532954">
        <ele>1303.6745044200277</ele>
      </trkpt>
      <trkpt lat="48.167086" lon="24.532567">
        <ele>1301.2271111411796</ele>
      </trkpt>
      <trkpt lat="48.166928" lon="24.532267">
        <ele>1300.827399604721</ele>
      </trkpt>
      <trkpt lat="48.166964" lon="24.531548">
        <ele>1305.7994422680117</ele>
      </trkpt>
      <trkpt lat="48.167035" lon="24.530872">
        <ele>1308.0192972999066</ele>
      </trkpt>
      <trkpt lat="48.167097" lon="24.530374">
        <ele>1312.4283619555645</ele>
      </trkpt>
      <trkpt lat="48.166875" lon="24.530127">
        <ele>1317.2567174518654</ele>
      </trkpt>
      <trkpt lat="48.166643" lon="24.529896">
        <ele>1322.3256305301911</ele>
      </trkpt>
      <trkpt lat="48.166482" lon="24.529547">
        <ele>1325.8593890975171</ele>
      </trkpt>
      <trkpt lat="48.166392" lon="24.52922">
        <ele>1329.2541348700236</ele>
      </trkpt>
      <trkpt lat="48.166421" lon="24.528673">
        <ele>1341.0699996962162</ele>
      </trkpt>
      <trkpt lat="48.166331" lon="24.528373">
        <ele>1348.7072374000288</ele>
      </trkpt>
      <trkpt lat="48.166195" lon="24.527943">
        <ele>1357.003129599616</ele>
      </trkpt>
      <trkpt lat="48.166149" lon="24.527606">
        <ele>1364.1863239113009</ele>
      </trkpt>
      <trkpt lat="48.166385" lon="24.527214">
        <ele>1376.8306983929826</ele>
      </trkpt>
      <trkpt lat="48.166525" lon="24.526742">
        <ele>1385.5004166107485</ele>
      </trkpt>
      <trkpt lat="48.166489" lon="24.526559">
        <ele>1386.5302830449568</ele>
      </trkpt>
      <trkpt lat="48.166582" lon="24.526216">
        <ele>1391.2039656931302</ele>
      </trkpt>
      <trkpt lat="48.166485" lon="24.526007">
        <ele>1394.2293197027177</ele>
      </trkpt>
      <trkpt lat="48.166446" lon="24.525583">
        <ele>1398.5455466523204</ele>
      </trkpt>
      <trkpt lat="48.166485" lon="24.525449">
        <ele>1399.5881532929852</ele>
      </trkpt>
      <trkpt lat="48.166364" lon="24.524929">
        <ele>1408.7676174222725</ele>
      </trkpt>
      <trkpt lat="48.166364" lon="24.524553">
        <ele>1417.4290190676693</ele>
      </trkpt>
      <trkpt lat="48.166489" lon="24.524156">
        <ele>1427.3157003251254</ele>
      </trkpt>
      <trkpt lat="48.166478" lon="24.5237">
        <ele>1436.5401008164044</ele>
      </trkpt>
      <trkpt lat="48.1666" lon="24.52347">
        <ele>1441.5459032449871</ele>
      </trkpt>
      <trkpt lat="48.166503" lon="24.523126">
        <ele>1446.59795217398</ele>
      </trkpt>
      <trkpt lat="48.166539" lon="24.522574">
        <ele>1454.2791062010185</ele>
      </trkpt>
      <trkpt lat="48.166489" lon="24.522145">
        <ele>1459.6016338351678</ele>
      </trkpt>
      <trkpt lat="48.166346" lon="24.52163">
        <ele>1466.0171568694059</ele>
      </trkpt>
      <trkpt lat="48.166371" lon="24.521469">
        <ele>1470.2471516273217</ele>
      </trkpt>
      <trkpt lat="48.16623" lon="24.520896">
        <ele>1475.0426350644746</ele>
      </trkpt>
      <trkpt lat="48.166105" lon="24.520397">
        <ele>1481.8360462222481</ele>
      </trkpt>
      <trkpt lat="48.166005" lon="24.520236">
        <ele>1483.6018960804213</ele>
      </trkpt>
      <trkpt lat="48.165948" lon="24.520151">
        <ele>1485.0627578588185</ele>
      </trkpt>
      <trkpt lat="48.165854" lon="24.519577">
        <ele>1495.8326127800417</ele>
      </trkpt>
      <trkpt lat="48.165708" lon="24.519239">
        <ele>1500.9443644942949</ele>
      </trkpt>
      <trkpt lat="48.165765" lon="24.518809">
        <ele>1509.6429057428613</ele>
      </trkpt>
      <trkpt lat="48.165708" lon="24.518488">
        <ele>1516.7952374256665</ele>
      </trkpt>
      <trkpt lat="48.165711" lon="24.518203">
        <ele>1523.8790608661448</ele>
      </trkpt>
      <trkpt lat="48.165593" lon="24.517932">
        <ele>1527.5850064976978</ele>
      </trkpt>
      <trkpt lat="48.165314" lon="24.517492">
        <ele>1532.2602785249046</ele>
      </trkpt>
      <trkpt lat="48.164989" lon="24.516441">
        <ele>1549.275150359841</ele>
      </trkpt>
      <trkpt lat="48.164979" lon="24.516249">
        <ele>1552.415746621552</ele>
      </trkpt>
      <trkpt lat="48.164793" lon="24.515809">
        <ele>1559.1786916849878</ele>
      </trkpt>
      <trkpt lat="48.164675" lon="24.515434">
        <ele>1567.2074373437297</ele>
      </trkpt>
      <trkpt lat="48.164471" lon="24.515037">
        <ele>1578.600765132043</ele>
      </trkpt>
      <trkpt lat="48.164314" lon="24.514785">
        <ele>1588.3532806653232</ele>
      </trkpt>
      <trkpt lat="48.164031" lon="24.514404">
        <ele>1607.0533726159292</ele>
      </trkpt>
      <trkpt lat="48.163845" lon="24.514104">
        <ele>1619.6781313251704</ele>
      </trkpt>
      <trkpt lat="48.163609" lon="24.51368">
        <ele>1635.7017256809493</ele>
      </trkpt>
      <trkpt lat="48.163441" lon="24.513454">
        <ele>1647.2272712317908</ele>
      </trkpt>
      <trkpt lat="48.163237" lon="24.513116">
        <ele>1664.086312678051</ele>
      </trkpt>
      <trkpt lat="48.162972" lon="24.512618">
        <ele>1691.4253688648384</ele>
      </trkpt>
      <trkpt lat="48.162794" lon="24.512463">
        <ele>1705.6333401572283</ele>
      </trkpt>
      <trkpt lat="48.162511" lon="24.51213">
        <ele>1730.4697038729207</ele>
      </trkpt>
      <trkpt lat="48.162322" lon="24.51169">
        <ele>1752.3230585526908</ele>
      </trkpt>
      <trkpt lat="48.162114" lon="24.511266">
        <ele>1768.4976189231606</ele>
      </trkpt>
      <trkpt lat="48.161992" lon="24.510837">
        <ele>1782.85277298023</ele>
      </trkpt>
      <trkpt lat="48.161942" lon="24.51043">
        <ele>1792.256407131656</ele>
      </trkpt>
      <trkpt lat="48.161942" lon="24.51">
        <ele>1800.0256323249619</ele>
      </trkpt>
      <trkpt lat="48.161928" lon="24.509604">
        <ele>1806.7824503626343</ele>
      </trkpt>
      <trkpt lat="48.161974" lon="24.50918">
        <ele>1813.433425573322</ele>
      </trkpt>
      <trkpt lat="48.162067" lon="24.508804">
        <ele>1818.1766450155992</ele>
      </trkpt>
      <trkpt lat="48.162164" lon="24.508295">
        <ele>1822.4397824749194</ele>
      </trkpt>
      <trkpt lat="48.162218" lon="24.507801">
        <ele>1827.2899580771336</ele>
      </trkpt>
      <trkpt lat="48.162171" lon="24.50734">
        <ele>1834.23892656858</ele>
      </trkpt>
      <trkpt lat="48.162085" lon="24.506862">
        <ele>1847.4075413329992</ele>
      </trkpt>
      <trkpt lat="48.161967" lon="24.50646">
        <ele>1857.8856874324847</ele>
      </trkpt>
      <trkpt lat="48.161896" lon="24.50617">
        <ele>1864.867791703553</ele>
      </trkpt>
      <trkpt lat="48.161813" lon="24.505725">
        <ele>1875.8083282068837</ele>
      </trkpt>
      <trkpt lat="48.161624" lon="24.505205">
        <ele>1889.1887452360825</ele>
      </trkpt>
      <trkpt lat="48.161323" lon="24.504518">
        <ele>1911.017787733581</ele>
      </trkpt>
      <trkpt lat="48.161223" lon="24.504143">
        <ele>1923.8584372304613</ele>
      </trkpt>
      <trkpt lat="48.161068" lon="24.503787">
        <ele>1936.38368598721</ele>
      </trkpt>
      <trkpt lat="48.160907" lon="24.5034">
        <ele>1948.420159999514</ele>
      </trkpt>
      <trkpt lat="48.160818" lon="24.50295">
        <ele>1962.3546756368485</ele>
      </trkpt>
      <trkpt lat="48.16071" lon="24.502424">
        <ele>1978.09331787797</ele>
      </trkpt>
      <trkpt lat="48.160542" lon="24.501995">
        <ele>1993.168013944601</ele>
      </trkpt>
      <trkpt lat="48.160406" lon="24.50148">
        <ele>2012.6021525549245</ele>
      </trkpt>
      <trkpt lat="48.160342" lon="24.500885">
        <ele>2032.5632570910905</ele>
      </trkpt>
      <trkpt lat="48.160299" lon="24.500423">
        <ele>2045.7257034852953</ele>
      </trkpt>
      <trkpt lat="48.160209" lon="24.499946">
        <ele>2053.0096294671675</ele>
      </trkpt>
    </trkseg>
  </trk>
</gpx>
