<?xml version="1.0" encoding="UTF-8"?>
<gpx version="1.1" creator="phpGPX/1.0RC5" schemaLocation="http://www.topografix.com/GPX/1/1 http://www.topografix.com/GPX/1/1/gpx.xsd http://www.garmin.com/xmlschemas/GpxExtensions/v3 http://www.garmin.com/xmlschemas/GpxExtensionsv3.xsd http://www.garmin.com/xmlschemas/TrackPointExtension/v1 http://www.garmin.com/xmlschemas/TrackPointExtensionv1.xsd http://www.garmin.com/xmlschemas/PowerExtension/v1 http://www.garmin.com/xmlschemas/PowerExtensionv1.xsd http://www.topografix.com/GPX/gpx_style/0/2 http://www.topografix.com/GPX/gpx_style/0/2/gpx_style.xsd" xmlns="http://www.topografix.com/GPX/1/1" xmlns:xsi="http://www.w3.org/2001/XMLSchema-instance" xsi:schemaLocation="http://www.topografix.com/GPX/1/1 http://www.topografix.com/GPX/1/1/gpx.xsd http://www.garmin.com/xmlschemas/GpxExtensions/v3 http://www.garmin.com/xmlschemas/GpxExtensionsv3.xsd http://www.garmin.com/xmlschemas/TrackPointExtension/v1 http://www.garmin.com/xmlschemas/TrackPointExtensionv1.xsd http://www.garmin.com/xmlschemas/PowerExtension/v1 http://www.garmin.com/xmlschemas/PowerExtensionv1.xsd http://www.topografix.com/GPX/gpx_style/0/2 http://www.topografix.com/GPX/gpx_style/0/2/gpx_style.xsd" xmlns:gpxtpx="http://www.garmin.com/xmlschemas/TrackPointExtension/v1" xmlns:gpxx="http://www.garmin.com/xmlschemas/GpxExtensions/v3" xmlns:gpxpx="http://www.garmin.com/xmlschemas/PowerExtension/v1" xmlns:gpx_style="http://www.topografix.com/GPX/gpx_style/0/2">
  <metadata>
    <name>г Синячка з м Яремче</name>
    <author>
      <name>gpx.studio</name>
      <link href="https://gpx.studio"/>
    </author>
  </metadata>
  <trk>
    <name>г Синячка з м Яремче</name>
    <trkseg>
      <trkpt lat="48.445598" lon="24.550543">
        <ele>524.2858407664729</ele>
      </trkpt>
      <trkpt lat="48.445442" lon="24.550006">
        <ele>524.4540677328139</ele>
      </trkpt>
      <trkpt lat="48.44488" lon="24.54962">
        <ele>526.3741739477264</ele>
      </trkpt>
      <trkpt lat="48.444531" lon="24.549373">
        <ele>528.731507911114</ele>
      </trkpt>
      <trkpt lat="48.444068" lon="24.548912">
        <ele>526.6674847334755</ele>
      </trkpt>
      <trkpt lat="48.443698" lon="24.548418">
        <ele>526.5</ele>
      </trkpt>
      <trkpt lat="48.443442" lon="24.547957">
        <ele>527.4161962384824</ele>
      </trkpt>
      <trkpt lat="48.443129" lon="24.547378">
        <ele>528.5359980454668</ele>
      </trkpt>
      <trkpt lat="48.442802" lon="24.546734">
        <ele>529.8108936041399</ele>
      </trkpt>
      <trkpt lat="48.442652" lon="24.546176">
        <ele>530.7441077145049</ele>
      </trkpt>
      <trkpt lat="48.442752" lon="24.545618">
        <ele>532.2751921911258</ele>
      </trkpt>
      <trkpt lat="48.442937" lon="24.545253">
        <ele>533.0445938955081</ele>
      </trkpt>
      <trkpt lat="48.443115" lon="24.544932">
        <ele>533.395307099614</ele>
      </trkpt>
      <trkpt lat="48.443421" lon="24.544771">
        <ele>535.1655948919799</ele>
      </trkpt>
      <trkpt lat="48.443641" lon="24.544481">
        <ele>536.8970864030998</ele>
      </trkpt>
      <trkpt lat="48.443869" lon="24.543977">
        <ele>537.4127255004714</ele>
      </trkpt>
      <trkpt lat="48.44441" lon="24.54402">
        <ele>544.1712651773975</ele>
      </trkpt>
      <trkpt lat="48.444552" lon="24.544502">
        <ele>548.5297110241954</ele>
      </trkpt>
      <trkpt lat="48.444759" lon="24.544846">
        <ele>553.5027001163922</ele>
      </trkpt>
      <trkpt lat="48.445029" lon="24.545017">
        <ele>558.8710015009856</ele>
      </trkpt>
      <trkpt lat="48.44547" lon="24.544749">
        <ele>569.2465678215589</ele>
      </trkpt>
      <trkpt lat="48.446154" lon="24.544427">
        <ele>580.120457932096</ele>
      </trkpt>
      <trkpt lat="48.446189" lon="24.54402">
        <ele>581.5308363442309</ele>
      </trkpt>
      <trkpt lat="48.446339" lon="24.543451">
        <ele>581.9668650452384</ele>
      </trkpt>
      <trkpt lat="48.44678" lon="24.54329">
        <ele>587.1669633885031</ele>
      </trkpt>
      <trkpt lat="48.447057" lon="24.543086">
        <ele>589.0582124586217</ele>
      </trkpt>
      <trkpt lat="48.447221" lon="24.542335">
        <ele>593.421409523522</ele>
      </trkpt>
      <trkpt lat="48.44742" lon="24.541788">
        <ele>599.5433048005806</ele>
      </trkpt>
      <trkpt lat="48.44784" lon="24.541155">
        <ele>610.9779229637184</ele>
      </trkpt>
      <trkpt lat="48.448125" lon="24.540747">
        <ele>616.1732228401816</ele>
      </trkpt>
      <trkpt lat="48.448281" lon="24.540372">
        <ele>618.5291017792188</ele>
      </trkpt>
      <trkpt lat="48.448815" lon="24.539685">
        <ele>625.7200353413356</ele>
      </trkpt>
      <trkpt lat="48.449185" lon="24.539353">
        <ele>629.8682217784966</ele>
      </trkpt>
      <trkpt lat="48.449614" lon="24.538618">
        <ele>636.814688417362</ele>
      </trkpt>
      <trkpt lat="48.450053" lon="24.538162">
        <ele>641.029125776724</ele>
      </trkpt>
      <trkpt lat="48.450516" lon="24.537733">
        <ele>646.345155306044</ele>
      </trkpt>
      <trkpt lat="48.450865" lon="24.537357">
        <ele>650.7095310320751</ele>
      </trkpt>
      <trkpt lat="48.451128" lon="24.537067">
        <ele>654.5972428665608</ele>
      </trkpt>
      <trkpt lat="48.451327" lon="24.536681">
        <ele>658.1989864176549</ele>
      </trkpt>
      <trkpt lat="48.451526" lon="24.536198">
        <ele>662.8304718949366</ele>
      </trkpt>
      <trkpt lat="48.451839" lon="24.535887">
        <ele>666.9949628210161</ele>
      </trkpt>
      <trkpt lat="48.45196" lon="24.535372">
        <ele>671.4612888092975</ele>
      </trkpt>
      <trkpt lat="48.452089" lon="24.535233">
        <ele>673.3516730297922</ele>
      </trkpt>
      <trkpt lat="48.452288" lon="24.534332">
        <ele>681.840224716696</ele>
      </trkpt>
      <trkpt lat="48.452466" lon="24.533838">
        <ele>688.4845307244686</ele>
      </trkpt>
      <trkpt lat="48.452651" lon="24.53342">
        <ele>693.6118600908295</ele>
      </trkpt>
      <trkpt lat="48.452679" lon="24.532894">
        <ele>702.2500555303408</ele>
      </trkpt>
      <trkpt lat="48.452572" lon="24.532539">
        <ele>709.6525783366524</ele>
      </trkpt>
      <trkpt lat="48.452508" lon="24.532003">
        <ele>715.7563058271598</ele>
      </trkpt>
      <trkpt lat="48.452572" lon="24.531606">
        <ele>717.8461527365725</ele>
      </trkpt>
      <trkpt lat="48.452757" lon="24.531005">
        <ele>721.6775362010812</ele>
      </trkpt>
      <trkpt lat="48.452672" lon="24.530501">
        <ele>723.7947507632905</ele>
      </trkpt>
      <trkpt lat="48.45238" lon="24.529922">
        <ele>727.3124789302806</ele>
      </trkpt>
      <trkpt lat="48.452103" lon="24.529375">
        <ele>733.5694374534855</ele>
      </trkpt>
      <trkpt lat="48.451996" lon="24.528699">
        <ele>744.4269849067828</ele>
      </trkpt>
      <trkpt lat="48.451925" lon="24.528194">
        <ele>749.6639378564063</ele>
      </trkpt>
      <trkpt lat="48.451782" lon="24.527938">
        <ele>749.6718525891897</ele>
      </trkpt>
      <trkpt lat="48.45164" lon="24.527647">
        <ele>749.4123836527579</ele>
      </trkpt>
      <trkpt lat="48.451405" lon="24.527154">
        <ele>751.3730261257032</ele>
      </trkpt>
      <trkpt lat="48.451228" lon="24.526736">
        <ele>750.7853300875277</ele>
      </trkpt>
      <trkpt lat="48.451213" lon="24.526038">
        <ele>756.337654358982</ele>
      </trkpt>
      <trkpt lat="48.451299" lon="24.525223">
        <ele>763.7429782648255</ele>
      </trkpt>
      <trkpt lat="48.451249" lon="24.524794">
        <ele>774.9560189532731</ele>
      </trkpt>
      <trkpt lat="48.450772" lon="24.524569">
        <ele>779.0967806395598</ele>
      </trkpt>
      <trkpt lat="48.450424" lon="24.524493">
        <ele>777.6777168568224</ele>
      </trkpt>
      <trkpt lat="48.450074" lon="24.524236">
        <ele>779.3436020301222</ele>
      </trkpt>
      <trkpt lat="48.449762" lon="24.523828">
        <ele>782.2722191611691</ele>
      </trkpt>
      <trkpt lat="48.449505" lon="24.523238">
        <ele>787.2470294996684</ele>
      </trkpt>
      <trkpt lat="48.44932" lon="24.522734">
        <ele>792.0806101333583</ele>
      </trkpt>
      <trkpt lat="48.449114" lon="24.522208">
        <ele>796.7141852536007</ele>
      </trkpt>
      <trkpt lat="48.44905" lon="24.521843">
        <ele>799.1634083243553</ele>
      </trkpt>
      <trkpt lat="48.449448" lon="24.521671">
        <ele>805.5582042905735</ele>
      </trkpt>
      <trkpt lat="48.450046" lon="24.521822">
        <ele>804.5837222143194</ele>
      </trkpt>
      <trkpt lat="48.450459" lon="24.52209">
        <ele>805.2881160341203</ele>
      </trkpt>
      <trkpt lat="48.450922" lon="24.522369">
        <ele>809.8038234667625</ele>
      </trkpt>
      <trkpt lat="48.451334" lon="24.522637">
        <ele>817.6425384759204</ele>
      </trkpt>
      <trkpt lat="48.451868" lon="24.522937">
        <ele>824.1595048784461</ele>
      </trkpt>
      <trkpt lat="48.452451" lon="24.523356">
        <ele>829.0381206381048</ele>
      </trkpt>
      <trkpt lat="48.452743" lon="24.52357">
        <ele>832.0324882464482</ele>
      </trkpt>
      <trkpt lat="48.452978" lon="24.52386">
        <ele>833.7928392968606</ele>
      </trkpt>
      <trkpt lat="48.45327" lon="24.524085">
        <ele>836.9546380152459</ele>
      </trkpt>
      <trkpt lat="48.453683" lon="24.524429">
        <ele>839.176284840505</ele>
      </trkpt>
      <trkpt lat="48.454045" lon="24.524622">
        <ele>839.0221017571098</ele>
      </trkpt>
      <trkpt lat="48.454237" lon="24.52459">
        <ele>838.1315640720622</ele>
      </trkpt>
      <trkpt lat="48.454422" lon="24.524461">
        <ele>837.0884021033714</ele>
      </trkpt>
      <trkpt lat="48.454629" lon="24.524128">
        <ele>840.0261096102187</ele>
      </trkpt>
      <trkpt lat="48.454472" lon="24.523613">
        <ele>847.9492664819161</ele>
      </trkpt>
      <trkpt lat="48.454188" lon="24.523056">
        <ele>853.6173495378621</ele>
      </trkpt>
      <trkpt lat="48.454022" lon="24.522317">
        <ele>860.5497364227195</ele>
      </trkpt>
      <trkpt lat="48.454042" lon="24.521169">
        <ele>863.6423802287318</ele>
      </trkpt>
      <trkpt lat="48.454214" lon="24.521351">
        <ele>865.806302129291</ele>
      </trkpt>
      <trkpt lat="48.454701" lon="24.521303">
        <ele>880.3205980071798</ele>
      </trkpt>
      <trkpt lat="48.45553" lon="24.520729">
        <ele>898.1954546335403</ele>
      </trkpt>
      <trkpt lat="48.456085" lon="24.520525">
        <ele>909.3626375800103</ele>
      </trkpt>
      <trkpt lat="48.456782" lon="24.520686">
        <ele>915.8924619997911</ele>
      </trkpt>
      <trkpt lat="48.457608" lon="24.519694">
        <ele>940.157763445955</ele>
      </trkpt>
      <trkpt lat="48.458348" lon="24.518669">
        <ele>962.0601801529767</ele>
      </trkpt>
      <trkpt lat="48.459044" lon="24.518379">
        <ele>971.2165425969177</ele>
      </trkpt>
      <trkpt lat="48.459813" lon="24.517478">
        <ele>984.2563511607004</ele>
      </trkpt>
      <trkpt lat="48.460169" lon="24.516749">
        <ele>991.2661566521925</ele>
      </trkpt>
      <trkpt lat="48.460638" lon="24.516593">
        <ele>992.2268083246379</ele>
      </trkpt>
      <trkpt lat="48.46152" lon="24.515557">
        <ele>1000.0553576338942</ele>
      </trkpt>
      <trkpt lat="48.462723" lon="24.514474">
        <ele>1012.7597757543554</ele>
      </trkpt>
      <trkpt lat="48.463669" lon="24.513327">
        <ele>1023.2095040357672</ele>
      </trkpt>
      <trkpt lat="48.464452" lon="24.512564">
        <ele>1035.4430907804137</ele>
      </trkpt>
      <trkpt lat="48.464907" lon="24.511213">
        <ele>1053.1717409200405</ele>
      </trkpt>
      <trkpt lat="48.46544" lon="24.510162">
        <ele>1063.0282217722852</ele>
      </trkpt>
      <trkpt lat="48.46547" lon="24.510182">
        <ele>1062.868733333715</ele>
      </trkpt>
      <trkpt lat="48.465242" lon="24.50949">
        <ele>1072.774681117503</ele>
      </trkpt>
      <trkpt lat="48.465029" lon="24.508862">
        <ele>1074.0032358333037</ele>
      </trkpt>
      <trkpt lat="48.464844" lon="24.508218">
        <ele>1075.1894723243895</ele>
      </trkpt>
      <trkpt lat="48.46463" lon="24.5078">
        <ele>1073.5323057249002</ele>
      </trkpt>
      <trkpt lat="48.464268" lon="24.507151">
        <ele>1079.712696906878</ele>
      </trkpt>
      <trkpt lat="48.463666" lon="24.506839">
        <ele>1081.0754270001198</ele>
      </trkpt>
      <trkpt lat="48.463236" lon="24.506658">
        <ele>1085.2742080000462</ele>
      </trkpt>
      <trkpt lat="48.462834" lon="24.506546">
        <ele>1089.0191413755529</ele>
      </trkpt>
      <trkpt lat="48.462357" lon="24.506267">
        <ele>1093.8930916753598</ele>
      </trkpt>
      <trkpt lat="48.462037" lon="24.505924">
        <ele>1100.5845228860155</ele>
      </trkpt>
      <trkpt lat="48.461653" lon="24.505436">
        <ele>1103.463456636062</ele>
      </trkpt>
      <trkpt lat="48.461606" lon="24.505033">
        <ele>1108.7625135061098</ele>
      </trkpt>
      <trkpt lat="48.461685" lon="24.504384">
        <ele>1118.433817025565</ele>
      </trkpt>
      <trkpt lat="48.461738" lon="24.503799">
        <ele>1125.388778914872</ele>
      </trkpt>
      <trkpt lat="48.462066" lon="24.502555">
        <ele>1140.3811410506023</ele>
      </trkpt>
      <trkpt lat="48.462286" lon="24.501707">
        <ele>1147.3532914961106</ele>
      </trkpt>
      <trkpt lat="48.462667" lon="24.50094">
        <ele>1156.2874432730023</ele>
      </trkpt>
      <trkpt lat="48.462878" lon="24.500467">
        <ele>1162.4870006199926</ele>
      </trkpt>
      <trkpt lat="48.463163" lon="24.499914">
        <ele>1169.4003133154474</ele>
      </trkpt>
      <trkpt lat="48.463362" lon="24.49911">
        <ele>1168.0374297708531</ele>
      </trkpt>
      <trkpt lat="48.46361" lon="24.498273">
        <ele>1173.244056720327</ele>
      </trkpt>
      <trkpt lat="48.463639" lon="24.497511">
        <ele>1170.7243259487475</ele>
      </trkpt>
      <trkpt lat="48.463679" lon="24.496793">
        <ele>1169.5435550071527</ele>
      </trkpt>
      <trkpt lat="48.463639" lon="24.496009">
        <ele>1175.242659771815</ele>
      </trkpt>
      <trkpt lat="48.463625" lon="24.495097">
        <ele>1178.5249889587867</ele>
      </trkpt>
      <trkpt lat="48.463639" lon="24.494234">
        <ele>1181.859810194932</ele>
      </trkpt>
      <trkpt lat="48.463657" lon="24.493504">
        <ele>1184.0089532046693</ele>
      </trkpt>
      <trkpt lat="48.463668" lon="24.49308">
        <ele>1185.0322029192619</ele>
      </trkpt>
      <trkpt lat="48.463927" lon="24.492184">
        <ele>1190.0765351392643</ele>
      </trkpt>
      <trkpt lat="48.464112" lon="24.491412">
        <ele>1187.9263089379529</ele>
      </trkpt>
      <trkpt lat="48.464286" lon="24.490769">
        <ele>1184.2395131237242</ele>
      </trkpt>
      <trkpt lat="48.464584" lon="24.489953">
        <ele>1177.186519028386</ele>
      </trkpt>
      <trkpt lat="48.464918" lon="24.489631">
        <ele>1180.8963337907626</ele>
      </trkpt>
      <trkpt lat="48.465292" lon="24.489191">
        <ele>1181.5887061729784</ele>
      </trkpt>
      <trkpt lat="48.465558" lon="24.488976">
        <ele>1190.600565553852</ele>
      </trkpt>
      <trkpt lat="48.465783" lon="24.48792">
        <ele>1200.826945241075</ele>
      </trkpt>
      <trkpt lat="48.466039" lon="24.487035">
        <ele>1204.751681996975</ele>
      </trkpt>
      <trkpt lat="48.466263" lon="24.486343">
        <ele>1209.8187591844699</ele>
      </trkpt>
      <trkpt lat="48.466576" lon="24.48571">
        <ele>1210.5715498421341</ele>
      </trkpt>
      <trkpt lat="48.466811" lon="24.485292">
        <ele>1210.3400028114818</ele>
      </trkpt>
      <trkpt lat="48.467074" lon="24.484659">
        <ele>1215.084923641804</ele>
      </trkpt>
      <trkpt lat="48.467309" lon="24.484165">
        <ele>1218.0331811031792</ele>
      </trkpt>
      <trkpt lat="48.467579" lon="24.483693">
        <ele>1221.5914527187124</ele>
      </trkpt>
      <trkpt lat="48.467987" lon="24.482942">
        <ele>1230.1652696639067</ele>
      </trkpt>
      <trkpt lat="48.468265" lon="24.482438">
        <ele>1241.0294034297153</ele>
      </trkpt>
      <trkpt lat="48.468599" lon="24.481976">
        <ele>1242.434844824369</ele>
      </trkpt>
      <trkpt lat="48.469019" lon="24.481848">
        <ele>1243.8709645174426</ele>
      </trkpt>
      <trkpt lat="48.469467" lon="24.481697">
        <ele>1246.538146243896</ele>
      </trkpt>
      <trkpt lat="48.469752" lon="24.481601">
        <ele>1249.321842277539</ele>
      </trkpt>
      <trkpt lat="48.470074" lon="24.481472">
        <ele>1251.4911379964324</ele>
      </trkpt>
      <trkpt lat="48.470472" lon="24.48129">
        <ele>1252.2215292517976</ele>
      </trkpt>
      <trkpt lat="48.470721" lon="24.480893">
        <ele>1249.961208869472</ele>
      </trkpt>
      <trkpt lat="48.471012" lon="24.480501">
        <ele>1249.7107273972347</ele>
      </trkpt>
      <trkpt lat="48.471325" lon="24.480083">
        <ele>1247.9333297027283</ele>
      </trkpt>
      <trkpt lat="48.471596" lon="24.479669">
        <ele>1242.0853016394606</ele>
      </trkpt>
      <trkpt lat="48.471909" lon="24.479305">
        <ele>1244.3708412675187</ele>
      </trkpt>
      <trkpt lat="48.472193" lon="24.478951">
        <ele>1248.4882921044484</ele>
      </trkpt>
      <trkpt lat="48.472442" lon="24.478479">
        <ele>1251.7887463668594</ele>
      </trkpt>
      <trkpt lat="48.472791" lon="24.47806">
        <ele>1256.7483030450528</ele>
      </trkpt>
      <trkpt lat="48.473073" lon="24.477813">
        <ele>1261.7019021081505</ele>
      </trkpt>
      <trkpt lat="48.473386" lon="24.477824">
        <ele>1267.3645823210481</ele>
      </trkpt>
      <trkpt lat="48.47372" lon="24.477781">
        <ele>1274.3410997597384</ele>
      </trkpt>
      <trkpt lat="48.474118" lon="24.477813">
        <ele>1281.7331679469207</ele>
      </trkpt>
      <trkpt lat="48.474495" lon="24.477877">
        <ele>1289.5004357141443</ele>
      </trkpt>
      <trkpt lat="48.474979" lon="24.477856">
        <ele>1303.2436463526683</ele>
      </trkpt>
      <trkpt lat="48.475469" lon="24.47791">
        <ele>1315.2101451404155</ele>
      </trkpt>
      <trkpt lat="48.47591" lon="24.477952">
        <ele>1324.304957302821</ele>
      </trkpt>
      <trkpt lat="48.47654" lon="24.477976">
        <ele>1337.0051446522975</ele>
      </trkpt>
      <trkpt lat="48.477066" lon="24.478019">
        <ele>1348.900148564255</ele>
      </trkpt>
      <trkpt lat="48.47745" lon="24.477987">
        <ele>1357.3707859818824</ele>
      </trkpt>
      <trkpt lat="48.47787" lon="24.478041">
        <ele>1365.0852442869218</ele>
      </trkpt>
      <trkpt lat="48.47819" lon="24.477998">
        <ele>1370.499267348634</ele>
      </trkpt>
      <trkpt lat="48.478395" lon="24.4778">
        <ele>1373.8587007729063</ele>
      </trkpt>
      <trkpt lat="48.478587" lon="24.477403">
        <ele>1377.5258460377004</ele>
      </trkpt>
      <trkpt lat="48.478772" lon="24.477006">
        <ele>1380.78921609287</ele>
      </trkpt>
      <trkpt lat="48.47895" lon="24.476706">
        <ele>1383.0758313085978</ele>
      </trkpt>
      <trkpt lat="48.479135" lon="24.476341">
        <ele>1386.0323109188457</ele>
      </trkpt>
      <trkpt lat="48.479462" lon="24.475826">
        <ele>1389.4765001098583</ele>
      </trkpt>
      <trkpt lat="48.479825" lon="24.475332">
        <ele>1392.2865150428177</ele>
      </trkpt>
      <trkpt lat="48.480116" lon="24.474957">
        <ele>1394.6092402373688</ele>
      </trkpt>
      <trkpt lat="48.480386" lon="24.474614">
        <ele>1395.1496474475398</ele>
      </trkpt>
      <trkpt lat="48.480664" lon="24.47427">
        <ele>1396.5086743458082</ele>
      </trkpt>
      <trkpt lat="48.480827" lon="24.474023">
        <ele>1397.2615536284236</ele>
      </trkpt>
      <trkpt lat="48.480962" lon="24.473595">
        <ele>1395.3583222517716</ele>
      </trkpt>
      <trkpt lat="48.481097" lon="24.473155">
        <ele>1387.1164961515462</ele>
      </trkpt>
      <trkpt lat="48.481254" lon="24.472618">
        <ele>1374.66211184836</ele>
      </trkpt>
      <trkpt lat="48.481453" lon="24.472071">
        <ele>1363.4197217775509</ele>
      </trkpt>
      <trkpt lat="48.481581" lon="24.471696">
        <ele>1355.6126344054965</ele>
      </trkpt>
      <trkpt lat="48.481744" lon="24.471309">
        <ele>1347.1663338346236</ele>
      </trkpt>
      <trkpt lat="48.481872" lon="24.470902">
        <ele>1340.9651840578001</ele>
      </trkpt>
      <trkpt lat="48.481986" lon="24.470365">
        <ele>1333.7590117186774</ele>
      </trkpt>
      <trkpt lat="48.482043" lon="24.469936">
        <ele>1328.18084198836</ele>
      </trkpt>
      <trkpt lat="48.482171" lon="24.469528">
        <ele>1320.8115333071041</ele>
      </trkpt>
      <trkpt lat="48.482356" lon="24.469142">
        <ele>1310.436881700923</ele>
      </trkpt>
      <trkpt lat="48.482572" lon="24.468806">
        <ele>1300.2977610846865</ele>
      </trkpt>
      <trkpt lat="48.48285" lon="24.468345">
        <ele>1288.0459565641913</ele>
      </trkpt>
      <trkpt lat="48.483262" lon="24.468001">
        <ele>1280.620646232098</ele>
      </trkpt>
      <trkpt lat="48.483511" lon="24.467722">
        <ele>1279.8871775474156</ele>
      </trkpt>
      <trkpt lat="48.483696" lon="24.467486">
        <ele>1280.386151509431</ele>
      </trkpt>
      <trkpt lat="48.48363" lon="24.467503">
        <ele>1280.0489483976319</ele>
      </trkpt>
      <trkpt lat="48.484057" lon="24.467009">
        <ele>1282.6467774766018</ele>
      </trkpt>
      <trkpt lat="48.484249" lon="24.466537">
        <ele>1283.2521878690425</ele>
      </trkpt>
      <trkpt lat="48.484477" lon="24.465668">
        <ele>1283.740061095237</ele>
      </trkpt>
      <trkpt lat="48.484477" lon="24.465668">
        <ele>1283.740061095237</ele>
      </trkpt>
      <trkpt lat="48.484249" lon="24.466537">
        <ele>1283.2521878690425</ele>
      </trkpt>
      <trkpt lat="48.484057" lon="24.467009">
        <ele>1282.6467774766018</ele>
      </trkpt>
      <trkpt lat="48.48363" lon="24.467503">
        <ele>1280.0489483976319</ele>
      </trkpt>
      <trkpt lat="48.483069" lon="24.467739">
        <ele>1279.3657472000923</ele>
      </trkpt>
      <trkpt lat="48.482578" lon="24.467824">
        <ele>1281.716977066826</ele>
      </trkpt>
      <trkpt lat="48.4823" lon="24.467889">
        <ele>1282.561264482094</ele>
      </trkpt>
      <trkpt lat="48.481973" lon="24.467932">
        <ele>1283.894641096803</ele>
      </trkpt>
      <trkpt lat="48.481631" lon="24.468125">
        <ele>1289.1791848764374</ele>
      </trkpt>
      <trkpt lat="48.481326" lon="24.468296">
        <ele>1291.5383240780038</ele>
      </trkpt>
      <trkpt lat="48.480927" lon="24.468683">
        <ele>1295.9594045627164</ele>
      </trkpt>
      <trkpt lat="48.480623" lon="24.469109">
        <ele>1300.6377060414525</ele>
      </trkpt>
      <trkpt lat="48.480175" lon="24.469216">
        <ele>1299.9294070843607</ele>
      </trkpt>
      <trkpt lat="48.479677" lon="24.469388">
        <ele>1300.009402150137</ele>
      </trkpt>
      <trkpt lat="48.479364" lon="24.469967">
        <ele>1306.4190633340113</ele>
      </trkpt>
      <trkpt lat="48.479136" lon="24.47045">
        <ele>1310.4799216899555</ele>
      </trkpt>
      <trkpt lat="48.478937" lon="24.470868">
        <ele>1313.1390404067931</ele>
      </trkpt>
      <trkpt lat="48.478701" lon="24.471363">
        <ele>1316.5360521258553</ele>
      </trkpt>
      <trkpt lat="48.478459" lon="24.471814">
        <ele>1319.2704473100603</ele>
      </trkpt>
      <trkpt lat="48.478253" lon="24.472135">
        <ele>1322.5550613674043</ele>
      </trkpt>
      <trkpt lat="48.477862" lon="24.472425">
        <ele>1319.894986987214</ele>
      </trkpt>
      <trkpt lat="48.477428" lon="24.472768">
        <ele>1317.1781932218346</ele>
      </trkpt>
      <trkpt lat="48.477037" lon="24.473369">
        <ele>1317.6829599683406</ele>
      </trkpt>
      <trkpt lat="48.476695" lon="24.473841">
        <ele>1313.395163190784</ele>
      </trkpt>
      <trkpt lat="48.476461" lon="24.474077">
        <ele>1310.923992493772</ele>
      </trkpt>
      <trkpt lat="48.476219" lon="24.474304">
        <ele>1308.2619030124984</ele>
      </trkpt>
      <trkpt lat="48.476077" lon="24.47454">
        <ele>1307.8109035594096</ele>
      </trkpt>
      <trkpt lat="48.475885" lon="24.474744">
        <ele>1305.1977383856793</ele>
      </trkpt>
      <trkpt lat="48.475629" lon="24.474937">
        <ele>1301.427700141212</ele>
      </trkpt>
      <trkpt lat="48.475465" lon="24.475238">
        <ele>1301.596600976307</ele>
      </trkpt>
      <trkpt lat="48.475273" lon="24.475474">
        <ele>1299.6317594006541</ele>
      </trkpt>
      <trkpt lat="48.475017" lon="24.475806">
        <ele>1296.3940879967413</ele>
      </trkpt>
      <trkpt lat="48.474704" lon="24.476053">
        <ele>1292.1189651307523</ele>
      </trkpt>
      <trkpt lat="48.474391" lon="24.476461">
        <ele>1287.6459027796518</ele>
      </trkpt>
      <trkpt lat="48.474128" lon="24.476804">
        <ele>1282.9234162974428</ele>
      </trkpt>
      <trkpt lat="48.473801" lon="24.477062">
        <ele>1276.3251510913249</ele>
      </trkpt>
      <trkpt lat="48.473431" lon="24.477416">
        <ele>1268.8840324365417</ele>
      </trkpt>
      <trkpt lat="48.473146" lon="24.477705">
        <ele>1262.9786335404497</ele>
      </trkpt>
      <trkpt lat="48.472791" lon="24.47806">
        <ele>1256.7483030450528</ele>
      </trkpt>
      <trkpt lat="48.472442" lon="24.478479">
        <ele>1251.7887463668594</ele>
      </trkpt>
      <trkpt lat="48.472193" lon="24.478951">
        <ele>1248.4882921044484</ele>
      </trkpt>
      <trkpt lat="48.471909" lon="24.479305">
        <ele>1244.3708412675187</ele>
      </trkpt>
      <trkpt lat="48.471596" lon="24.479669">
        <ele>1242.0853016394606</ele>
      </trkpt>
      <trkpt lat="48.471325" lon="24.480083">
        <ele>1247.9333297027283</ele>
      </trkpt>
      <trkpt lat="48.471012" lon="24.480501">
        <ele>1249.7107273972347</ele>
      </trkpt>
      <trkpt lat="48.470721" lon="24.480893">
        <ele>1249.961208869472</ele>
      </trkpt>
      <trkpt lat="48.470472" lon="24.48129">
        <ele>1252.2215292517976</ele>
      </trkpt>
      <trkpt lat="48.470074" lon="24.481472">
        <ele>1251.4911379964324</ele>
      </trkpt>
      <trkpt lat="48.469752" lon="24.481601">
        <ele>1249.321842277539</ele>
      </trkpt>
      <trkpt lat="48.469467" lon="24.481697">
        <ele>1246.538146243896</ele>
      </trkpt>
      <trkpt lat="48.469019" lon="24.481848">
        <ele>1243.8709645174426</ele>
      </trkpt>
      <trkpt lat="48.468599" lon="24.481976">
        <ele>1242.434844824369</ele>
      </trkpt>
      <trkpt lat="48.468265" lon="24.482438">
        <ele>1241.0294034297153</ele>
      </trkpt>
      <trkpt lat="48.467987" lon="24.482942">
        <ele>1230.1652696639067</ele>
      </trkpt>
      <trkpt lat="48.467579" lon="24.483693">
        <ele>1221.5914527187124</ele>
      </trkpt>
      <trkpt lat="48.467309" lon="24.484165">
        <ele>1218.0331811031792</ele>
      </trkpt>
      <trkpt lat="48.467074" lon="24.484659">
        <ele>1215.084923641804</ele>
      </trkpt>
      <trkpt lat="48.466811" lon="24.485292">
        <ele>1210.3400028114818</ele>
      </trkpt>
      <trkpt lat="48.466576" lon="24.48571">
        <ele>1210.5715498421341</ele>
      </trkpt>
      <trkpt lat="48.466263" lon="24.486343">
        <ele>1209.8187591844699</ele>
      </trkpt>
      <trkpt lat="48.466039" lon="24.487035">
        <ele>1204.751681996975</ele>
      </trkpt>
      <trkpt lat="48.465783" lon="24.48792">
        <ele>1200.826945241075</ele>
      </trkpt>
      <trkpt lat="48.465558" lon="24.488976">
        <ele>1190.600565553852</ele>
      </trkpt>
      <trkpt lat="48.465292" lon="24.489191">
        <ele>1181.5887061729784</ele>
      </trkpt>
      <trkpt lat="48.464918" lon="24.489631">
        <ele>1180.8963337907626</ele>
      </trkpt>
      <trkpt lat="48.464584" lon="24.489953">
        <ele>1177.186519028386</ele>
      </trkpt>
      <trkpt lat="48.464286" lon="24.490769">
        <ele>1184.2395131237242</ele>
      </trkpt>
      <trkpt lat="48.464112" lon="24.491412">
        <ele>1187.9263089379529</ele>
      </trkpt>
      <trkpt lat="48.463927" lon="24.492184">
        <ele>1190.0765351392643</ele>
      </trkpt>
      <trkpt lat="48.463668" lon="24.49308">
        <ele>1185.0322029192619</ele>
      </trkpt>
      <trkpt lat="48.463657" lon="24.493504">
        <ele>1184.0089532046693</ele>
      </trkpt>
      <trkpt lat="48.463639" lon="24.494234">
        <ele>1181.859810194932</ele>
      </trkpt>
      <trkpt lat="48.463625" lon="24.495097">
        <ele>1178.5249889587867</ele>
      </trkpt>
      <trkpt lat="48.463639" lon="24.496009">
        <ele>1175.242659771815</ele>
      </trkpt>
      <trkpt lat="48.463679" lon="24.496793">
        <ele>1169.5435550071527</ele>
      </trkpt>
      <trkpt lat="48.463639" lon="24.497511">
        <ele>1170.7243259487475</ele>
      </trkpt>
      <trkpt lat="48.46361" lon="24.498273">
        <ele>1173.244056720327</ele>
      </trkpt>
      <trkpt lat="48.463362" lon="24.49911">
        <ele>1168.0374297708531</ele>
      </trkpt>
      <trkpt lat="48.463163" lon="24.499914">
        <ele>1169.4003133154474</ele>
      </trkpt>
      <trkpt lat="48.462878" lon="24.500467">
        <ele>1162.4870006199926</ele>
      </trkpt>
      <trkpt lat="48.462667" lon="24.50094">
        <ele>1156.2874432730023</ele>
      </trkpt>
      <trkpt lat="48.462286" lon="24.501707">
        <ele>1147.3532914961106</ele>
      </trkpt>
      <trkpt lat="48.462066" lon="24.502555">
        <ele>1140.3811410506023</ele>
      </trkpt>
      <trkpt lat="48.461738" lon="24.503799">
        <ele>1125.388778914872</ele>
      </trkpt>
      <trkpt lat="48.461685" lon="24.504384">
        <ele>1118.433817025565</ele>
      </trkpt>
      <trkpt lat="48.461606" lon="24.505033">
        <ele>1108.7625135061098</ele>
      </trkpt>
      <trkpt lat="48.461653" lon="24.505436">
        <ele>1103.463456636062</ele>
      </trkpt>
      <trkpt lat="48.462037" lon="24.505924">
        <ele>1100.5845228860155</ele>
      </trkpt>
      <trkpt lat="48.462357" lon="24.506267">
        <ele>1093.8930916753598</ele>
      </trkpt>
      <trkpt lat="48.462834" lon="24.506546">
        <ele>1089.0191413755529</ele>
      </trkpt>
      <trkpt lat="48.463236" lon="24.506658">
        <ele>1085.2742080000462</ele>
      </trkpt>
      <trkpt lat="48.463666" lon="24.506839">
        <ele>1081.0754270001198</ele>
      </trkpt>
      <trkpt lat="48.464268" lon="24.507151">
        <ele>1079.712696906878</ele>
      </trkpt>
      <trkpt lat="48.46463" lon="24.5078">
        <ele>1073.5323057249002</ele>
      </trkpt>
      <trkpt lat="48.464844" lon="24.508218">
        <ele>1075.1894723243895</ele>
      </trkpt>
      <trkpt lat="48.465029" lon="24.508862">
        <ele>1074.0032358333037</ele>
      </trkpt>
      <trkpt lat="48.465242" lon="24.50949">
        <ele>1072.774681117503</ele>
      </trkpt>
      <trkpt lat="48.465477" lon="24.510154">
        <ele>1063.307262190734</ele>
      </trkpt>
      <trkpt lat="48.465629" lon="24.510245">
        <ele>1063.1140953779686</ele>
      </trkpt>
      <trkpt lat="48.465772" lon="24.510384">
        <ele>1062.9386790692806</ele>
      </trkpt>
      <trkpt lat="48.46596" lon="24.510529">
        <ele>1062.9615183022627</ele>
      </trkpt>
      <trkpt lat="48.466223" lon="24.510739">
        <ele>1063.3259593363628</ele>
      </trkpt>
      <trkpt lat="48.466412" lon="24.51098">
        <ele>1063.0965946567012</ele>
      </trkpt>
      <trkpt lat="48.466618" lon="24.511248">
        <ele>1063.742330944282</ele>
      </trkpt>
      <trkpt lat="48.466767" lon="24.511602">
        <ele>1066.305575914225</ele>
      </trkpt>
      <trkpt lat="48.467111" lon="24.511836">
        <ele>1072.521493804779</ele>
      </trkpt>
      <trkpt lat="48.467392" lon="24.512029">
        <ele>1075.958351653535</ele>
      </trkpt>
      <trkpt lat="48.467602" lon="24.512286">
        <ele>1077.6408603625619</ele>
      </trkpt>
      <trkpt lat="48.467918" lon="24.512618">
        <ele>1074.9729783451826</ele>
      </trkpt>
      <trkpt lat="48.468075" lon="24.51279">
        <ele>1072.586028636116</ele>
      </trkpt>
      <trkpt lat="48.468736" lon="24.512935">
        <ele>1079.9541390308846</ele>
      </trkpt>
      <trkpt lat="48.469128" lon="24.51338">
        <ele>1072.7689960016576</ele>
      </trkpt>
      <trkpt lat="48.46949" lon="24.513702">
        <ele>1062.839561453832</ele>
      </trkpt>
      <trkpt lat="48.4697" lon="24.513938">
        <ele>1059.053128699677</ele>
      </trkpt>
      <trkpt lat="48.469827" lon="24.514514">
        <ele>1046.5768475173072</ele>
      </trkpt>
      <trkpt lat="48.469994" lon="24.514981">
        <ele>1035.974755561725</ele>
      </trkpt>
      <trkpt lat="48.470118" lon="24.515253">
        <ele>1031.6804002443093</ele>
      </trkpt>
      <trkpt lat="48.470082" lon="24.515694">
        <ele>1023.3547312440351</ele>
      </trkpt>
      <trkpt lat="48.470081" lon="24.516">
        <ele>1019.4487999998964</ele>
      </trkpt>
      <trkpt lat="48.470054" lon="24.516289">
        <ele>1017.8424511946505</ele>
      </trkpt>
      <trkpt lat="48.470071" lon="24.516606">
        <ele>1017.7466199934714</ele>
      </trkpt>
      <trkpt lat="48.470107" lon="24.517094">
        <ele>1018.9216282290404</ele>
      </trkpt>
      <trkpt lat="48.47016" lon="24.517502">
        <ele>1019</ele>
      </trkpt>
      <trkpt lat="48.470231" lon="24.517942">
        <ele>1020.2053569164484</ele>
      </trkpt>
      <trkpt lat="48.470284" lon="24.518478">
        <ele>1023.0309016842031</ele>
      </trkpt>
      <trkpt lat="48.470378" lon="24.519038">
        <ele>1027.4591558014683</ele>
      </trkpt>
      <trkpt lat="48.470443" lon="24.51988">
        <ele>1036.8685390283354</ele>
      </trkpt>
      <trkpt lat="48.470485" lon="24.52054">
        <ele>1043.5906982934102</ele>
      </trkpt>
      <trkpt lat="48.470614" lon="24.521285">
        <ele>1053.2674768090947</ele>
      </trkpt>
      <trkpt lat="48.470734" lon="24.521876">
        <ele>1057.8603237867912</ele>
      </trkpt>
      <trkpt lat="48.470616" lon="24.522439">
        <ele>1047.20295309223</ele>
      </trkpt>
      <trkpt lat="48.470463" lon="24.523045">
        <ele>1036.8092749554196</ele>
      </trkpt>
      <trkpt lat="48.470345" lon="24.523533">
        <ele>1031.3257266790538</ele>
      </trkpt>
      <trkpt lat="48.470303" lon="24.523989">
        <ele>1026.8082070185876</ele>
      </trkpt>
      <trkpt lat="48.47015" lon="24.52444">
        <ele>1019.9967454769649</ele>
      </trkpt>
      <trkpt lat="48.470093" lon="24.524912">
        <ele>1009.0608106378194</ele>
      </trkpt>
      <trkpt lat="48.470082" lon="24.525357">
        <ele>1000.0188239909019</ele>
      </trkpt>
      <trkpt lat="48.469795" lon="24.52572">
        <ele>999.7947940896265</ele>
      </trkpt>
      <trkpt lat="48.469482" lon="24.526342">
        <ele>999.4607366338605</ele>
      </trkpt>
      <trkpt lat="48.469204" lon="24.527056">
        <ele>999.9226981798968</ele>
      </trkpt>
      <trkpt lat="48.46909" lon="24.528166">
        <ele>1002.6170462070061</ele>
      </trkpt>
      <trkpt lat="48.469041" lon="24.529261">
        <ele>1009.9571440944786</ele>
      </trkpt>
      <trkpt lat="48.468977" lon="24.530548">
        <ele>1017.6060951603602</ele>
      </trkpt>
      <trkpt lat="48.468973" lon="24.531305">
        <ele>1017.45504044489</ele>
      </trkpt>
      <trkpt lat="48.468973" lon="24.532056">
        <ele>1020.6000251530024</ele>
      </trkpt>
      <trkpt lat="48.469006" lon="24.532828">
        <ele>1019.127323741028</ele>
      </trkpt>
      <trkpt lat="48.469076" lon="24.533708">
        <ele>1014.6377752502203</ele>
      </trkpt>
      <trkpt lat="48.4692" lon="24.535038">
        <ele>1005.4537301682867</ele>
      </trkpt>
      <trkpt lat="48.469084" lon="24.535811">
        <ele>1000.3162490955608</ele>
      </trkpt>
      <trkpt lat="48.469032" lon="24.536738">
        <ele>990.7512782107468</ele>
      </trkpt>
      <trkpt lat="48.468704" lon="24.537178">
        <ele>978.9135846321004</ele>
      </trkpt>
      <trkpt lat="48.468398" lon="24.537532">
        <ele>967.9141243745107</ele>
      </trkpt>
      <trkpt lat="48.468" lon="24.537746">
        <ele>955.1594363963233</ele>
      </trkpt>
      <trkpt lat="48.467609" lon="24.53825">
        <ele>944.5276967747213</ele>
      </trkpt>
      <trkpt lat="48.467203" lon="24.538873">
        <ele>931.4763879094971</ele>
      </trkpt>
      <trkpt lat="48.466869" lon="24.539474">
        <ele>922.0575946837198</ele>
      </trkpt>
      <trkpt lat="48.466563" lon="24.540096">
        <ele>917.4794960370053</ele>
      </trkpt>
      <trkpt lat="48.466143" lon="24.540555">
        <ele>908.3810946070589</ele>
      </trkpt>
      <trkpt lat="48.465752" lon="24.540941">
        <ele>898.2030021428887</ele>
      </trkpt>
      <trkpt lat="48.465453" lon="24.541531">
        <ele>891.339031778858</ele>
      </trkpt>
      <trkpt lat="48.465076" lon="24.541735">
        <ele>881.1761377457296</ele>
      </trkpt>
      <trkpt lat="48.46477" lon="24.541638">
        <ele>875.9659209734527</ele>
      </trkpt>
      <trkpt lat="48.464379" lon="24.541139">
        <ele>865.0760360282345</ele>
      </trkpt>
      <trkpt lat="48.464212" lon="24.540593">
        <ele>856.6533436035389</ele>
      </trkpt>
      <trkpt lat="48.464262" lon="24.540136">
        <ele>854.1974442893408</ele>
      </trkpt>
      <trkpt lat="48.464233" lon="24.539744">
        <ele>849.8803878193139</ele>
      </trkpt>
      <trkpt lat="48.463821" lon="24.539535">
        <ele>842.1973687950521</ele>
      </trkpt>
      <trkpt lat="48.463627" lon="24.539253">
        <ele>837.032456059411</ele>
      </trkpt>
      <trkpt lat="48.463324" lon="24.539477">
        <ele>831.2876007678191</ele>
      </trkpt>
      <trkpt lat="48.463298" lon="24.538703">
        <ele>824.2370360950008</ele>
      </trkpt>
      <trkpt lat="48.463229" lon="24.538588">
        <ele>821.017590837786</ele>
      </trkpt>
      <trkpt lat="48.462874" lon="24.538853">
        <ele>813.0808654446156</ele>
      </trkpt>
      <trkpt lat="48.462733" lon="24.539396">
        <ele>811.4606892210431</ele>
      </trkpt>
      <trkpt lat="48.462473" lon="24.540077">
        <ele>804.8225198163418</ele>
      </trkpt>
      <trkpt lat="48.462209" lon="24.540522">
        <ele>795.5331722004339</ele>
      </trkpt>
      <trkpt lat="48.462103" lon="24.540763">
        <ele>791.8083574296907</ele>
      </trkpt>
      <trkpt lat="48.461925" lon="24.539385">
        <ele>782.8870337890695</ele>
      </trkpt>
      <trkpt lat="48.461747" lon="24.538854">
        <ele>774.2109914782923</ele>
      </trkpt>
      <trkpt lat="48.461509" lon="24.538307">
        <ele>766.5675881377421</ele>
      </trkpt>
      <trkpt lat="48.461352" lon="24.538602">
        <ele>761.3825950511964</ele>
      </trkpt>
      <trkpt lat="48.461263" lon="24.539208">
        <ele>758.2184243116062</ele>
      </trkpt>
      <trkpt lat="48.461187" lon="24.539614">
        <ele>755.8326631668657</ele>
      </trkpt>
      <trkpt lat="48.461116" lon="24.539979">
        <ele>751.5275095108664</ele>
      </trkpt>
      <trkpt lat="48.46102" lon="24.540204">
        <ele>747.5085260660853</ele>
      </trkpt>
      <trkpt lat="48.460803" lon="24.54044">
        <ele>740.595474635251</ele>
      </trkpt>
      <trkpt lat="48.460671" lon="24.540714">
        <ele>736.286023131233</ele>
      </trkpt>
      <trkpt lat="48.460123" lon="24.540537">
        <ele>719.9643409620039</ele>
      </trkpt>
      <trkpt lat="48.45991" lon="24.540478">
        <ele>714.4155682066921</ele>
      </trkpt>
      <trkpt lat="48.459501" lon="24.541456">
        <ele>700.3299936817493</ele>
      </trkpt>
      <trkpt lat="48.459159" lon="24.542303">
        <ele>686.5252467653887</ele>
      </trkpt>
      <trkpt lat="48.458861" lon="24.543258">
        <ele>676.8024216631159</ele>
      </trkpt>
      <trkpt lat="48.458463" lon="24.544095">
        <ele>663</ele>
      </trkpt>
      <trkpt lat="48.458263" lon="24.544588">
        <ele>657.2538872850128</ele>
      </trkpt>
      <trkpt lat="48.458014" lon="24.544803">
        <ele>651.6434857543791</ele>
      </trkpt>
      <trkpt lat="48.457737" lon="24.544739">
        <ele>646.7294479848351</ele>
      </trkpt>
      <trkpt lat="48.457267" lon="24.544674">
        <ele>639.0922495822382</ele>
      </trkpt>
      <trkpt lat="48.457097" lon="24.544288">
        <ele>637.3741550151026</ele>
      </trkpt>
      <trkpt lat="48.456627" lon="24.544224">
        <ele>629.4307585858041</ele>
      </trkpt>
      <trkpt lat="48.456342" lon="24.544524">
        <ele>623.9744000518696</ele>
      </trkpt>
      <trkpt lat="48.455901" lon="24.545103">
        <ele>615.774015300269</ele>
      </trkpt>
      <trkpt lat="48.455531" lon="24.545361">
        <ele>611.6654330140424</ele>
      </trkpt>
      <trkpt lat="48.455218" lon="24.545758">
        <ele>608.8318548975512</ele>
      </trkpt>
      <trkpt lat="48.45536" lon="24.546348">
        <ele>604.0979453948094</ele>
      </trkpt>
      <trkpt lat="48.45573" lon="24.546863">
        <ele>597.3969848889392</ele>
      </trkpt>
      <trkpt lat="48.455764" lon="24.547319">
        <ele>592.1869521450285</ele>
      </trkpt>
      <trkpt lat="48.455351" lon="24.547941">
        <ele>583.8370431478485</ele>
      </trkpt>
      <trkpt lat="48.454828" lon="24.548537">
        <ele>572.6281486218795</ele>
      </trkpt>
      <trkpt lat="48.453658" lon="24.548666">
        <ele>552.9250726583414</ele>
      </trkpt>
    </trkseg>
  </trk>
</gpx>
