<?xml version="1.0" encoding="UTF-8"?>
<gpx version="1.1" creator="phpGPX/1.0RC5" schemaLocation="http://www.topografix.com/GPX/1/1 http://www.topografix.com/GPX/1/1/gpx.xsd http://www.garmin.com/xmlschemas/GpxExtensions/v3 http://www.garmin.com/xmlschemas/GpxExtensionsv3.xsd http://www.garmin.com/xmlschemas/TrackPointExtension/v1 http://www.garmin.com/xmlschemas/TrackPointExtensionv1.xsd http://www.garmin.com/xmlschemas/PowerExtension/v1 http://www.garmin.com/xmlschemas/PowerExtensionv1.xsd http://www.topografix.com/GPX/gpx_style/0/2 http://www.topografix.com/GPX/gpx_style/0/2/gpx_style.xsd" xmlns="http://www.topografix.com/GPX/1/1" xmlns:xsi="http://www.w3.org/2001/XMLSchema-instance" xsi:schemaLocation="http://www.topografix.com/GPX/1/1 http://www.topografix.com/GPX/1/1/gpx.xsd http://www.garmin.com/xmlschemas/GpxExtensions/v3 http://www.garmin.com/xmlschemas/GpxExtensionsv3.xsd http://www.garmin.com/xmlschemas/TrackPointExtension/v1 http://www.garmin.com/xmlschemas/TrackPointExtensionv1.xsd http://www.garmin.com/xmlschemas/PowerExtension/v1 http://www.garmin.com/xmlschemas/PowerExtensionv1.xsd http://www.topografix.com/GPX/gpx_style/0/2 http://www.topografix.com/GPX/gpx_style/0/2/gpx_style.xsd" xmlns:gpxtpx="http://www.garmin.com/xmlschemas/TrackPointExtension/v1" xmlns:gpxx="http://www.garmin.com/xmlschemas/GpxExtensions/v3" xmlns:gpxpx="http://www.garmin.com/xmlschemas/PowerExtension/v1" xmlns:gpx_style="http://www.topografix.com/GPX/gpx_style/0/2">
  <metadata>
    <name>Гора Синяк з Буковеля</name>
    <author>
      <name>gpx.studio</name>
      <link href="https://gpx.studio"/>
    </author>
  </metadata>
  <trk>
    <name>Гора Синяк з Буковеля</name>
    <trkseg>
      <trkpt lat="48.358316" lon="24.407898">
        <ele>894.4623811009761</ele>
      </trkpt>
      <trkpt lat="48.358815" lon="24.408466">
        <ele>893.2071612475163</ele>
      </trkpt>
      <trkpt lat="48.360041" lon="24.409786">
        <ele>918.8990700060967</ele>
      </trkpt>
      <trkpt lat="48.360239" lon="24.410115">
        <ele>922.6987703697664</ele>
      </trkpt>
      <trkpt lat="48.360552" lon="24.410437">
        <ele>928.6885877148598</ele>
      </trkpt>
      <trkpt lat="48.360788" lon="24.410877">
        <ele>934.4241709850219</ele>
      </trkpt>
      <trkpt lat="48.361372" lon="24.411284">
        <ele>943.9514725183512</ele>
      </trkpt>
      <trkpt lat="48.365518" lon="24.415765">
        <ele>1012.4641055546953</ele>
      </trkpt>
      <trkpt lat="48.366416" lon="24.416526">
        <ele>1016.5069912946783</ele>
      </trkpt>
      <trkpt lat="48.367214" lon="24.416827">
        <ele>1022.1132987862441</ele>
      </trkpt>
      <trkpt lat="48.368404" lon="24.417613">
        <ele>1044.0239473934053</ele>
      </trkpt>
      <trkpt lat="48.369951" lon="24.418932">
        <ele>1080.3149588013766</ele>
      </trkpt>
      <trkpt lat="48.370791" lon="24.420207">
        <ele>1102.5578517335234</ele>
      </trkpt>
      <trkpt lat="48.371539" lon="24.421955">
        <ele>1130.5808373143363</ele>
      </trkpt>
      <trkpt lat="48.372209" lon="24.422814">
        <ele>1135.678558710671</ele>
      </trkpt>
      <trkpt lat="48.372544" lon="24.424133">
        <ele>1144.4435683555203</ele>
      </trkpt>
      <trkpt lat="48.372758" lon="24.424691">
        <ele>1149.4586355714127</ele>
      </trkpt>
      <trkpt lat="48.372758" lon="24.425571">
        <ele>1155.2232801217103</ele>
      </trkpt>
      <trkpt lat="48.374367" lon="24.428433">
        <ele>1194.972597895011</ele>
      </trkpt>
      <trkpt lat="48.374602" lon="24.43103">
        <ele>1189.829014283327</ele>
      </trkpt>
      <trkpt lat="48.375757" lon="24.432682">
        <ele>1187.009919400967</ele>
      </trkpt>
      <trkpt lat="48.376313" lon="24.433215">
        <ele>1197.9716862507312</ele>
      </trkpt>
      <trkpt lat="48.376897" lon="24.433923">
        <ele>1224.5157335443655</ele>
      </trkpt>
      <trkpt lat="48.377075" lon="24.434299">
        <ele>1224.917421505088</ele>
      </trkpt>
      <trkpt lat="48.377489" lon="24.434406">
        <ele>1231.850874433061</ele>
      </trkpt>
      <trkpt lat="48.378208" lon="24.435189">
        <ele>1250.7353674537735</ele>
      </trkpt>
      <trkpt lat="48.378505" lon="24.435689">
        <ele>1261.1493550735759</ele>
      </trkpt>
      <trkpt lat="48.378747" lon="24.435839">
        <ele>1274.0047580156242</ele>
      </trkpt>
      <trkpt lat="48.378882" lon="24.436247">
        <ele>1279.0705319659319</ele>
      </trkpt>
      <trkpt lat="48.379281" lon="24.436257">
        <ele>1303.420414302625</ele>
      </trkpt>
      <trkpt lat="48.379424" lon="24.436601">
        <ele>1313.7345903657842</ele>
      </trkpt>
      <trkpt lat="48.379666" lon="24.43673">
        <ele>1325.766371143306</ele>
      </trkpt>
      <trkpt lat="48.379816" lon="24.436665">
        <ele>1329.3949793434133</ele>
      </trkpt>
      <trkpt lat="48.380158" lon="24.436826">
        <ele>1340.540179347782</ele>
      </trkpt>
      <trkpt lat="48.380186" lon="24.437277">
        <ele>1348.2995811528087</ele>
      </trkpt>
      <trkpt lat="48.380593" lon="24.437599">
        <ele>1356.6749606695541</ele>
      </trkpt>
      <trkpt lat="48.380578" lon="24.438747">
        <ele>1372.6928927960273</ele>
      </trkpt>
      <trkpt lat="48.380685" lon="24.439036">
        <ele>1376.7095442836412</ele>
      </trkpt>
      <trkpt lat="48.381086" lon="24.439629">
        <ele>1387.6706322126424</ele>
      </trkpt>
      <trkpt lat="48.381229" lon="24.439897">
        <ele>1395.425603063877</ele>
      </trkpt>
      <trkpt lat="48.381685" lon="24.440444">
        <ele>1412.761091207969</ele>
      </trkpt>
      <trkpt lat="48.381749" lon="24.440884">
        <ele>1419.3088191647548</ele>
      </trkpt>
      <trkpt lat="48.381749" lon="24.442966">
        <ele>1445.686297635315</ele>
      </trkpt>
      <trkpt lat="48.381556" lon="24.443481">
        <ele>1454.2383956051199</ele>
      </trkpt>
      <trkpt lat="48.381556" lon="24.443942">
        <ele>1456.5312528825134</ele>
      </trkpt>
      <trkpt lat="48.381478" lon="24.444393">
        <ele>1456.0694420153159</ele>
      </trkpt>
      <trkpt lat="48.381257" lon="24.445208">
        <ele>1458.8527174248875</ele>
      </trkpt>
      <trkpt lat="48.3811" lon="24.445734">
        <ele>1455.9136795304996</ele>
      </trkpt>
      <trkpt lat="48.381136" lon="24.446174">
        <ele>1446.0736604442354</ele>
      </trkpt>
      <trkpt lat="48.381485" lon="24.446871">
        <ele>1421.6470900493564</ele>
      </trkpt>
      <trkpt lat="48.381699" lon="24.447">
        <ele>1414.6104630185291</ele>
      </trkpt>
      <trkpt lat="48.381663" lon="24.447322">
        <ele>1406.86075602632</ele>
      </trkpt>
      <trkpt lat="48.381813" lon="24.447579">
        <ele>1395.7275810684607</ele>
      </trkpt>
      <trkpt lat="48.381792" lon="24.447901">
        <ele>1388.1225386097167</ele>
      </trkpt>
      <trkpt lat="48.382683" lon="24.450866">
        <ele>1358.8697691189525</ele>
      </trkpt>
      <trkpt lat="48.382959" lon="24.451375">
        <ele>1367.9855919625543</ele>
      </trkpt>
      <trkpt lat="48.383056" lon="24.451851">
        <ele>1374.4210551907308</ele>
      </trkpt>
      <trkpt lat="48.383358" lon="24.452043">
        <ele>1384.2941870305679</ele>
      </trkpt>
      <trkpt lat="48.383442" lon="24.452255">
        <ele>1389.89438240882</ele>
      </trkpt>
      <trkpt lat="48.383688" lon="24.452287">
        <ele>1394.8623426423874</ele>
      </trkpt>
      <trkpt lat="48.383937" lon="24.452754">
        <ele>1412.6157799454686</ele>
      </trkpt>
      <trkpt lat="48.385295" lon="24.454379">
        <ele>1480.8872916554492</ele>
      </trkpt>
      <trkpt lat="48.385961" lon="24.45417">
        <ele>1494.0466106607346</ele>
      </trkpt>
      <trkpt lat="48.38554" lon="24.455511">
        <ele>1515.1278244037085</ele>
      </trkpt>
      <trkpt lat="48.386705" lon="24.455039">
        <ele>1549.8352705965874</ele>
      </trkpt>
      <trkpt lat="48.386489" lon="24.455566">
        <ele>1560.8976928077172</ele>
      </trkpt>
      <trkpt lat="48.386546" lon="24.455604">
        <ele>1564.6163741763448</ele>
      </trkpt>
      <trkpt lat="48.386948" lon="24.455465">
        <ele>1575.4333315490285</ele>
      </trkpt>
      <trkpt lat="48.38672" lon="24.456065">
        <ele>1586.556059906009</ele>
      </trkpt>
      <trkpt lat="48.386563" lon="24.456945">
        <ele>1601.1125472639687</ele>
      </trkpt>
      <trkpt lat="48.386478" lon="24.457428">
        <ele>1607.471320859273</ele>
      </trkpt>
      <trkpt lat="48.386873" lon="24.457079">
        <ele>1620.4988156512595</ele>
      </trkpt>
      <trkpt lat="48.386767" lon="24.45763">
        <ele>1627.2897073586937</ele>
      </trkpt>
      <trkpt lat="48.386842" lon="24.45763">
        <ele>1631.0976441439707</ele>
      </trkpt>
      <trkpt lat="48.38702" lon="24.457378">
        <ele>1634.5580111689633</ele>
      </trkpt>
      <trkpt lat="48.387205" lon="24.457351">
        <ele>1641.8782216109234</ele>
      </trkpt>
      <trkpt lat="48.387358" lon="24.457448">
        <ele>1648.717104270721</ele>
      </trkpt>
    </trkseg>
  </trk>
</gpx>
