<?xml version="1.0" encoding="UTF-8"?>
<gpx version="1.1" creator="phpGPX/1.0RC5" schemaLocation="http://www.topografix.com/GPX/1/1 http://www.topografix.com/GPX/1/1/gpx.xsd http://www.garmin.com/xmlschemas/GpxExtensions/v3 http://www.garmin.com/xmlschemas/GpxExtensionsv3.xsd http://www.garmin.com/xmlschemas/TrackPointExtension/v1 http://www.garmin.com/xmlschemas/TrackPointExtensionv1.xsd http://www.garmin.com/xmlschemas/PowerExtension/v1 http://www.garmin.com/xmlschemas/PowerExtensionv1.xsd http://www.topografix.com/GPX/gpx_style/0/2 http://www.topografix.com/GPX/gpx_style/0/2/gpx_style.xsd" xmlns="http://www.topografix.com/GPX/1/1" xmlns:xsi="http://www.w3.org/2001/XMLSchema-instance" xsi:schemaLocation="http://www.topografix.com/GPX/1/1 http://www.topografix.com/GPX/1/1/gpx.xsd http://www.garmin.com/xmlschemas/GpxExtensions/v3 http://www.garmin.com/xmlschemas/GpxExtensionsv3.xsd http://www.garmin.com/xmlschemas/TrackPointExtension/v1 http://www.garmin.com/xmlschemas/TrackPointExtensionv1.xsd http://www.garmin.com/xmlschemas/PowerExtension/v1 http://www.garmin.com/xmlschemas/PowerExtensionv1.xsd http://www.topografix.com/GPX/gpx_style/0/2 http://www.topografix.com/GPX/gpx_style/0/2/gpx_style.xsd" xmlns:gpxtpx="http://www.garmin.com/xmlschemas/TrackPointExtension/v1" xmlns:gpxx="http://www.garmin.com/xmlschemas/GpxExtensions/v3" xmlns:gpxpx="http://www.garmin.com/xmlschemas/PowerExtension/v1" xmlns:gpx_style="http://www.topografix.com/GPX/gpx_style/0/2">
  <metadata>
    <name>Гора Магурка у Верховині</name>
    <author>
      <name>gpx.studio</name>
      <link href="https://gpx.studio"/>
    </author>
  </metadata>
  <trk>
    <name>Гора Магурка у Верховині</name>
    <trkseg>
      <trkpt lat="48.149725" lon="24.788564">
        <ele>635.3709474133793</ele>
      </trkpt>
      <trkpt lat="48.14873" lon="24.788381">
        <ele>648.945035404875</ele>
      </trkpt>
      <trkpt lat="48.14737" lon="24.788253">
        <ele>668.8455640102039</ele>
      </trkpt>
      <trkpt lat="48.146754" lon="24.787915">
        <ele>681.4919820190406</ele>
      </trkpt>
      <trkpt lat="48.14621" lon="24.787427">
        <ele>698.4082623505965</ele>
      </trkpt>
      <trkpt lat="48.145463" lon="24.784781">
        <ele>729.1813314875419</ele>
      </trkpt>
      <trkpt lat="48.145234" lon="24.784791">
        <ele>734.6523021475878</ele>
      </trkpt>
      <trkpt lat="48.14381" lon="24.786412">
        <ele>790.9639351313176</ele>
      </trkpt>
      <trkpt lat="48.143022" lon="24.787323">
        <ele>816.3745245123399</ele>
      </trkpt>
      <trkpt lat="48.142743" lon="24.78742">
        <ele>819.4763622185563</ele>
      </trkpt>
      <trkpt lat="48.14202" lon="24.788353">
        <ele>831.1744502342189</ele>
      </trkpt>
      <trkpt lat="48.141927" lon="24.788847">
        <ele>835.8214462370379</ele>
      </trkpt>
      <trkpt lat="48.14169" lon="24.789394">
        <ele>841.1842030448606</ele>
      </trkpt>
      <trkpt lat="48.140796" lon="24.790907">
        <ele>846.5230816409457</ele>
      </trkpt>
      <trkpt lat="48.14106" lon="24.791124">
        <ele>856.0515782746027</ele>
      </trkpt>
      <trkpt lat="48.14144" lon="24.79121">
        <ele>862.4599699893733</ele>
      </trkpt>
      <trkpt lat="48.141834" lon="24.79121">
        <ele>863.9135763632366</ele>
      </trkpt>
      <trkpt lat="48.14192" lon="24.791403">
        <ele>865.5945072284078</ele>
      </trkpt>
      <trkpt lat="48.141218" lon="24.793162">
        <ele>891.7026518955826</ele>
      </trkpt>
      <trkpt lat="48.140824" lon="24.794396">
        <ele>910.0636124443263</ele>
      </trkpt>
      <trkpt lat="48.140323" lon="24.79637">
        <ele>933.5977744180412</ele>
      </trkpt>
      <trkpt lat="48.139507" lon="24.799245">
        <ele>964.1996846437569</ele>
      </trkpt>
      <trkpt lat="48.138934" lon="24.800919">
        <ele>981.3036404663296</ele>
      </trkpt>
      <trkpt lat="48.138275" lon="24.803237">
        <ele>997.0109798787162</ele>
      </trkpt>
      <trkpt lat="48.137158" lon="24.806327">
        <ele>1009.7158057983033</ele>
      </trkpt>
    </trkseg>
  </trk>
</gpx>
