<?xml version="1.0" encoding="UTF-8"?>
<gpx version="1.1" creator="phpGPX/1.0RC5" schemaLocation="http://www.topografix.com/GPX/1/1 http://www.topografix.com/GPX/1/1/gpx.xsd http://www.garmin.com/xmlschemas/GpxExtensions/v3 http://www.garmin.com/xmlschemas/GpxExtensionsv3.xsd http://www.garmin.com/xmlschemas/TrackPointExtension/v1 http://www.garmin.com/xmlschemas/TrackPointExtensionv1.xsd http://www.garmin.com/xmlschemas/PowerExtension/v1 http://www.garmin.com/xmlschemas/PowerExtensionv1.xsd http://www.topografix.com/GPX/gpx_style/0/2 http://www.topografix.com/GPX/gpx_style/0/2/gpx_style.xsd" xmlns="http://www.topografix.com/GPX/1/1" xmlns:xsi="http://www.w3.org/2001/XMLSchema-instance" xsi:schemaLocation="http://www.topografix.com/GPX/1/1 http://www.topografix.com/GPX/1/1/gpx.xsd http://www.garmin.com/xmlschemas/GpxExtensions/v3 http://www.garmin.com/xmlschemas/GpxExtensionsv3.xsd http://www.garmin.com/xmlschemas/TrackPointExtension/v1 http://www.garmin.com/xmlschemas/TrackPointExtensionv1.xsd http://www.garmin.com/xmlschemas/PowerExtension/v1 http://www.garmin.com/xmlschemas/PowerExtensionv1.xsd http://www.topografix.com/GPX/gpx_style/0/2 http://www.topografix.com/GPX/gpx_style/0/2/gpx_style.xsd" xmlns:gpxtpx="http://www.garmin.com/xmlschemas/TrackPointExtension/v1" xmlns:gpxx="http://www.garmin.com/xmlschemas/GpxExtensions/v3" xmlns:gpxpx="http://www.garmin.com/xmlschemas/PowerExtension/v1" xmlns:gpx_style="http://www.topografix.com/GPX/gpx_style/0/2">
  <metadata>
    <name>Горгани  Осмолода - Мислівка</name>
    <author>
      <name>gpx.studio</name>
      <link href="https://gpx.studio"/>
    </author>
  </metadata>
  <trk>
    <name>Горгани  Осмолода - Мислівка</name>
    <trkseg>
      <trkpt lat="48.64875" lon="24.014047">
        <ele>719.6518486845838</ele>
      </trkpt>
      <trkpt lat="48.647206" lon="24.013812">
        <ele>726.0221536291065</ele>
      </trkpt>
      <trkpt lat="48.647676" lon="24.009844">
        <ele>732.2617778313029</ele>
      </trkpt>
      <trkpt lat="48.64891" lon="24.007016">
        <ele>729.5346311373698</ele>
      </trkpt>
      <trkpt lat="48.64982" lon="24.004348">
        <ele>731.6393275157898</ele>
      </trkpt>
      <trkpt lat="48.650386" lon="24.001822">
        <ele>735.9581660721451</ele>
      </trkpt>
      <trkpt lat="48.650102" lon="23.994748">
        <ele>750.6439253813314</ele>
      </trkpt>
      <trkpt lat="48.649578" lon="23.993165">
        <ele>750.1740870934975</ele>
      </trkpt>
      <trkpt lat="48.649691" lon="23.991835">
        <ele>761.5</ele>
      </trkpt>
      <trkpt lat="48.650655" lon="23.99014">
        <ele>756.7414009047206</ele>
      </trkpt>
      <trkpt lat="48.651832" lon="23.987415">
        <ele>764.1764234478799</ele>
      </trkpt>
      <trkpt lat="48.651832" lon="23.986642">
        <ele>759.7981419114113</ele>
      </trkpt>
      <trkpt lat="48.652059" lon="23.985698">
        <ele>756.9773700995935</ele>
      </trkpt>
      <trkpt lat="48.652583" lon="23.98529">
        <ele>750.1633840003567</ele>
      </trkpt>
      <trkpt lat="48.653703" lon="23.984904">
        <ele>755.1991868119948</ele>
      </trkpt>
      <trkpt lat="48.654171" lon="23.984582">
        <ele>753.2299329792149</ele>
      </trkpt>
      <trkpt lat="48.654284" lon="23.984024">
        <ele>755.4079988082343</ele>
      </trkpt>
      <trkpt lat="48.654185" lon="23.983102">
        <ele>757.3749842921969</ele>
      </trkpt>
      <trkpt lat="48.654639" lon="23.980784">
        <ele>762.4617747429293</ele>
      </trkpt>
      <trkpt lat="48.655149" lon="23.979025">
        <ele>764.6809745993855</ele>
      </trkpt>
      <trkpt lat="48.655447" lon="23.976342">
        <ele>773.6228069440695</ele>
      </trkpt>
      <trkpt lat="48.65537" lon="23.974018">
        <ele>783.1482829245529</ele>
      </trkpt>
      <trkpt lat="48.655228" lon="23.972302">
        <ele>783.5619170912541</ele>
      </trkpt>
      <trkpt lat="48.65503" lon="23.969555">
        <ele>780.4589614258148</ele>
      </trkpt>
      <trkpt lat="48.655668" lon="23.968396">
        <ele>782.5183849928434</ele>
      </trkpt>
      <trkpt lat="48.656221" lon="23.96756">
        <ele>782.541728044278</ele>
      </trkpt>
      <trkpt lat="48.656532" lon="23.966723">
        <ele>788.1217604209669</ele>
      </trkpt>
      <trkpt lat="48.656632" lon="23.9655">
        <ele>789.5682337626931</ele>
      </trkpt>
      <trkpt lat="48.656575" lon="23.964555">
        <ele>789.4386190924073</ele>
      </trkpt>
      <trkpt lat="48.657043" lon="23.961659">
        <ele>799.6833613216876</ele>
      </trkpt>
      <trkpt lat="48.657822" lon="23.957517">
        <ele>803.1568239302143</ele>
      </trkpt>
      <trkpt lat="48.658517" lon="23.95505">
        <ele>816.2457609257544</ele>
      </trkpt>
      <trkpt lat="48.659084" lon="23.953183">
        <ele>816.6050271031935</ele>
      </trkpt>
      <trkpt lat="48.659367" lon="23.950951">
        <ele>816.2658366567921</ele>
      </trkpt>
      <trkpt lat="48.659679" lon="23.948226">
        <ele>819.2440603143425</ele>
      </trkpt>
      <trkpt lat="48.659915" lon="23.946829">
        <ele>819.6949041777989</ele>
      </trkpt>
      <trkpt lat="48.65966" lon="23.94522">
        <ele>812.1430489444422</ele>
      </trkpt>
      <trkpt lat="48.659277" lon="23.943589">
        <ele>803.6492673866042</ele>
      </trkpt>
      <trkpt lat="48.658838" lon="23.942066">
        <ele>801.6914971655933</ele>
      </trkpt>
      <trkpt lat="48.658257" lon="23.941465">
        <ele>801.1685283814442</ele>
      </trkpt>
      <trkpt lat="48.657909" lon="23.940135">
        <ele>799.8552641013521</ele>
      </trkpt>
      <trkpt lat="48.657676" lon="23.938675">
        <ele>800.0204353147342</ele>
      </trkpt>
      <trkpt lat="48.657123" lon="23.93668">
        <ele>805.2538028463024</ele>
      </trkpt>
      <trkpt lat="48.656343" lon="23.934362">
        <ele>811.3746136248345</ele>
      </trkpt>
      <trkpt lat="48.655663" lon="23.932474">
        <ele>810.5</ele>
      </trkpt>
      <trkpt lat="48.655095" lon="23.929997">
        <ele>816.8318492444232</ele>
      </trkpt>
      <trkpt lat="48.654571" lon="23.927959">
        <ele>819.741860318696</ele>
      </trkpt>
      <trkpt lat="48.653947" lon="23.926135">
        <ele>823.9738234434974</ele>
      </trkpt>
      <trkpt lat="48.653196" lon="23.924869">
        <ele>830.7666221237055</ele>
      </trkpt>
      <trkpt lat="48.652331" lon="23.923453">
        <ele>827.4031284895367</ele>
      </trkpt>
      <trkpt lat="48.650895" lon="23.922564">
        <ele>828.749991531251</ele>
      </trkpt>
      <trkpt lat="48.649833" lon="23.921946">
        <ele>831.1726935491544</ele>
      </trkpt>
      <trkpt lat="48.649081" lon="23.921452">
        <ele>835.7771595491529</ele>
      </trkpt>
      <trkpt lat="48.648755" lon="23.921066">
        <ele>837.1440635534491</ele>
      </trkpt>
      <trkpt lat="48.648358" lon="23.920186">
        <ele>833.7750355743445</ele>
      </trkpt>
      <trkpt lat="48.647182" lon="23.918727">
        <ele>831.8120662496736</ele>
      </trkpt>
      <trkpt lat="48.646558" lon="23.918255">
        <ele>835.5875777561757</ele>
      </trkpt>
      <trkpt lat="48.645551" lon="23.916839">
        <ele>834.2565270980899</ele>
      </trkpt>
      <trkpt lat="48.644942" lon="23.916731">
        <ele>834.46094254257</ele>
      </trkpt>
      <trkpt lat="48.644176" lon="23.916903">
        <ele>836.980472114071</ele>
      </trkpt>
      <trkpt lat="48.643595" lon="23.916731">
        <ele>839.8403561239247</ele>
      </trkpt>
      <trkpt lat="48.642957" lon="23.916216">
        <ele>844.2746089366372</ele>
      </trkpt>
      <trkpt lat="48.642376" lon="23.916002">
        <ele>844.4445815199267</ele>
      </trkpt>
      <trkpt lat="48.641752" lon="23.915959">
        <ele>846.3351791442863</ele>
      </trkpt>
      <trkpt lat="48.640844" lon="23.914693">
        <ele>849.4205871532406</ele>
      </trkpt>
      <trkpt lat="48.640546" lon="23.912783">
        <ele>854.4035374261165</ele>
      </trkpt>
      <trkpt lat="48.640305" lon="23.907934">
        <ele>856.7148556328749</ele>
      </trkpt>
      <trkpt lat="48.640082" lon="23.906876">
        <ele>860.541599799905</ele>
      </trkpt>
      <trkpt lat="48.640507" lon="23.906125">
        <ele>868.9556737666717</ele>
      </trkpt>
      <trkpt lat="48.641329" lon="23.90575">
        <ele>896.7144822008556</ele>
      </trkpt>
      <trkpt lat="48.643017" lon="23.904001">
        <ele>956.9505654180157</ele>
      </trkpt>
      <trkpt lat="48.643811" lon="23.903175">
        <ele>978.5585280448987</ele>
      </trkpt>
      <trkpt lat="48.64447" lon="23.902134">
        <ele>999.4097514664755</ele>
      </trkpt>
      <trkpt lat="48.644994" lon="23.901662">
        <ele>1013.7223527291789</ele>
      </trkpt>
      <trkpt lat="48.645576" lon="23.901437">
        <ele>1027.4547295215446</ele>
      </trkpt>
      <trkpt lat="48.645944" lon="23.900879">
        <ele>1045.0258583360262</ele>
      </trkpt>
      <trkpt lat="48.6461" lon="23.899967">
        <ele>1064.1309136108573</ele>
      </trkpt>
      <trkpt lat="48.646639" lon="23.899023">
        <ele>1095.4411865962902</ele>
      </trkpt>
      <trkpt lat="48.647362" lon="23.8981">
        <ele>1140.2063893024135</ele>
      </trkpt>
      <trkpt lat="48.648191" lon="23.89736">
        <ele>1169.016647267621</ele>
      </trkpt>
      <trkpt lat="48.64834" lon="23.897252">
        <ele>1171.147073517961</ele>
      </trkpt>
      <trkpt lat="48.648553" lon="23.896684">
        <ele>1183.885238439543</ele>
      </trkpt>
      <trkpt lat="48.648532" lon="23.896437">
        <ele>1191.13794222672</ele>
      </trkpt>
      <trkpt lat="48.648283" lon="23.895793">
        <ele>1211.813292711042</ele>
      </trkpt>
      <trkpt lat="48.64817" lon="23.894323">
        <ele>1245.5037244512932</ele>
      </trkpt>
      <trkpt lat="48.64826" lon="23.893394">
        <ele>1256.6751025617123</ele>
      </trkpt>
      <trkpt lat="48.648806" lon="23.892783">
        <ele>1266.3111725399351</ele>
      </trkpt>
      <trkpt lat="48.649189" lon="23.892718">
        <ele>1265.7894322801149</ele>
      </trkpt>
      <trkpt lat="48.649352" lon="23.892268">
        <ele>1276.4900447423042</ele>
      </trkpt>
      <trkpt lat="48.649536" lon="23.892107">
        <ele>1281.5916840455063</ele>
      </trkpt>
      <trkpt lat="48.649628" lon="23.891559">
        <ele>1308.1784391401452</ele>
      </trkpt>
      <trkpt lat="48.650285" lon="23.891033">
        <ele>1312.0010659787804</ele>
      </trkpt>
      <trkpt lat="48.651182" lon="23.889991">
        <ele>1339.5556907529244</ele>
      </trkpt>
      <trkpt lat="48.651614" lon="23.889722">
        <ele>1343.7059497342375</ele>
      </trkpt>
      <trkpt lat="48.652018" lon="23.889325">
        <ele>1357.6182674265583</ele>
      </trkpt>
      <trkpt lat="48.652004" lon="23.8888">
        <ele>1370.2899282955912</ele>
      </trkpt>
      <trkpt lat="48.65194" lon="23.888381">
        <ele>1380.4946780171476</ele>
      </trkpt>
      <trkpt lat="48.65199" lon="23.887802">
        <ele>1395.2620569916908</ele>
      </trkpt>
      <trkpt lat="48.651763" lon="23.887641">
        <ele>1404.0912483837544</ele>
      </trkpt>
      <trkpt lat="48.651246" lon="23.88778">
        <ele>1411.068833336156</ele>
      </trkpt>
      <trkpt lat="48.650494" lon="23.887544">
        <ele>1431.3660329763584</ele>
      </trkpt>
      <trkpt lat="48.649949" lon="23.887029">
        <ele>1440.9969397948587</ele>
      </trkpt>
      <trkpt lat="48.648963" lon="23.885173">
        <ele>1466.9846734250898</ele>
      </trkpt>
      <trkpt lat="48.648751" lon="23.884615">
        <ele>1476.9495008247904</ele>
      </trkpt>
      <trkpt lat="48.648184" lon="23.8841">
        <ele>1477.2516179883387</ele>
      </trkpt>
      <trkpt lat="48.647461" lon="23.883124">
        <ele>1484.106560599641</ele>
      </trkpt>
      <trkpt lat="48.646454" lon="23.882212">
        <ele>1479.9064968415769</ele>
      </trkpt>
      <trkpt lat="48.646794" lon="23.881847">
        <ele>1489.448630884894</ele>
      </trkpt>
      <trkpt lat="48.647014" lon="23.881805">
        <ele>1493.5345747943775</ele>
      </trkpt>
      <trkpt lat="48.647461" lon="23.881322">
        <ele>1502.4773001066642</ele>
      </trkpt>
      <trkpt lat="48.647766" lon="23.881322">
        <ele>1508.240647802561</ele>
      </trkpt>
      <trkpt lat="48.648325" lon="23.881901">
        <ele>1517.5863811138552</ele>
      </trkpt>
      <trkpt lat="48.648992" lon="23.881976">
        <ele>1530.6511538871198</ele>
      </trkpt>
      <trkpt lat="48.649233" lon="23.881826">
        <ele>1535.9740380842704</ele>
      </trkpt>
      <trkpt lat="48.649608" lon="23.881772">
        <ele>1542.6779891377626</ele>
      </trkpt>
      <trkpt lat="48.649743" lon="23.881837">
        <ele>1544.6656082189324</ele>
      </trkpt>
      <trkpt lat="48.650721" lon="23.882062">
        <ele>1557.4938196858884</ele>
      </trkpt>
      <trkpt lat="48.651203" lon="23.883038">
        <ele>1562.9150067161793</ele>
      </trkpt>
      <trkpt lat="48.651593" lon="23.883521">
        <ele>1563.3469671376515</ele>
      </trkpt>
      <trkpt lat="48.652082" lon="23.883296">
        <ele>1577.5920999362318</ele>
      </trkpt>
      <trkpt lat="48.65238" lon="23.882298">
        <ele>1587.4792429079089</ele>
      </trkpt>
      <trkpt lat="48.652373" lon="23.881568">
        <ele>1582.9883305475853</ele>
      </trkpt>
      <trkpt lat="48.652543" lon="23.880989">
        <ele>1582.921499887132</ele>
      </trkpt>
      <trkpt lat="48.653" lon="23.880617">
        <ele>1587.8198505846503</ele>
      </trkpt>
      <trkpt lat="48.65317" lon="23.880327">
        <ele>1586.5384946981212</ele>
      </trkpt>
      <trkpt lat="48.653376" lon="23.880273">
        <ele>1590.2935576483117</ele>
      </trkpt>
      <trkpt lat="48.65373" lon="23.880445">
        <ele>1601.90042208205</ele>
      </trkpt>
      <trkpt lat="48.654084" lon="23.880177">
        <ele>1605.209157817992</ele>
      </trkpt>
      <trkpt lat="48.65429" lon="23.880209">
        <ele>1609.1925178112465</ele>
      </trkpt>
      <trkpt lat="48.654687" lon="23.879973">
        <ele>1612.36637548201</ele>
      </trkpt>
      <trkpt lat="48.655629" lon="23.879909">
        <ele>1626.1644474178447</ele>
      </trkpt>
      <trkpt lat="48.655778" lon="23.879919">
        <ele>1627.6311786303995</ele>
      </trkpt>
      <trkpt lat="48.656097" lon="23.879651">
        <ele>1631.6196623655499</ele>
      </trkpt>
      <trkpt lat="48.656756" lon="23.878535">
        <ele>1642.3644937289646</ele>
      </trkpt>
      <trkpt lat="48.656926" lon="23.877945">
        <ele>1639.0438036794076</ele>
      </trkpt>
      <trkpt lat="48.657181" lon="23.877623">
        <ele>1640.9785955000866</ele>
      </trkpt>
      <trkpt lat="48.657458" lon="23.87684">
        <ele>1642.4056615650827</ele>
      </trkpt>
      <trkpt lat="48.65755" lon="23.875907">
        <ele>1653.6452971037183</ele>
      </trkpt>
      <trkpt lat="48.657498" lon="23.875403">
        <ele>1661.6367219791282</ele>
      </trkpt>
      <trkpt lat="48.657817" lon="23.874588">
        <ele>1682.389036799781</ele>
      </trkpt>
      <trkpt lat="48.65771" lon="23.874362">
        <ele>1684.360324467998</ele>
      </trkpt>
      <trkpt lat="48.657476" lon="23.874244">
        <ele>1680.1045210359825</ele>
      </trkpt>
      <trkpt lat="48.657058" lon="23.872935">
        <ele>1682.8211112624265</ele>
      </trkpt>
      <trkpt lat="48.656626" lon="23.871712">
        <ele>1681.0541391493748</ele>
      </trkpt>
      <trkpt lat="48.656633" lon="23.870704">
        <ele>1698.13165944031</ele>
      </trkpt>
      <trkpt lat="48.656335" lon="23.869395">
        <ele>1714.914991104562</ele>
      </trkpt>
      <trkpt lat="48.656153" lon="23.869268">
        <ele>1710.5758853785846</ele>
      </trkpt>
      <trkpt lat="48.655869" lon="23.86827">
        <ele>1712.6334359353034</ele>
      </trkpt>
      <trkpt lat="48.655891" lon="23.867959">
        <ele>1714.0228014343556</ele>
      </trkpt>
      <trkpt lat="48.655572" lon="23.867637">
        <ele>1714.0287922667674</ele>
      </trkpt>
      <trkpt lat="48.65565" lon="23.867219">
        <ele>1716.4065406985703</ele>
      </trkpt>
      <trkpt lat="48.655472" lon="23.866789">
        <ele>1715.9285457460815</ele>
      </trkpt>
      <trkpt lat="48.655402" lon="23.866317">
        <ele>1716.0866622629305</ele>
      </trkpt>
      <trkpt lat="48.655437" lon="23.865963">
        <ele>1716.5054432687382</ele>
      </trkpt>
      <trkpt lat="48.655196" lon="23.865234">
        <ele>1719.9838396667208</ele>
      </trkpt>
      <trkpt lat="48.655239" lon="23.864869">
        <ele>1718.9073045331752</ele>
      </trkpt>
      <trkpt lat="48.654934" lon="23.864086">
        <ele>1708.13056070311</ele>
      </trkpt>
      <trkpt lat="48.654587" lon="23.863646">
        <ele>1695.6336063394556</ele>
      </trkpt>
      <trkpt lat="48.65358" lon="23.863421">
        <ele>1675.5032304799975</ele>
      </trkpt>
      <trkpt lat="48.653546" lon="23.863022">
        <ele>1668.043310364423</ele>
      </trkpt>
      <trkpt lat="48.653277" lon="23.862604">
        <ele>1655.3389845477068</ele>
      </trkpt>
      <trkpt lat="48.652951" lon="23.862507">
        <ele>1649.1773606083589</ele>
      </trkpt>
      <trkpt lat="48.652171" lon="23.862035">
        <ele>1631.1975695266487</ele>
      </trkpt>
      <trkpt lat="48.651441" lon="23.861188">
        <ele>1621.3226088499966</ele>
      </trkpt>
      <trkpt lat="48.650732" lon="23.860544">
        <ele>1617.6097537071753</ele>
      </trkpt>
      <trkpt lat="48.650254" lon="23.860198">
        <ele>1625.4240018629791</ele>
      </trkpt>
      <trkpt lat="48.649496" lon="23.860659">
        <ele>1608.6300273155653</ele>
      </trkpt>
      <trkpt lat="48.649311" lon="23.860252">
        <ele>1611.8226113578535</ele>
      </trkpt>
      <trkpt lat="48.648999" lon="23.860069">
        <ele>1600.7821095923427</ele>
      </trkpt>
      <trkpt lat="48.648496" lon="23.860005">
        <ele>1578.9257236148605</ele>
      </trkpt>
      <trkpt lat="48.648184" lon="23.860144">
        <ele>1566.5952251462325</ele>
      </trkpt>
      <trkpt lat="48.64778" lon="23.860155">
        <ele>1547.6046699713997</ele>
      </trkpt>
      <trkpt lat="48.647637" lon="23.859855">
        <ele>1540.6083303827206</ele>
      </trkpt>
      <trkpt lat="48.647211" lon="23.859534">
        <ele>1521.6871313184965</ele>
      </trkpt>
      <trkpt lat="48.646679" lon="23.859523">
        <ele>1503.4535483652407</ele>
      </trkpt>
      <trkpt lat="48.646374" lon="23.859448">
        <ele>1496.8312159033082</ele>
      </trkpt>
      <trkpt lat="48.646282" lon="23.859298">
        <ele>1495.305924705502</ele>
      </trkpt>
      <trkpt lat="48.646636" lon="23.858858">
        <ele>1496.233515761708</ele>
      </trkpt>
      <trkpt lat="48.647196" lon="23.858375">
        <ele>1500.3320758499322</ele>
      </trkpt>
      <trkpt lat="48.647593" lon="23.857377">
        <ele>1497.1133650853817</ele>
      </trkpt>
      <trkpt lat="48.647707" lon="23.85567">
        <ele>1503.452896096581</ele>
      </trkpt>
      <trkpt lat="48.648388" lon="23.85419">
        <ele>1503.4873773811591</ele>
      </trkpt>
      <trkpt lat="48.649579" lon="23.852494">
        <ele>1502.1626238112237</ele>
      </trkpt>
      <trkpt lat="48.650231" lon="23.849319">
        <ele>1470.099892395914</ele>
      </trkpt>
      <trkpt lat="48.650202" lon="23.84831">
        <ele>1464.1806810904527</ele>
      </trkpt>
      <trkpt lat="48.650117" lon="23.84786">
        <ele>1457.9898492977954</ele>
      </trkpt>
      <trkpt lat="48.650528" lon="23.847216">
        <ele>1445.4531634649568</ele>
      </trkpt>
      <trkpt lat="48.650543" lon="23.846787">
        <ele>1437.946322725608</ele>
      </trkpt>
      <trkpt lat="48.650415" lon="23.846551">
        <ele>1435.0900156493171</ele>
      </trkpt>
      <trkpt lat="48.650741" lon="23.8461">
        <ele>1423.3746444631834</ele>
      </trkpt>
      <trkpt lat="48.650755" lon="23.845499">
        <ele>1413.3951978870662</ele>
      </trkpt>
      <trkpt lat="48.651549" lon="23.843547">
        <ele>1387.6948971349047</ele>
      </trkpt>
      <trkpt lat="48.652212" lon="23.842971">
        <ele>1387.9403391999658</ele>
      </trkpt>
      <trkpt lat="48.652819" lon="23.842717">
        <ele>1390.822084014886</ele>
      </trkpt>
      <trkpt lat="48.653471" lon="23.842674">
        <ele>1391.229193357004</ele>
      </trkpt>
      <trkpt lat="48.653854" lon="23.842009">
        <ele>1387.0658463762475</ele>
      </trkpt>
      <trkpt lat="48.654265" lon="23.841193">
        <ele>1373.0978256741075</ele>
      </trkpt>
      <trkpt lat="48.654449" lon="23.840571">
        <ele>1364.2384551045668</ele>
      </trkpt>
      <trkpt lat="48.654874" lon="23.840142">
        <ele>1355.287285350496</ele>
      </trkpt>
      <trkpt lat="48.655229" lon="23.840292">
        <ele>1352.5130238738748</ele>
      </trkpt>
      <trkpt lat="48.655384" lon="23.839927">
        <ele>1351.3484174475275</ele>
      </trkpt>
      <trkpt lat="48.655881" lon="23.839584">
        <ele>1357.4816046884293</ele>
      </trkpt>
      <trkpt lat="48.656054" lon="23.839128">
        <ele>1367.241935578233</ele>
      </trkpt>
      <trkpt lat="48.656593" lon="23.839106">
        <ele>1381.759275127144</ele>
      </trkpt>
      <trkpt lat="48.65699" lon="23.838935">
        <ele>1389.7772704130039</ele>
      </trkpt>
      <trkpt lat="48.657613" lon="23.838763">
        <ele>1401.1403876252361</ele>
      </trkpt>
      <trkpt lat="48.658195" lon="23.838784">
        <ele>1408.9109913196937</ele>
      </trkpt>
      <trkpt lat="48.658776" lon="23.838913">
        <ele>1418.140435501933</ele>
      </trkpt>
      <trkpt lat="48.659442" lon="23.839021">
        <ele>1433.139906591677</ele>
      </trkpt>
      <trkpt lat="48.660065" lon="23.839278">
        <ele>1447.5732585635978</ele>
      </trkpt>
      <trkpt lat="48.660632" lon="23.839514">
        <ele>1462.530502800747</ele>
      </trkpt>
      <trkpt lat="48.661299" lon="23.839514">
        <ele>1479.8345086475604</ele>
      </trkpt>
      <trkpt lat="48.661936" lon="23.839686">
        <ele>1489.5473938418177</ele>
      </trkpt>
      <trkpt lat="48.662503" lon="23.840297">
        <ele>1492.96327023732</ele>
      </trkpt>
      <trkpt lat="48.662871" lon="23.840276">
        <ele>1503.141037661815</ele>
      </trkpt>
      <trkpt lat="48.663948" lon="23.840662">
        <ele>1532.8279501695652</ele>
      </trkpt>
      <trkpt lat="48.665309" lon="23.840018">
        <ele>1557.0369123667442</ele>
      </trkpt>
      <trkpt lat="48.665819" lon="23.839739">
        <ele>1572.7002323359484</ele>
      </trkpt>
      <trkpt lat="48.666485" lon="23.839932">
        <ele>1593.622514038585</ele>
      </trkpt>
      <trkpt lat="48.66708" lon="23.840061">
        <ele>1616.6992919889842</ele>
      </trkpt>
      <trkpt lat="48.667775" lon="23.84019">
        <ele>1635.4708800101655</ele>
      </trkpt>
      <trkpt lat="48.66837" lon="23.84004">
        <ele>1637.8114058266938</ele>
      </trkpt>
      <trkpt lat="48.668973" lon="23.840189">
        <ele>1627.5744617930613</ele>
      </trkpt>
      <trkpt lat="48.66961" lon="23.840232">
        <ele>1621.0741241874887</ele>
      </trkpt>
      <trkpt lat="48.67022" lon="23.840038">
        <ele>1629.5694816696075</ele>
      </trkpt>
      <trkpt lat="48.670886" lon="23.840103">
        <ele>1630.6320731574622</ele>
      </trkpt>
      <trkpt lat="48.671552" lon="23.840232">
        <ele>1624.9274483213542</ele>
      </trkpt>
      <trkpt lat="48.672175" lon="23.841026">
        <ele>1617.2848413938066</ele>
      </trkpt>
      <trkpt lat="48.672643" lon="23.841476">
        <ele>1619.052586167733</ele>
      </trkpt>
      <trkpt lat="48.673054" lon="23.842313">
        <ele>1614.9283029067096</ele>
      </trkpt>
      <trkpt lat="48.67338" lon="23.843085">
        <ele>1609.6888913553896</ele>
      </trkpt>
      <trkpt lat="48.673705" lon="23.843751">
        <ele>1605.3131363000302</ele>
      </trkpt>
      <trkpt lat="48.675477" lon="23.845042">
        <ele>1577.8468450502055</ele>
      </trkpt>
      <trkpt lat="48.676753" lon="23.846265">
        <ele>1597.7418791516584</ele>
      </trkpt>
      <trkpt lat="48.6779" lon="23.847124">
        <ele>1619.2169571556149</ele>
      </trkpt>
      <trkpt lat="48.678354" lon="23.846673">
        <ele>1612.7604798571556</ele>
      </trkpt>
      <trkpt lat="48.678807" lon="23.84618">
        <ele>1601.3464819642231</ele>
      </trkpt>
      <trkpt lat="48.680274" lon="23.844322">
        <ele>1586.5198960410162</ele>
      </trkpt>
      <trkpt lat="48.682343" lon="23.842005">
        <ele>1576.998290284763</ele>
      </trkpt>
      <trkpt lat="48.683504" lon="23.840975">
        <ele>1591.5094710313522</ele>
      </trkpt>
      <trkpt lat="48.684014" lon="23.840245">
        <ele>1602.0362643851097</ele>
      </trkpt>
      <trkpt lat="48.684779" lon="23.840288">
        <ele>1614.595120907994</ele>
      </trkpt>
      <trkpt lat="48.685459" lon="23.839988">
        <ele>1623.2281420327135</ele>
      </trkpt>
      <trkpt lat="48.687153" lon="23.838782">
        <ele>1598.098156242515</ele>
      </trkpt>
      <trkpt lat="48.688357" lon="23.838267">
        <ele>1601.056282887877</ele>
      </trkpt>
      <trkpt lat="48.689703" lon="23.837902">
        <ele>1613.2563880898792</ele>
      </trkpt>
      <trkpt lat="48.69136" lon="23.83743">
        <ele>1632.7431522754487</ele>
      </trkpt>
      <trkpt lat="48.691799" lon="23.837516">
        <ele>1632.4990164341039</ele>
      </trkpt>
      <trkpt lat="48.69255" lon="23.837065">
        <ele>1644.5436283719232</ele>
      </trkpt>
      <trkpt lat="48.693159" lon="23.837023">
        <ele>1650.9530319422552</ele>
      </trkpt>
      <trkpt lat="48.694259" lon="23.837516">
        <ele>1658.2758385704328</ele>
      </trkpt>
      <trkpt lat="48.69491" lon="23.838117">
        <ele>1657.1419544711</ele>
      </trkpt>
      <trkpt lat="48.695208" lon="23.838954">
        <ele>1644.805285412039</ele>
      </trkpt>
      <trkpt lat="48.695675" lon="23.839683">
        <ele>1638.3411869571873</ele>
      </trkpt>
      <trkpt lat="48.696114" lon="23.840198">
        <ele>1626.4350441510526</ele>
      </trkpt>
      <trkpt lat="48.69678" lon="23.840241">
        <ele>1610.1315501927602</ele>
      </trkpt>
      <trkpt lat="48.697998" lon="23.840048">
        <ele>1582.2434165650816</ele>
      </trkpt>
      <trkpt lat="48.698664" lon="23.839812">
        <ele>1571.0742627121508</ele>
      </trkpt>
      <trkpt lat="48.699261" lon="23.839888">
        <ele>1562.0361616121372</ele>
      </trkpt>
      <trkpt lat="48.699941" lon="23.839974">
        <ele>1560.618431714845</ele>
      </trkpt>
      <trkpt lat="48.700507" lon="23.839652">
        <ele>1561.9207474197028</ele>
      </trkpt>
      <trkpt lat="48.70123" lon="23.840082">
        <ele>1576.369632502874</ele>
      </trkpt>
      <trkpt lat="48.701527" lon="23.840511">
        <ele>1589.8430282779739</ele>
      </trkpt>
      <trkpt lat="48.702037" lon="23.840682">
        <ele>1606.3512942405368</ele>
      </trkpt>
      <trkpt lat="48.702363" lon="23.840833">
        <ele>1618.0663143053534</ele>
      </trkpt>
      <trkpt lat="48.702901" lon="23.84064">
        <ele>1631.3356585637666</ele>
      </trkpt>
      <trkpt lat="48.703156" lon="23.840897">
        <ele>1644.1859371332184</ele>
      </trkpt>
      <trkpt lat="48.703637" lon="23.841283">
        <ele>1669.8397000939585</ele>
      </trkpt>
      <trkpt lat="48.704487" lon="23.841262">
        <ele>1675.7150485209368</ele>
      </trkpt>
      <trkpt lat="48.705067" lon="23.84109">
        <ele>1666.30077457584</ele>
      </trkpt>
      <trkpt lat="48.705656" lon="23.840532">
        <ele>1654.615159325642</ele>
      </trkpt>
      <trkpt lat="48.706067" lon="23.839803">
        <ele>1639.7282128888337</ele>
      </trkpt>
      <trkpt lat="48.706562" lon="23.839266">
        <ele>1624.316356279829</ele>
      </trkpt>
      <trkpt lat="48.707642" lon="23.837946">
        <ele>1584.7845508169928</ele>
      </trkpt>
      <trkpt lat="48.709228" lon="23.83683">
        <ele>1556.8556406226621</ele>
      </trkpt>
      <trkpt lat="48.709596" lon="23.835714">
        <ele>1548.1626347170345</ele>
      </trkpt>
      <trkpt lat="48.71036" lon="23.834384">
        <ele>1519.7128532981556</ele>
      </trkpt>
      <trkpt lat="48.711238" lon="23.832796">
        <ele>1493.9887149174933</ele>
      </trkpt>
      <trkpt lat="48.711946" lon="23.831208">
        <ele>1484.2501326553117</ele>
      </trkpt>
      <trkpt lat="48.712824" lon="23.829878">
        <ele>1479.817090685429</ele>
      </trkpt>
      <trkpt lat="48.7139" lon="23.828376">
        <ele>1473.5786380724485</ele>
      </trkpt>
      <trkpt lat="48.713022" lon="23.831466">
        <ele>1442.4205425509717</ele>
      </trkpt>
      <trkpt lat="48.712286" lon="23.834427">
        <ele>1417.4941698481562</ele>
      </trkpt>
      <trkpt lat="48.712881" lon="23.836916">
        <ele>1359.8651321595532</ele>
      </trkpt>
      <trkpt lat="48.714183" lon="23.838289">
        <ele>1309.8211051322287</ele>
      </trkpt>
      <trkpt lat="48.714098" lon="23.840864">
        <ele>1282.7357860686177</ele>
      </trkpt>
      <trkpt lat="48.714665" lon="23.842409">
        <ele>1235.4347771535395</ele>
      </trkpt>
      <trkpt lat="48.715656" lon="23.842538">
        <ele>1220.6826688701212</ele>
      </trkpt>
      <trkpt lat="48.716618" lon="23.844769">
        <ele>1173.7197872396907</ele>
      </trkpt>
      <trkpt lat="48.717729" lon="23.845121">
        <ele>1173.1314887535991</ele>
      </trkpt>
      <trkpt lat="48.718748" lon="23.845507">
        <ele>1175.028893906616</ele>
      </trkpt>
      <trkpt lat="48.719598" lon="23.846065">
        <ele>1170.2263260344043</ele>
      </trkpt>
      <trkpt lat="48.719675" lon="23.846133">
        <ele>1167.7716048537459</ele>
      </trkpt>
      <trkpt lat="48.720222" lon="23.847741">
        <ele>1166.761509529897</ele>
      </trkpt>
      <trkpt lat="48.720618" lon="23.848299">
        <ele>1164.8576172592757</ele>
      </trkpt>
      <trkpt lat="48.720958" lon="23.84905">
        <ele>1177.6724790569533</ele>
      </trkpt>
      <trkpt lat="48.721963" lon="23.849866">
        <ele>1196.7898576065877</ele>
      </trkpt>
      <trkpt lat="48.722289" lon="23.85038">
        <ele>1202.3757575303316</ele>
      </trkpt>
      <trkpt lat="48.723053" lon="23.851132">
        <ele>1215.7451623806064</ele>
      </trkpt>
      <trkpt lat="48.723719" lon="23.851089">
        <ele>1220.191673293477</ele>
      </trkpt>
      <trkpt lat="48.724582" lon="23.851453">
        <ele>1227.293008838962</ele>
      </trkpt>
      <trkpt lat="48.726111" lon="23.85038">
        <ele>1216.8043094904478</ele>
      </trkpt>
      <trkpt lat="48.727739" lon="23.849951">
        <ele>1243.000046988932</ele>
      </trkpt>
      <trkpt lat="48.72846" lon="23.850359">
        <ele>1263.4102796836469</ele>
      </trkpt>
      <trkpt lat="48.729182" lon="23.850187">
        <ele>1290.5617138962261</ele>
      </trkpt>
      <trkpt lat="48.730173" lon="23.851389">
        <ele>1333.3640704723005</ele>
      </trkpt>
      <trkpt lat="48.732551" lon="23.852419">
        <ele>1385.665684881973</ele>
      </trkpt>
      <trkpt lat="48.73299" lon="23.852376">
        <ele>1397.2574467100587</ele>
      </trkpt>
      <trkpt lat="48.733485" lon="23.852591">
        <ele>1412.8275871712458</ele>
      </trkpt>
      <trkpt lat="48.734348" lon="23.852676">
        <ele>1435.4900108900024</ele>
      </trkpt>
      <trkpt lat="48.735027" lon="23.853427">
        <ele>1450.2848949628683</ele>
      </trkpt>
      <trkpt lat="48.735933" lon="23.853685">
        <ele>1486.2215837054423</ele>
      </trkpt>
      <trkpt lat="48.736995" lon="23.854608">
        <ele>1510.9146597645408</ele>
      </trkpt>
      <trkpt lat="48.738367" lon="23.856539">
        <ele>1536.7196486440953</ele>
      </trkpt>
      <trkpt lat="48.73899" lon="23.857075">
        <ele>1552.4361905599944</ele>
      </trkpt>
      <trkpt lat="48.739216" lon="23.85759">
        <ele>1561.1480358766592</ele>
      </trkpt>
      <trkpt lat="48.739471" lon="23.85759">
        <ele>1566.2205438687893</ele>
      </trkpt>
      <trkpt lat="48.739881" lon="23.858513">
        <ele>1578.8826908470592</ele>
      </trkpt>
      <trkpt lat="48.741438" lon="23.858384">
        <ele>1567.4939255399295</ele>
      </trkpt>
      <trkpt lat="48.742627" lon="23.85817">
        <ele>1523.2479234572672</ele>
      </trkpt>
      <trkpt lat="48.744412" lon="23.857397">
        <ele>1481.5447521448232</ele>
      </trkpt>
      <trkpt lat="48.744992" lon="23.856775">
        <ele>1471.6149878997792</ele>
      </trkpt>
      <trkpt lat="48.745544" lon="23.856925">
        <ele>1466.4051412268484</ele>
      </trkpt>
      <trkpt lat="48.746534" lon="23.855831">
        <ele>1460.2634902863733</ele>
      </trkpt>
      <trkpt lat="48.747227" lon="23.854114">
        <ele>1468.675386512346</ele>
      </trkpt>
      <trkpt lat="48.748048" lon="23.852891">
        <ele>1467.8356585105187</ele>
      </trkpt>
      <trkpt lat="48.748586" lon="23.851968">
        <ele>1466.8715076326132</ele>
      </trkpt>
      <trkpt lat="48.748727" lon="23.851818">
        <ele>1465.870495165051</ele>
      </trkpt>
      <trkpt lat="48.748784" lon="23.851346">
        <ele>1465.0402247077138</ele>
      </trkpt>
      <trkpt lat="48.749166" lon="23.850788">
        <ele>1457.4896417913733</ele>
      </trkpt>
      <trkpt lat="48.749491" lon="23.85081">
        <ele>1446.8253129298098</ele>
      </trkpt>
      <trkpt lat="48.749703" lon="23.851089">
        <ele>1437.1984431843737</ele>
      </trkpt>
      <trkpt lat="48.750043" lon="23.851153">
        <ele>1424.0519165785824</ele>
      </trkpt>
      <trkpt lat="48.750411" lon="23.851067">
        <ele>1414.420204412192</ele>
      </trkpt>
      <trkpt lat="48.751132" lon="23.851239">
        <ele>1399.361072526779</ele>
      </trkpt>
      <trkpt lat="48.751797" lon="23.851132">
        <ele>1388.9780056569296</ele>
      </trkpt>
      <trkpt lat="48.753297" lon="23.850445">
        <ele>1356.595426999731</ele>
      </trkpt>
      <trkpt lat="48.754655" lon="23.850187">
        <ele>1332.1956339818425</ele>
      </trkpt>
      <trkpt lat="48.755263" lon="23.850745">
        <ele>1310.7614184657475</ele>
      </trkpt>
      <trkpt lat="48.755631" lon="23.850702">
        <ele>1298.5425241336602</ele>
      </trkpt>
      <trkpt lat="48.756126" lon="23.85096">
        <ele>1280.7779336443912</ele>
      </trkpt>
      <trkpt lat="48.757512" lon="23.850316">
        <ele>1238.8489182332996</ele>
      </trkpt>
      <trkpt lat="48.757894" lon="23.850488">
        <ele>1229.261489122524</ele>
      </trkpt>
      <trkpt lat="48.758191" lon="23.849479">
        <ele>1219.2898411430722</ele>
      </trkpt>
      <trkpt lat="48.758743" lon="23.848964">
        <ele>1209.4292110784445</ele>
      </trkpt>
      <trkpt lat="48.760624" lon="23.845274">
        <ele>1168.0295010424747</ele>
      </trkpt>
      <trkpt lat="48.761572" lon="23.844008">
        <ele>1175.8631058428437</ele>
      </trkpt>
      <trkpt lat="48.762121" lon="23.842207">
        <ele>1183.43813210174</ele>
      </trkpt>
      <trkpt lat="48.762177" lon="23.840791">
        <ele>1192.4478063805727</ele>
      </trkpt>
      <trkpt lat="48.761979" lon="23.83974">
        <ele>1197.6617164791446</ele>
      </trkpt>
      <trkpt lat="48.762234" lon="23.83783">
        <ele>1198.4426834540209</ele>
      </trkpt>
      <trkpt lat="48.762163" lon="23.836757">
        <ele>1212.4436352805737</ele>
      </trkpt>
      <trkpt lat="48.762418" lon="23.834676">
        <ele>1250.3915867482913</ele>
      </trkpt>
      <trkpt lat="48.763733" lon="23.832208">
        <ele>1305.6311399030965</ele>
      </trkpt>
      <trkpt lat="48.763705" lon="23.831693">
        <ele>1317.608415033319</ele>
      </trkpt>
      <trkpt lat="48.763974" lon="23.830491">
        <ele>1325.865575970965</ele>
      </trkpt>
      <trkpt lat="48.764907" lon="23.829075">
        <ele>1330.3347392637506</ele>
      </trkpt>
      <trkpt lat="48.767227" lon="23.824526">
        <ele>1324.845206669388</ele>
      </trkpt>
      <trkpt lat="48.768231" lon="23.822531">
        <ele>1348.7187253851425</ele>
      </trkpt>
      <trkpt lat="48.767934" lon="23.820986">
        <ele>1389.9124531911243</ele>
      </trkpt>
      <trkpt lat="48.768174" lon="23.820578">
        <ele>1406.1748145849187</ele>
      </trkpt>
      <trkpt lat="48.768797" lon="23.819955">
        <ele>1420.418413205572</ele>
      </trkpt>
      <trkpt lat="48.769999" lon="23.818839">
        <ele>1411.609340854061</ele>
      </trkpt>
      <trkpt lat="48.770777" lon="23.819139">
        <ele>1381.4121315615484</ele>
      </trkpt>
      <trkpt lat="48.772389" lon="23.817981">
        <ele>1349.757455295301</ele>
      </trkpt>
      <trkpt lat="48.772899" lon="23.816693">
        <ele>1341.5128341199006</ele>
      </trkpt>
      <trkpt lat="48.773295" lon="23.816071">
        <ele>1334.6234440883222</ele>
      </trkpt>
      <trkpt lat="48.77526" lon="23.812316">
        <ele>1302.9468035192997</ele>
      </trkpt>
      <trkpt lat="48.775812" lon="23.811179">
        <ele>1296.6529226117523</ele>
      </trkpt>
      <trkpt lat="48.77567" lon="23.810363">
        <ele>1287.3930190366227</ele>
      </trkpt>
      <trkpt lat="48.776307" lon="23.809634">
        <ele>1287.0451807764698</ele>
      </trkpt>
      <trkpt lat="48.776505" lon="23.808132">
        <ele>1291.6723895680382</ele>
      </trkpt>
      <trkpt lat="48.776575" lon="23.807145">
        <ele>1297.125531480714</ele>
      </trkpt>
      <trkpt lat="48.776349" lon="23.804763">
        <ele>1314.8630784131992</ele>
      </trkpt>
      <trkpt lat="48.777056" lon="23.802746">
        <ele>1291.7215477238178</ele>
      </trkpt>
      <trkpt lat="48.777155" lon="23.802123">
        <ele>1273.2859589144946</ele>
      </trkpt>
      <trkpt lat="48.778088" lon="23.801587">
        <ele>1246.937952724939</ele>
      </trkpt>
      <trkpt lat="48.779163" lon="23.8003">
        <ele>1205.5923168758954</ele>
      </trkpt>
      <trkpt lat="48.78086" lon="23.796201">
        <ele>1131.3793876323289</ele>
      </trkpt>
      <trkpt lat="48.781977" lon="23.793798">
        <ele>1089.9319186442326</ele>
      </trkpt>
      <trkpt lat="48.782867" lon="23.79118">
        <ele>1019.2107010429891</ele>
      </trkpt>
      <trkpt lat="48.782768" lon="23.790472">
        <ele>1005.0031907767345</ele>
      </trkpt>
      <trkpt lat="48.782076" lon="23.789893">
        <ele>990.6616166009335</ele>
      </trkpt>
      <trkpt lat="48.78151" lon="23.789785">
        <ele>986.1570608132831</ele>
      </trkpt>
      <trkpt lat="48.781086" lon="23.789356">
        <ele>973.2202158030124</ele>
      </trkpt>
      <trkpt lat="48.781312" lon="23.789335">
        <ele>973.6038044441957</ele>
      </trkpt>
      <trkpt lat="48.781326" lon="23.788927">
        <ele>961.1767647599918</ele>
      </trkpt>
      <trkpt lat="48.780775" lon="23.788262">
        <ele>938.8236499251798</ele>
      </trkpt>
      <trkpt lat="48.781411" lon="23.788004">
        <ele>929.4624868705553</ele>
      </trkpt>
      <trkpt lat="48.781114" lon="23.787403">
        <ele>909.3462127423263</ele>
      </trkpt>
      <trkpt lat="48.780421" lon="23.786996">
        <ele>892.4441918012456</ele>
      </trkpt>
      <trkpt lat="48.780747" lon="23.786567">
        <ele>879.7352392573703</ele>
      </trkpt>
      <trkpt lat="48.781722" lon="23.78412">
        <ele>834.8449043216267</ele>
      </trkpt>
      <trkpt lat="48.781849" lon="23.783112">
        <ele>820.6940557312976</ele>
      </trkpt>
      <trkpt lat="48.782146" lon="23.781352">
        <ele>811.6235411560256</ele>
      </trkpt>
      <trkpt lat="48.782203" lon="23.780194">
        <ele>798.1339443991893</ele>
      </trkpt>
      <trkpt lat="48.782358" lon="23.778756">
        <ele>783.4627159407305</ele>
      </trkpt>
      <trkpt lat="48.782175" lon="23.778756">
        <ele>772.6543372667045</ele>
      </trkpt>
      <trkpt lat="48.782175" lon="23.777919">
        <ele>764.5668444641581</ele>
      </trkpt>
      <trkpt lat="48.781906" lon="23.778284">
        <ele>757.751822945429</ele>
      </trkpt>
      <trkpt lat="48.781369" lon="23.777082">
        <ele>740.0355521925376</ele>
      </trkpt>
      <trkpt lat="48.78127" lon="23.775108">
        <ele>709.8368495200039</ele>
      </trkpt>
      <trkpt lat="48.781708" lon="23.774035">
        <ele>698.9004594911966</ele>
      </trkpt>
      <trkpt lat="48.782005" lon="23.77234">
        <ele>677.4037543488799</ele>
      </trkpt>
      <trkpt lat="48.782203" lon="23.771761">
        <ele>669.4897065358238</ele>
      </trkpt>
      <trkpt lat="48.781651" lon="23.770066">
        <ele>673.992169214132</ele>
      </trkpt>
    </trkseg>
  </trk>
</gpx>
