<?xml version="1.0" encoding="UTF-8"?>
<gpx version="1.1" creator="phpGPX/1.0RC5" schemaLocation="http://www.topografix.com/GPX/1/1 http://www.topografix.com/GPX/1/1/gpx.xsd http://www.garmin.com/xmlschemas/GpxExtensions/v3 http://www.garmin.com/xmlschemas/GpxExtensionsv3.xsd http://www.garmin.com/xmlschemas/TrackPointExtension/v1 http://www.garmin.com/xmlschemas/TrackPointExtensionv1.xsd http://www.garmin.com/xmlschemas/PowerExtension/v1 http://www.garmin.com/xmlschemas/PowerExtensionv1.xsd http://www.topografix.com/GPX/gpx_style/0/2 http://www.topografix.com/GPX/gpx_style/0/2/gpx_style.xsd" xmlns="http://www.topografix.com/GPX/1/1" xmlns:xsi="http://www.w3.org/2001/XMLSchema-instance" xsi:schemaLocation="http://www.topografix.com/GPX/1/1 http://www.topografix.com/GPX/1/1/gpx.xsd http://www.garmin.com/xmlschemas/GpxExtensions/v3 http://www.garmin.com/xmlschemas/GpxExtensionsv3.xsd http://www.garmin.com/xmlschemas/TrackPointExtension/v1 http://www.garmin.com/xmlschemas/TrackPointExtensionv1.xsd http://www.garmin.com/xmlschemas/PowerExtension/v1 http://www.garmin.com/xmlschemas/PowerExtensionv1.xsd http://www.topografix.com/GPX/gpx_style/0/2 http://www.topografix.com/GPX/gpx_style/0/2/gpx_style.xsd" xmlns:gpxtpx="http://www.garmin.com/xmlschemas/TrackPointExtension/v1" xmlns:gpxx="http://www.garmin.com/xmlschemas/GpxExtensions/v3" xmlns:gpxpx="http://www.garmin.com/xmlschemas/PowerExtension/v1" xmlns:gpx_style="http://www.topografix.com/GPX/gpx_style/0/2">
  <metadata>
    <name>Гора Ворохтянська з Ворохти</name>
    <author>
      <name>gpx.studio</name>
      <link href="https://gpx.studio"/>
    </author>
  </metadata>
  <trk>
    <name>Гора Ворохтянська з Ворохти</name>
    <trkseg>
      <trkpt lat="48.292914" lon="24.562352">
        <ele>748.5355854221852</ele>
      </trkpt>
      <trkpt lat="48.291201" lon="24.56115">
        <ele>750.4453051072196</ele>
      </trkpt>
      <trkpt lat="48.290001" lon="24.561665">
        <ele>749.7886740289648</ele>
      </trkpt>
      <trkpt lat="48.289116" lon="24.56321">
        <ele>761.4519684443949</ele>
      </trkpt>
      <trkpt lat="48.287888" lon="24.564712">
        <ele>766.0961845219597</ele>
      </trkpt>
      <trkpt lat="48.288602" lon="24.564412">
        <ele>775.1620742435709</ele>
      </trkpt>
      <trkpt lat="48.289145" lon="24.565184">
        <ele>783.8223048813798</ele>
      </trkpt>
      <trkpt lat="48.289316" lon="24.566944">
        <ele>795.2159157821443</ele>
      </trkpt>
      <trkpt lat="48.289802" lon="24.568317">
        <ele>808.2093159504002</ele>
      </trkpt>
      <trkpt lat="48.290801" lon="24.569132">
        <ele>811.8965615456891</ele>
      </trkpt>
      <trkpt lat="48.291315" lon="24.570591">
        <ele>824.0297245781915</ele>
      </trkpt>
      <trkpt lat="48.292172" lon="24.571578">
        <ele>831.3275063573383</ele>
      </trkpt>
      <trkpt lat="48.292771" lon="24.572608">
        <ele>839.2055413434282</ele>
      </trkpt>
      <trkpt lat="48.291857" lon="24.573724">
        <ele>860.4416521313833</ele>
      </trkpt>
      <trkpt lat="48.291229" lon="24.575012">
        <ele>886.9312331333058</ele>
      </trkpt>
      <trkpt lat="48.291115" lon="24.575956">
        <ele>906.6742171186211</ele>
      </trkpt>
      <trkpt lat="48.290844" lon="24.577651">
        <ele>933.6216170600965</ele>
      </trkpt>
      <trkpt lat="48.290744" lon="24.579689">
        <ele>932.3846581014244</ele>
      </trkpt>
      <trkpt lat="48.291115" lon="24.581492">
        <ele>928.0997450922898</ele>
      </trkpt>
      <trkpt lat="48.291629" lon="24.583423">
        <ele>933.4414749868447</ele>
      </trkpt>
      <trkpt lat="48.290915" lon="24.58677">
        <ele>971.2771591895726</ele>
      </trkpt>
      <trkpt lat="48.291296" lon="24.588187">
        <ele>982.1477438410614</ele>
      </trkpt>
      <trkpt lat="48.291724" lon="24.590633">
        <ele>974.5985033701872</ele>
      </trkpt>
      <trkpt lat="48.292438" lon="24.592006">
        <ele>1004.5240049467778</ele>
      </trkpt>
      <trkpt lat="48.293466" lon="24.593294">
        <ele>1033.274601981846</ele>
      </trkpt>
      <trkpt lat="48.295322" lon="24.595311">
        <ele>1102.9182693214213</ele>
      </trkpt>
      <trkpt lat="48.295836" lon="24.595997">
        <ele>1132.9984125398332</ele>
      </trkpt>
      <trkpt lat="48.29712" lon="24.596684">
        <ele>1189.2742853132972</ele>
      </trkpt>
      <trkpt lat="48.297977" lon="24.598615">
        <ele>1204.461890839275</ele>
      </trkpt>
      <trkpt lat="48.298898" lon="24.600967">
        <ele>1262.2995425401984</ele>
      </trkpt>
      <trkpt lat="48.29924" lon="24.602083">
        <ele>1276.5997694829193</ele>
      </trkpt>
      <trkpt lat="48.299069" lon="24.603328">
        <ele>1275.3860420801213</ele>
      </trkpt>
      <trkpt lat="48.296871" lon="24.606718">
        <ele>1296.8110463409685</ele>
      </trkpt>
      <trkpt lat="48.296585" lon="24.608649">
        <ele>1285.4955489808444</ele>
      </trkpt>
      <trkpt lat="48.295872" lon="24.610452">
        <ele>1278.2045057087637</ele>
      </trkpt>
      <trkpt lat="48.295101" lon="24.611224">
        <ele>1288.9726219611273</ele>
      </trkpt>
      <trkpt lat="48.294729" lon="24.613027">
        <ele>1289.3148972374831</ele>
      </trkpt>
      <trkpt lat="48.294986" lon="24.613971">
        <ele>1264.032158114148</ele>
      </trkpt>
      <trkpt lat="48.294387" lon="24.616503">
        <ele>1260.175337191114</ele>
      </trkpt>
      <trkpt lat="48.293188" lon="24.619121">
        <ele>1216.614270496537</ele>
      </trkpt>
      <trkpt lat="48.291332" lon="24.62058">
        <ele>1249.9419135051164</ele>
      </trkpt>
      <trkpt lat="48.290561" lon="24.621438">
        <ele>1262.2526163202133</ele>
      </trkpt>
      <trkpt lat="48.28919" lon="24.621653">
        <ele>1252.2933548878987</ele>
      </trkpt>
      <trkpt lat="48.288505" lon="24.622039">
        <ele>1220.774033085534</ele>
      </trkpt>
      <trkpt lat="48.287306" lon="24.623026">
        <ele>1206.8049916892182</ele>
      </trkpt>
      <trkpt lat="48.287059" lon="24.623539">
        <ele>1220.635972571197</ele>
      </trkpt>
      <trkpt lat="48.28621" lon="24.624129">
        <ele>1235.6484003794612</ele>
      </trkpt>
      <trkpt lat="48.28546" lon="24.624161">
        <ele>1261.420502956535</ele>
      </trkpt>
      <trkpt lat="48.284989" lon="24.623829">
        <ele>1272.330868889112</ele>
      </trkpt>
      <trkpt lat="48.284575" lon="24.623807">
        <ele>1281.933058756578</ele>
      </trkpt>
      <trkpt lat="48.284207" lon="24.624404">
        <ele>1293.1005411557853</ele>
      </trkpt>
      <trkpt lat="48.28385" lon="24.625198">
        <ele>1297.8243441777304</ele>
      </trkpt>
      <trkpt lat="48.283222" lon="24.625884">
        <ele>1293.7421567998827</ele>
      </trkpt>
      <trkpt lat="48.283051" lon="24.626378">
        <ele>1291.22030234522</ele>
      </trkpt>
      <trkpt lat="48.283222" lon="24.626635">
        <ele>1281.3128497777507</ele>
      </trkpt>
      <trkpt lat="48.283408" lon="24.6267">
        <ele>1276.7404701116054</ele>
      </trkpt>
      <trkpt lat="48.283493" lon="24.626979">
        <ele>1265.8403716030973</ele>
      </trkpt>
      <trkpt lat="48.283236" lon="24.627751">
        <ele>1251.2602062218357</ele>
      </trkpt>
      <trkpt lat="48.282579" lon="24.628609">
        <ele>1244.6898985765108</ele>
      </trkpt>
      <trkpt lat="48.281851" lon="24.629639">
        <ele>1226.456871677372</ele>
      </trkpt>
      <trkpt lat="48.281137" lon="24.630712">
        <ele>1215.3540851597218</ele>
      </trkpt>
      <trkpt lat="48.280666" lon="24.631871">
        <ele>1200.9977232313347</ele>
      </trkpt>
      <trkpt lat="48.280196" lon="24.633096">
        <ele>1201.8862288841067</ele>
      </trkpt>
      <trkpt lat="48.279967" lon="24.633954">
        <ele>1189.6042142329388</ele>
      </trkpt>
      <trkpt lat="48.279539" lon="24.634791">
        <ele>1172.6472839490025</ele>
      </trkpt>
      <trkpt lat="48.278368" lon="24.635735">
        <ele>1173.7119194789557</ele>
      </trkpt>
      <trkpt lat="48.278068" lon="24.636379">
        <ele>1165.6865375286643</ele>
      </trkpt>
      <trkpt lat="48.277154" lon="24.637173">
        <ele>1198.699020302691</ele>
      </trkpt>
      <trkpt lat="48.275669" lon="24.637731">
        <ele>1208.095384545372</ele>
      </trkpt>
      <trkpt lat="48.274684" lon="24.638753">
        <ele>1221.8513519170228</ele>
      </trkpt>
      <trkpt lat="48.273855" lon="24.639826">
        <ele>1238.2130203164415</ele>
      </trkpt>
      <trkpt lat="48.273027" lon="24.640941">
        <ele>1246.848498770606</ele>
      </trkpt>
      <trkpt lat="48.272541" lon="24.641456">
        <ele>1248.1295517182007</ele>
      </trkpt>
      <trkpt lat="48.27187" lon="24.642014">
        <ele>1254.9326206506664</ele>
      </trkpt>
      <trkpt lat="48.271284" lon="24.642336">
        <ele>1260.1242020184004</ele>
      </trkpt>
      <trkpt lat="48.271187" lon="24.64243">
        <ele>1258.1550919256622</ele>
      </trkpt>
      <trkpt lat="48.274314" lon="24.635735">
        <ele>1281.3211716879432</ele>
      </trkpt>
      <trkpt lat="48.274557" lon="24.63374">
        <ele>1271.9061999290857</ele>
      </trkpt>
      <trkpt lat="48.275857" lon="24.630693">
        <ele>1234.2708931776424</ele>
      </trkpt>
      <trkpt lat="48.275742" lon="24.62977">
        <ele>1226.2509713173235</ele>
      </trkpt>
      <trkpt lat="48.275928" lon="24.628676">
        <ele>1218.4765953762421</ele>
      </trkpt>
      <trkpt lat="48.276599" lon="24.627216">
        <ele>1200.6024153725011</ele>
      </trkpt>
      <trkpt lat="48.277185" lon="24.6258">
        <ele>1178.048770919675</ele>
      </trkpt>
      <trkpt lat="48.277456" lon="24.62492">
        <ele>1164.6718299043132</ele>
      </trkpt>
      <trkpt lat="48.277513" lon="24.623976">
        <ele>1149.5103175608147</ele>
      </trkpt>
      <trkpt lat="48.277228" lon="24.623783">
        <ele>1146.8765617106028</ele>
      </trkpt>
      <trkpt lat="48.277013" lon="24.623976">
        <ele>1144.3082962531282</ele>
      </trkpt>
      <trkpt lat="48.276485" lon="24.624749">
        <ele>1135.7318232598973</ele>
      </trkpt>
      <trkpt lat="48.276257" lon="24.625199">
        <ele>1138.857565547456</ele>
      </trkpt>
      <trkpt lat="48.275385" lon="24.625457">
        <ele>1138.8955406225286</ele>
      </trkpt>
      <trkpt lat="48.274771" lon="24.625285">
        <ele>1130.0541028280359</ele>
      </trkpt>
      <trkpt lat="48.274157" lon="24.625049">
        <ele>1119.107356225259</ele>
      </trkpt>
      <trkpt lat="48.2735" lon="24.624963">
        <ele>1111.7686599083245</ele>
      </trkpt>
      <trkpt lat="48.2732" lon="24.624877">
        <ele>1106.7929251121375</ele>
      </trkpt>
      <trkpt lat="48.272986" lon="24.624491">
        <ele>1104.2176866770253</ele>
      </trkpt>
      <trkpt lat="48.272558" lon="24.623783">
        <ele>1109.157228767348</ele>
      </trkpt>
      <trkpt lat="48.272086" lon="24.622989">
        <ele>1100.6058211765142</ele>
      </trkpt>
      <trkpt lat="48.272001" lon="24.622131">
        <ele>1088.2782095107177</ele>
      </trkpt>
      <trkpt lat="48.271358" lon="24.622002">
        <ele>1078.3408325613739</ele>
      </trkpt>
      <trkpt lat="48.270858" lon="24.621637">
        <ele>1069.2544456964888</ele>
      </trkpt>
      <trkpt lat="48.27073" lon="24.62065">
        <ele>1066.337357736349</ele>
      </trkpt>
      <trkpt lat="48.270787" lon="24.619749">
        <ele>1066.5486951966304</ele>
      </trkpt>
      <trkpt lat="48.271686" lon="24.617153">
        <ele>1059.097825547913</ele>
      </trkpt>
      <trkpt lat="48.271744" lon="24.616252">
        <ele>1054.0131306422895</ele>
      </trkpt>
      <trkpt lat="48.272372" lon="24.614256">
        <ele>1030.3681951074395</ele>
      </trkpt>
      <trkpt lat="48.272772" lon="24.611767">
        <ele>1012.5754284352297</ele>
      </trkpt>
      <trkpt lat="48.272515" lon="24.609643">
        <ele>1003.5684184560087</ele>
      </trkpt>
      <trkpt lat="48.272129" lon="24.608849">
        <ele>1000.8483548099175</ele>
      </trkpt>
      <trkpt lat="48.272058" lon="24.607969">
        <ele>1007.9313497476978</ele>
      </trkpt>
      <trkpt lat="48.272272" lon="24.606038">
        <ele>1011.2772056311478</ele>
      </trkpt>
      <trkpt lat="48.273015" lon="24.604321">
        <ele>1005.3875132143872</ele>
      </trkpt>
      <trkpt lat="48.2742" lon="24.601467">
        <ele>989.0735905076726</ele>
      </trkpt>
      <trkpt lat="48.276371" lon="24.599386">
        <ele>960.9580819043822</ele>
      </trkpt>
      <trkpt lat="48.276856" lon="24.598356">
        <ele>964.4847348204278</ele>
      </trkpt>
      <trkpt lat="48.277456" lon="24.597776">
        <ele>969.2223248445256</ele>
      </trkpt>
      <trkpt lat="48.278656" lon="24.595824">
        <ele>953.223662328189</ele>
      </trkpt>
      <trkpt lat="48.279413" lon="24.594086">
        <ele>950.9958501273068</ele>
      </trkpt>
      <trkpt lat="48.279513" lon="24.59327">
        <ele>949.1670260981258</ele>
      </trkpt>
      <trkpt lat="48.280112" lon="24.591854">
        <ele>944.813476776937</ele>
      </trkpt>
      <trkpt lat="48.280769" lon="24.589751">
        <ele>917.4533493402166</ele>
      </trkpt>
      <trkpt lat="48.28114" lon="24.588013">
        <ele>905.8941385220969</ele>
      </trkpt>
      <trkpt lat="48.281818" lon="24.585989">
        <ele>885.4933355641698</ele>
      </trkpt>
      <trkpt lat="48.282204" lon="24.585195">
        <ele>886.1950619584239</ele>
      </trkpt>
      <trkpt lat="48.282175" lon="24.584294">
        <ele>878.9993973079836</ele>
      </trkpt>
      <trkpt lat="48.283489" lon="24.581418">
        <ele>859.9474514816002</ele>
      </trkpt>
      <trkpt lat="48.284045" lon="24.580624">
        <ele>859.1383905554235</ele>
      </trkpt>
      <trkpt lat="48.284788" lon="24.576891">
        <ele>822.8709300165998</ele>
      </trkpt>
      <trkpt lat="48.284859" lon="24.575303">
        <ele>804.2758867919911</ele>
      </trkpt>
      <trkpt lat="48.284517" lon="24.573179">
        <ele>784.939972761902</ele>
      </trkpt>
      <trkpt lat="48.28416" lon="24.569381">
        <ele>761.5180636444129</ele>
      </trkpt>
    </trkseg>
  </trk>
</gpx>
