<?xml version="1.0" encoding="UTF-8"?>
<gpx version="1.1" creator="phpGPX/1.0RC5" schemaLocation="http://www.topografix.com/GPX/1/1 http://www.topografix.com/GPX/1/1/gpx.xsd http://www.garmin.com/xmlschemas/GpxExtensions/v3 http://www.garmin.com/xmlschemas/GpxExtensionsv3.xsd http://www.garmin.com/xmlschemas/TrackPointExtension/v1 http://www.garmin.com/xmlschemas/TrackPointExtensionv1.xsd http://www.garmin.com/xmlschemas/PowerExtension/v1 http://www.garmin.com/xmlschemas/PowerExtensionv1.xsd http://www.topografix.com/GPX/gpx_style/0/2 http://www.topografix.com/GPX/gpx_style/0/2/gpx_style.xsd" xmlns="http://www.topografix.com/GPX/1/1" xmlns:xsi="http://www.w3.org/2001/XMLSchema-instance" xsi:schemaLocation="http://www.topografix.com/GPX/1/1 http://www.topografix.com/GPX/1/1/gpx.xsd http://www.garmin.com/xmlschemas/GpxExtensions/v3 http://www.garmin.com/xmlschemas/GpxExtensionsv3.xsd http://www.garmin.com/xmlschemas/TrackPointExtension/v1 http://www.garmin.com/xmlschemas/TrackPointExtensionv1.xsd http://www.garmin.com/xmlschemas/PowerExtension/v1 http://www.garmin.com/xmlschemas/PowerExtensionv1.xsd http://www.topografix.com/GPX/gpx_style/0/2 http://www.topografix.com/GPX/gpx_style/0/2/gpx_style.xsd" xmlns:gpxtpx="http://www.garmin.com/xmlschemas/TrackPointExtension/v1" xmlns:gpxx="http://www.garmin.com/xmlschemas/GpxExtensions/v3" xmlns:gpxpx="http://www.garmin.com/xmlschemas/PowerExtension/v1" xmlns:gpx_style="http://www.topografix.com/GPX/gpx_style/0/2">
  <metadata>
    <name>Гора Дарвайка  з Колочави</name>
    <author>
      <name>gpx.studio</name>
      <link href="https://gpx.studio"/>
    </author>
  </metadata>
  <trk>
    <name>Гора Дарвайка  з Колочави</name>
    <trkseg>
      <trkpt lat="48.425883" lon="23.700468">
        <ele>558.6019600325855</ele>
      </trkpt>
      <trkpt lat="48.426339" lon="23.701154">
        <ele>569.5136744454503</ele>
      </trkpt>
      <trkpt lat="48.426581" lon="23.702098">
        <ele>579.3728430257179</ele>
      </trkpt>
      <trkpt lat="48.42688" lon="23.703922">
        <ele>582.6495094587752</ele>
      </trkpt>
      <trkpt lat="48.428617" lon="23.707956">
        <ele>590.6601387773298</ele>
      </trkpt>
      <trkpt lat="48.42883" lon="23.708364">
        <ele>592.7047729101581</ele>
      </trkpt>
      <trkpt lat="48.429201" lon="23.708192">
        <ele>593.6069050374574</ele>
      </trkpt>
      <trkpt lat="48.431151" lon="23.711647">
        <ele>600.3693988936769</ele>
      </trkpt>
      <trkpt lat="48.431558" lon="23.712226">
        <ele>603.5388740704689</ele>
      </trkpt>
      <trkpt lat="48.4318" lon="23.713106">
        <ele>605.0891323504038</ele>
      </trkpt>
      <trkpt lat="48.431943" lon="23.714093">
        <ele>607.3407874658005</ele>
      </trkpt>
      <trkpt lat="48.432484" lon="23.714651">
        <ele>612.3284633876029</ele>
      </trkpt>
      <trkpt lat="48.432953" lon="23.715166">
        <ele>620.3447609610739</ele>
      </trkpt>
      <trkpt lat="48.433537" lon="23.715316">
        <ele>630.8525413062889</ele>
      </trkpt>
      <trkpt lat="48.433808" lon="23.714308">
        <ele>644.0486213611626</ele>
      </trkpt>
      <trkpt lat="48.434192" lon="23.714801">
        <ele>654.7053179255233</ele>
      </trkpt>
      <trkpt lat="48.43469" lon="23.715273">
        <ele>671.4711652575907</ele>
      </trkpt>
      <trkpt lat="48.435288" lon="23.715488">
        <ele>686.40032931522</ele>
      </trkpt>
      <trkpt lat="48.435889" lon="23.715804">
        <ele>694.7885215528581</ele>
      </trkpt>
      <trkpt lat="48.436444" lon="23.716405">
        <ele>709.4164135437411</ele>
      </trkpt>
      <trkpt lat="48.436985" lon="23.717006">
        <ele>713.4718296738965</ele>
      </trkpt>
      <trkpt lat="48.437142" lon="23.717392">
        <ele>718.1600774191027</ele>
      </trkpt>
      <trkpt lat="48.437284" lon="23.718701">
        <ele>729.1404223955469</ele>
      </trkpt>
      <trkpt lat="48.437953" lon="23.719624">
        <ele>734.7288903876546</ele>
      </trkpt>
      <trkpt lat="48.438793" lon="23.719731">
        <ele>735.4476534052691</ele>
      </trkpt>
      <trkpt lat="48.44006" lon="23.72104">
        <ele>736.071386443787</ele>
      </trkpt>
      <trkpt lat="48.441284" lon="23.72134">
        <ele>744.2816062534694</ele>
      </trkpt>
      <trkpt lat="48.442704" lon="23.72089">
        <ele>764.8052739320476</ele>
      </trkpt>
      <trkpt lat="48.444426" lon="23.721984">
        <ele>809.843970712385</ele>
      </trkpt>
      <trkpt lat="48.445266" lon="23.722156">
        <ele>819.4714040218355</ele>
      </trkpt>
      <trkpt lat="48.445992" lon="23.721941">
        <ele>830.5706254256071</ele>
      </trkpt>
      <trkpt lat="48.447202" lon="23.72237">
        <ele>854.9106808889192</ele>
      </trkpt>
      <trkpt lat="48.447899" lon="23.723979">
        <ele>849.5931882823743</ele>
      </trkpt>
      <trkpt lat="48.448497" lon="23.724752">
        <ele>855.1212009579906</ele>
      </trkpt>
      <trkpt lat="48.449084" lon="23.727246">
        <ele>866.1870727549516</ele>
      </trkpt>
      <trkpt lat="48.449383" lon="23.728684">
        <ele>876.8633031209706</ele>
      </trkpt>
      <trkpt lat="48.450137" lon="23.729371">
        <ele>902.7387063965637</ele>
      </trkpt>
      <trkpt lat="48.450877" lon="23.729564">
        <ele>921.3390147432775</ele>
      </trkpt>
      <trkpt lat="48.450707" lon="23.730915">
        <ele>950.0292607737093</ele>
      </trkpt>
      <trkpt lat="48.451006" lon="23.731967">
        <ele>976.741843977361</ele>
      </trkpt>
      <trkpt lat="48.451575" lon="23.732696">
        <ele>992.72663450817</ele>
      </trkpt>
      <trkpt lat="48.451532" lon="23.734284">
        <ele>1009.3196454137104</ele>
      </trkpt>
      <trkpt lat="48.451931" lon="23.736065">
        <ele>1003.7603253256611</ele>
      </trkpt>
      <trkpt lat="48.452756" lon="23.737524">
        <ele>1021.6687217631259</ele>
      </trkpt>
      <trkpt lat="48.454041" lon="23.737812">
        <ele>1026.0636727134117</ele>
      </trkpt>
      <trkpt lat="48.455792" lon="23.738498">
        <ele>1063.9422216976527</ele>
      </trkpt>
      <trkpt lat="48.456503" lon="23.738112">
        <ele>1093.0870665665716</ele>
      </trkpt>
      <trkpt lat="48.456646" lon="23.738692">
        <ele>1098.5939358004835</ele>
      </trkpt>
      <trkpt lat="48.458154" lon="23.738477">
        <ele>1136.413828655146</ele>
      </trkpt>
      <trkpt lat="48.458965" lon="23.738069">
        <ele>1154.9258957034908</ele>
      </trkpt>
      <trkpt lat="48.459022" lon="23.73852">
        <ele>1166.2673347219825</ele>
      </trkpt>
      <trkpt lat="48.459847" lon="23.741116">
        <ele>1232.6426959057887</ele>
      </trkpt>
      <trkpt lat="48.460992" lon="23.742376">
        <ele>1265.6683505360998</ele>
      </trkpt>
      <trkpt lat="48.462024" lon="23.743063">
        <ele>1315.9967158519166</ele>
      </trkpt>
      <trkpt lat="48.462714" lon="23.744157">
        <ele>1358.897325816994</ele>
      </trkpt>
      <trkpt lat="48.462927" lon="23.74567">
        <ele>1389.859057088117</ele>
      </trkpt>
      <trkpt lat="48.463753" lon="23.74802">
        <ele>1404.0421363578128</ele>
      </trkpt>
      <trkpt lat="48.464066" lon="23.748803">
        <ele>1425.5029855906032</ele>
      </trkpt>
      <trkpt lat="48.464436" lon="23.751603">
        <ele>1458.8075433586075</ele>
      </trkpt>
      <trkpt lat="48.465282" lon="23.753502">
        <ele>1492.566638273054</ele>
      </trkpt>
      <trkpt lat="48.465787" lon="23.754586">
        <ele>1498.0146214602537</ele>
      </trkpt>
      <trkpt lat="48.466307" lon="23.755165">
        <ele>1486.3771838695764</ele>
      </trkpt>
      <trkpt lat="48.467018" lon="23.756088">
        <ele>1475.663698945542</ele>
      </trkpt>
      <trkpt lat="48.467993" lon="23.756979">
        <ele>1480.2867572117943</ele>
      </trkpt>
      <trkpt lat="48.468647" lon="23.758266">
        <ele>1474.696043399605</ele>
      </trkpt>
      <trkpt lat="48.469493" lon="23.759521">
        <ele>1474.4539733562076</ele>
      </trkpt>
      <trkpt lat="48.469956" lon="23.76039">
        <ele>1471.9896204781253</ele>
      </trkpt>
      <trkpt lat="48.470127" lon="23.760476">
        <ele>1471.7489511587344</ele>
      </trkpt>
      <trkpt lat="48.470674" lon="23.760208">
        <ele>1468.2384847967187</ele>
      </trkpt>
      <trkpt lat="48.471715" lon="23.760797">
        <ele>1472.9859575743112</ele>
      </trkpt>
      <trkpt lat="48.472128" lon="23.760786">
        <ele>1474.913157925783</ele>
      </trkpt>
      <trkpt lat="48.474076" lon="23.762986">
        <ele>1473.2951017203948</ele>
      </trkpt>
      <trkpt lat="48.47498" lon="23.763544">
        <ele>1484.4591426114907</ele>
      </trkpt>
      <trkpt lat="48.475282" lon="23.764107">
        <ele>1484.7000647384798</ele>
      </trkpt>
      <trkpt lat="48.477985" lon="23.767046">
        <ele>1555.336259629627</ele>
      </trkpt>
      <trkpt lat="48.478369" lon="23.767669">
        <ele>1557.488483866364</ele>
      </trkpt>
      <trkpt lat="48.478668" lon="23.771177">
        <ele>1487.1040387788294</ele>
      </trkpt>
      <trkpt lat="48.478476" lon="23.773383">
        <ele>1466.0191232003272</ele>
      </trkpt>
      <trkpt lat="48.478284" lon="23.773716">
        <ele>1457.3647369306461</ele>
      </trkpt>
      <trkpt lat="48.478077" lon="23.773716">
        <ele>1452.2427491568883</ele>
      </trkpt>
      <trkpt lat="48.477544" lon="23.772643">
        <ele>1437.25609340542</ele>
      </trkpt>
      <trkpt lat="48.477594" lon="23.773115">
        <ele>1437.6826606914983</ele>
      </trkpt>
      <trkpt lat="48.477416" lon="23.772331">
        <ele>1429.5261429348611</ele>
      </trkpt>
      <trkpt lat="48.477238" lon="23.771516">
        <ele>1419.982922379626</ele>
      </trkpt>
      <trkpt lat="48.476947" lon="23.771302">
        <ele>1412.3476390018723</ele>
      </trkpt>
      <trkpt lat="48.47674" lon="23.771344">
        <ele>1404.341230155786</ele>
      </trkpt>
      <trkpt lat="48.476897" lon="23.771505">
        <ele>1405.57344962377</ele>
      </trkpt>
      <trkpt lat="48.476932" lon="23.772171">
        <ele>1405.4157191901695</ele>
      </trkpt>
      <trkpt lat="48.476463" lon="23.772696">
        <ele>1382.2208754743915</ele>
      </trkpt>
      <trkpt lat="48.47642" lon="23.77363">
        <ele>1376.6978642824108</ele>
      </trkpt>
      <trkpt lat="48.476122" lon="23.775539">
        <ele>1357.7235946421279</ele>
      </trkpt>
      <trkpt lat="48.475631" lon="23.776569">
        <ele>1343.7605952041035</ele>
      </trkpt>
      <trkpt lat="48.474538" lon="23.776881">
        <ele>1317.6771272447156</ele>
      </trkpt>
      <trkpt lat="48.474908" lon="23.7751">
        <ele>1309.2490324658534</ele>
      </trkpt>
      <trkpt lat="48.474794" lon="23.772858">
        <ele>1305.0194120409437</ele>
      </trkpt>
      <trkpt lat="48.474018" lon="23.772332">
        <ele>1304.0160993884924</ele>
      </trkpt>
      <trkpt lat="48.473243" lon="23.76995">
        <ele>1297.988470213837</ele>
      </trkpt>
      <trkpt lat="48.472759" lon="23.769436">
        <ele>1293.8590206195213</ele>
      </trkpt>
      <trkpt lat="48.473087" lon="23.77098">
        <ele>1275.0664616014997</ele>
      </trkpt>
      <trkpt lat="48.472873" lon="23.772847">
        <ele>1253.7086386226001</ele>
      </trkpt>
      <trkpt lat="48.472518" lon="23.772322">
        <ele>1244.835140629264</ele>
      </trkpt>
      <trkpt lat="48.472375" lon="23.773105">
        <ele>1233.151847504836</ele>
      </trkpt>
      <trkpt lat="48.472902" lon="23.773985">
        <ele>1234.867697435906</ele>
      </trkpt>
      <trkpt lat="48.47069" lon="23.777203">
        <ele>1183.5534280684278</ele>
      </trkpt>
      <trkpt lat="48.469928" lon="23.774886">
        <ele>1141.1846016448164</ele>
      </trkpt>
      <trkpt lat="48.469061" lon="23.775712">
        <ele>1122.487932965586</ele>
      </trkpt>
      <trkpt lat="48.465667" lon="23.77671">
        <ele>1024.0438095198479</ele>
      </trkpt>
      <trkpt lat="48.465255" lon="23.775884">
        <ele>999.4797272024442</ele>
      </trkpt>
      <trkpt lat="48.463768" lon="23.777601">
        <ele>944.1245386432217</ele>
      </trkpt>
      <trkpt lat="48.462296" lon="23.778406">
        <ele>898.6186658390798</ele>
      </trkpt>
      <trkpt lat="48.462737" lon="23.776153">
        <ele>867.8189081696164</ele>
      </trkpt>
      <trkpt lat="48.460493" lon="23.777714">
        <ele>810.6796089199237</ele>
      </trkpt>
      <trkpt lat="48.457961" lon="23.7809">
        <ele>746.1645416742989</ele>
      </trkpt>
      <trkpt lat="48.456333" lon="23.775017">
        <ele>741.7269939737527</ele>
      </trkpt>
      <trkpt lat="48.455679" lon="23.774759">
        <ele>731.5020516507449</ele>
      </trkpt>
      <trkpt lat="48.45422" lon="23.772109">
        <ele>739.8925052330542</ele>
      </trkpt>
      <trkpt lat="48.453167" lon="23.771466">
        <ele>717.9904428305454</ele>
      </trkpt>
      <trkpt lat="48.452406" lon="23.769481">
        <ele>707.7707073789646</ele>
      </trkpt>
      <trkpt lat="48.451338" lon="23.766927">
        <ele>694.4938552170418</ele>
      </trkpt>
      <trkpt lat="48.45136" lon="23.765425">
        <ele>703.5888598938748</ele>
      </trkpt>
      <trkpt lat="48.450584" lon="23.764631">
        <ele>690.6618755841963</ele>
      </trkpt>
      <trkpt lat="48.449958" lon="23.764524">
        <ele>691.7555183937876</ele>
      </trkpt>
      <trkpt lat="48.449652" lon="23.764331">
        <ele>695.7967412209456</ele>
      </trkpt>
      <trkpt lat="48.449395" lon="23.763065">
        <ele>680.5092282366024</ele>
      </trkpt>
      <trkpt lat="48.447191" lon="23.758797">
        <ele>662.5130737710565</ele>
      </trkpt>
      <trkpt lat="48.4466" lon="23.757005">
        <ele>666.3433412350571</ele>
      </trkpt>
      <trkpt lat="48.44596" lon="23.75648">
        <ele>663.5403417155086</ele>
      </trkpt>
      <trkpt lat="48.445433" lon="23.755235">
        <ele>657.4832204769581</ele>
      </trkpt>
      <trkpt lat="48.444667" lon="23.754986">
        <ele>663.659612714199</ele>
      </trkpt>
      <trkpt lat="48.444247" lon="23.75416">
        <ele>650.0325967917278</ele>
      </trkpt>
      <trkpt lat="48.443108" lon="23.75108">
        <ele>644.8548820645069</ele>
      </trkpt>
      <trkpt lat="48.442361" lon="23.750289">
        <ele>644.4968965945259</ele>
      </trkpt>
      <trkpt lat="48.441677" lon="23.750021">
        <ele>638.3043771458028</ele>
      </trkpt>
      <trkpt lat="48.441072" lon="23.750085">
        <ele>640.7601818867465</ele>
      </trkpt>
      <trkpt lat="48.440503" lon="23.749721">
        <ele>639.9726557995689</ele>
      </trkpt>
      <trkpt lat="48.440026" lon="23.749742">
        <ele>648.8499870542299</ele>
      </trkpt>
      <trkpt lat="48.439357" lon="23.747843">
        <ele>632.4065565760144</ele>
      </trkpt>
      <trkpt lat="48.438983" lon="23.747091">
        <ele>631.6569782960025</ele>
      </trkpt>
      <trkpt lat="48.438976" lon="23.745031">
        <ele>625.4146238563117</ele>
      </trkpt>
      <trkpt lat="48.438642" lon="23.743186">
        <ele>622.3590674237068</ele>
      </trkpt>
      <trkpt lat="48.437346" lon="23.74119">
        <ele>617.140553762708</ele>
      </trkpt>
      <trkpt lat="48.437321" lon="23.740298">
        <ele>618.6128425028874</ele>
      </trkpt>
      <trkpt lat="48.436901" lon="23.739354">
        <ele>616.9112098528121</ele>
      </trkpt>
      <trkpt lat="48.436467" lon="23.737326">
        <ele>612.8724059381639</ele>
      </trkpt>
      <trkpt lat="48.435905" lon="23.735856">
        <ele>609.1983983716348</ele>
      </trkpt>
      <trkpt lat="48.434633" lon="23.732405">
        <ele>604.5971581484322</ele>
      </trkpt>
      <trkpt lat="48.434298" lon="23.73174">
        <ele>602.3038391683759</ele>
      </trkpt>
      <trkpt lat="48.433302" lon="23.728425">
        <ele>596.5045130890212</ele>
      </trkpt>
      <trkpt lat="48.432123" lon="23.726289">
        <ele>593.7890898134258</ele>
      </trkpt>
      <trkpt lat="48.431504" lon="23.724658">
        <ele>591.4782628626475</ele>
      </trkpt>
      <trkpt lat="48.431183" lon="23.723961">
        <ele>587.904698803788</ele>
      </trkpt>
      <trkpt lat="48.431155" lon="23.72247">
        <ele>587.9569185067667</ele>
      </trkpt>
      <trkpt lat="48.430966" lon="23.721794">
        <ele>587.9002188081076</ele>
      </trkpt>
      <trkpt lat="48.430635" lon="23.721182">
        <ele>585.6229625023655</ele>
      </trkpt>
      <trkpt lat="48.429425" lon="23.71939">
        <ele>580.0156714981644</ele>
      </trkpt>
      <trkpt lat="48.428556" lon="23.718843">
        <ele>578.8817311391049</ele>
      </trkpt>
      <trkpt lat="48.42809" lon="23.718452">
        <ele>577.8767270008102</ele>
      </trkpt>
      <trkpt lat="48.427766" lon="23.717931">
        <ele>577.2105817268011</ele>
      </trkpt>
      <trkpt lat="48.427483" lon="23.71554">
        <ele>574.476248270318</ele>
      </trkpt>
      <trkpt lat="48.427796" lon="23.714274">
        <ele>576.4488094124092</ele>
      </trkpt>
      <trkpt lat="48.42712" lon="23.710991">
        <ele>575.0708266467673</ele>
      </trkpt>
      <trkpt lat="48.42666" lon="23.709559">
        <ele>570.848202748457</ele>
      </trkpt>
      <trkpt lat="48.426566" lon="23.708274">
        <ele>569.9355993858771</ele>
      </trkpt>
      <trkpt lat="48.426315" lon="23.707612">
        <ele>570.3338643591851</ele>
      </trkpt>
      <trkpt lat="48.425924" lon="23.70626">
        <ele>567.9869048888795</ele>
      </trkpt>
      <trkpt lat="48.424977" lon="23.704522">
        <ele>562.3914611336862</ele>
      </trkpt>
      <trkpt lat="48.425226" lon="23.702859">
        <ele>561.0720685759086</ele>
      </trkpt>
      <trkpt lat="48.425717" lon="23.700702">
        <ele>558.6246087944432</ele>
      </trkpt>
    </trkseg>
  </trk>
</gpx>
