<?xml version="1.0" encoding="UTF-8"?>
<gpx version="1.1" creator="phpGPX/1.0RC5" schemaLocation="http://www.topografix.com/GPX/1/1 http://www.topografix.com/GPX/1/1/gpx.xsd http://www.garmin.com/xmlschemas/GpxExtensions/v3 http://www.garmin.com/xmlschemas/GpxExtensionsv3.xsd http://www.garmin.com/xmlschemas/TrackPointExtension/v1 http://www.garmin.com/xmlschemas/TrackPointExtensionv1.xsd http://www.garmin.com/xmlschemas/PowerExtension/v1 http://www.garmin.com/xmlschemas/PowerExtensionv1.xsd http://www.topografix.com/GPX/gpx_style/0/2 http://www.topografix.com/GPX/gpx_style/0/2/gpx_style.xsd" xmlns="http://www.topografix.com/GPX/1/1" xmlns:xsi="http://www.w3.org/2001/XMLSchema-instance" xsi:schemaLocation="http://www.topografix.com/GPX/1/1 http://www.topografix.com/GPX/1/1/gpx.xsd http://www.garmin.com/xmlschemas/GpxExtensions/v3 http://www.garmin.com/xmlschemas/GpxExtensionsv3.xsd http://www.garmin.com/xmlschemas/TrackPointExtension/v1 http://www.garmin.com/xmlschemas/TrackPointExtensionv1.xsd http://www.garmin.com/xmlschemas/PowerExtension/v1 http://www.garmin.com/xmlschemas/PowerExtensionv1.xsd http://www.topografix.com/GPX/gpx_style/0/2 http://www.topografix.com/GPX/gpx_style/0/2/gpx_style.xsd" xmlns:gpxtpx="http://www.garmin.com/xmlschemas/TrackPointExtension/v1" xmlns:gpxx="http://www.garmin.com/xmlschemas/GpxExtensions/v3" xmlns:gpxpx="http://www.garmin.com/xmlschemas/PowerExtension/v1" xmlns:gpx_style="http://www.topografix.com/GPX/gpx_style/0/2">
  <metadata>
    <name>Гора Стій з Пилипця</name>
    <author>
      <name>gpx.studio</name>
      <link href="https://gpx.studio"/>
    </author>
  </metadata>
  <trk>
    <name>Гора Стій з Пилипця</name>
    <trkseg>
      <trkpt lat="48.670237" lon="23.341179">
        <ele>578.9823911341107</ele>
      </trkpt>
      <trkpt lat="48.668508" lon="23.341694">
        <ele>582.8631574601168</ele>
      </trkpt>
      <trkpt lat="48.667416" lon="23.340657">
        <ele>587.9737575047536</ele>
      </trkpt>
      <trkpt lat="48.665262" lon="23.337996">
        <ele>592.2681187370908</ele>
      </trkpt>
      <trkpt lat="48.663249" lon="23.335121">
        <ele>598.446169453091</ele>
      </trkpt>
      <trkpt lat="48.66118" lon="23.331731">
        <ele>612.1841688976857</ele>
      </trkpt>
      <trkpt lat="48.660659" lon="23.328295">
        <ele>608.1460081415717</ele>
      </trkpt>
      <trkpt lat="48.661849" lon="23.32336">
        <ele>607.1736671700729</ele>
      </trkpt>
      <trkpt lat="48.66219" lon="23.321">
        <ele>617.1798309957376</ele>
      </trkpt>
      <trkpt lat="48.66219" lon="23.318768">
        <ele>618.7552644756506</ele>
      </trkpt>
      <trkpt lat="48.663352" lon="23.312417">
        <ele>632.2645235850941</ele>
      </trkpt>
      <trkpt lat="48.663437" lon="23.30761">
        <ele>638.6781976560596</ele>
      </trkpt>
      <trkpt lat="48.664032" lon="23.304134">
        <ele>646.5186285271462</ele>
      </trkpt>
      <trkpt lat="48.664032" lon="23.300486">
        <ele>649.9261108445935</ele>
      </trkpt>
      <trkpt lat="48.664429" lon="23.298469">
        <ele>657.3402380872374</ele>
      </trkpt>
      <trkpt lat="48.662728" lon="23.292933">
        <ele>666.7929224846883</ele>
      </trkpt>
      <trkpt lat="48.661538" lon="23.289157">
        <ele>674.177611869713</ele>
      </trkpt>
      <trkpt lat="48.660837" lon="23.286703">
        <ele>681.3551350614994</ele>
      </trkpt>
      <trkpt lat="48.660724" lon="23.286381">
        <ele>681.1249621349402</ele>
      </trkpt>
      <trkpt lat="48.660625" lon="23.285372">
        <ele>684.6268160316977</ele>
      </trkpt>
      <trkpt lat="48.660313" lon="23.284385">
        <ele>687.0003626411781</ele>
      </trkpt>
      <trkpt lat="48.660455" lon="23.281724">
        <ele>695.0665511729894</ele>
      </trkpt>
      <trkpt lat="48.660157" lon="23.278785">
        <ele>707.1242773333797</ele>
      </trkpt>
      <trkpt lat="48.659774" lon="23.278162">
        <ele>713.5659869974036</ele>
      </trkpt>
      <trkpt lat="48.659633" lon="23.276575">
        <ele>713.0140023305421</ele>
      </trkpt>
      <trkpt lat="48.659307" lon="23.275652">
        <ele>718.9409696309757</ele>
      </trkpt>
      <trkpt lat="48.658697" lon="23.274772">
        <ele>725.556644613235</ele>
      </trkpt>
      <trkpt lat="48.658272" lon="23.273485">
        <ele>734.8879794370914</ele>
      </trkpt>
      <trkpt lat="48.658329" lon="23.272219">
        <ele>744.8469217567415</ele>
      </trkpt>
      <trkpt lat="48.658159" lon="23.271768">
        <ele>747.498895598464</ele>
      </trkpt>
      <trkpt lat="48.657776" lon="23.271682">
        <ele>746.2469425778836</ele>
      </trkpt>
      <trkpt lat="48.657181" lon="23.270717">
        <ele>756.4873427818436</ele>
      </trkpt>
      <trkpt lat="48.656982" lon="23.270609">
        <ele>764.7689289053072</ele>
      </trkpt>
      <trkpt lat="48.656472" lon="23.269494">
        <ele>778.9852111553732</ele>
      </trkpt>
      <trkpt lat="48.656047" lon="23.269322">
        <ele>786.0568942116806</ele>
      </trkpt>
      <trkpt lat="48.655593" lon="23.269343">
        <ele>796.6225747032998</ele>
      </trkpt>
      <trkpt lat="48.655083" lon="23.26885">
        <ele>811.1822553438833</ele>
      </trkpt>
      <trkpt lat="48.653963" lon="23.268614">
        <ele>821.9058463192663</ele>
      </trkpt>
      <trkpt lat="48.653509" lon="23.268399">
        <ele>829.615879692901</ele>
      </trkpt>
      <trkpt lat="48.653226" lon="23.267992">
        <ele>837.0504994692747</ele>
      </trkpt>
      <trkpt lat="48.651922" lon="23.26827">
        <ele>860.3096725398209</ele>
      </trkpt>
      <trkpt lat="48.651029" lon="23.268185">
        <ele>871.8707697446806</ele>
      </trkpt>
      <trkpt lat="48.648817" lon="23.266897">
        <ele>922.6294306764612</ele>
      </trkpt>
      <trkpt lat="48.648122" lon="23.267155">
        <ele>935.7627170489867</ele>
      </trkpt>
      <trkpt lat="48.645925" lon="23.267198">
        <ele>981.8394974830727</ele>
      </trkpt>
      <trkpt lat="48.645556" lon="23.266811">
        <ele>1013.2795307331342</ele>
      </trkpt>
      <trkpt lat="48.644762" lon="23.267026">
        <ele>1048.454440194126</ele>
      </trkpt>
      <trkpt lat="48.643444" lon="23.267734">
        <ele>1066.9849842952233</ele>
      </trkpt>
      <trkpt lat="48.642877" lon="23.267756">
        <ele>1072.0866569441596</ele>
      </trkpt>
      <trkpt lat="48.641856" lon="23.268206">
        <ele>1089.624745449517</ele>
      </trkpt>
      <trkpt lat="48.640708" lon="23.266253">
        <ele>1147.2481408736203</ele>
      </trkpt>
      <trkpt lat="48.639346" lon="23.265417">
        <ele>1201.8150938970502</ele>
      </trkpt>
      <trkpt lat="48.636695" lon="23.260074">
        <ele>1375.4848342656624</ele>
      </trkpt>
      <trkpt lat="48.635092" lon="23.258271">
        <ele>1422.9988374012755</ele>
      </trkpt>
      <trkpt lat="48.635715" lon="23.256168">
        <ele>1412.9965277008898</ele>
      </trkpt>
      <trkpt lat="48.637219" lon="23.251447">
        <ele>1362.2392088176875</ele>
      </trkpt>
      <trkpt lat="48.638325" lon="23.2484">
        <ele>1345.7140350123652</ele>
      </trkpt>
      <trkpt lat="48.640139" lon="23.244881">
        <ele>1377.4838469753738</ele>
      </trkpt>
      <trkpt lat="48.641125" lon="23.241973">
        <ele>1387.7988118148414</ele>
      </trkpt>
      <trkpt lat="48.640983" lon="23.237982">
        <ele>1426.5986421759558</ele>
      </trkpt>
      <trkpt lat="48.640501" lon="23.233433">
        <ele>1477.2881212506911</ele>
      </trkpt>
      <trkpt lat="48.642664" lon="23.228896">
        <ele>1567.305670899921</ele>
      </trkpt>
      <trkpt lat="48.641898" lon="23.228252">
        <ele>1542.9051029364318</ele>
      </trkpt>
      <trkpt lat="48.641019" lon="23.227093">
        <ele>1520.6522474189023</ele>
      </trkpt>
      <trkpt lat="48.640027" lon="23.225892">
        <ele>1515.153094890123</ele>
      </trkpt>
      <trkpt lat="48.639176" lon="23.224089">
        <ele>1517.7358373935515</ele>
      </trkpt>
      <trkpt lat="48.63824" lon="23.223016">
        <ele>1492.7908847699123</ele>
      </trkpt>
      <trkpt lat="48.637219" lon="23.221943">
        <ele>1461.1230363655861</ele>
      </trkpt>
      <trkpt lat="48.636255" lon="23.221257">
        <ele>1466.7419607329282</ele>
      </trkpt>
      <trkpt lat="48.635177" lon="23.219969">
        <ele>1485.8737789005836</ele>
      </trkpt>
      <trkpt lat="48.634156" lon="23.218553">
        <ele>1499.293810821837</ele>
      </trkpt>
      <trkpt lat="48.633674" lon="23.216321">
        <ele>1506.3771917145968</ele>
      </trkpt>
      <trkpt lat="48.632908" lon="23.214347">
        <ele>1493.043576640269</ele>
      </trkpt>
      <trkpt lat="48.632373" lon="23.212612">
        <ele>1487.9622551729783</ele>
      </trkpt>
      <trkpt lat="48.63192" lon="23.210724">
        <ele>1498.9325739928056</ele>
      </trkpt>
      <trkpt lat="48.631664" lon="23.207763">
        <ele>1498.020414293627</ele>
      </trkpt>
      <trkpt lat="48.631806" lon="23.205917">
        <ele>1510.8843488160055</ele>
      </trkpt>
      <trkpt lat="48.631778" lon="23.204029">
        <ele>1524.5112095346697</ele>
      </trkpt>
      <trkpt lat="48.631352" lon="23.202484">
        <ele>1529.983527049479</ele>
      </trkpt>
      <trkpt lat="48.630785" lon="23.201111">
        <ele>1528.9228527921696</ele>
      </trkpt>
      <trkpt lat="48.629452" lon="23.199995">
        <ele>1548.1380052459172</ele>
      </trkpt>
      <trkpt lat="48.628289" lon="23.198278">
        <ele>1588.373696719445</ele>
      </trkpt>
      <trkpt lat="48.62741" lon="23.196862">
        <ele>1593.4128176962301</ele>
      </trkpt>
      <trkpt lat="48.626618" lon="23.195748">
        <ele>1602.7293451245373</ele>
      </trkpt>
      <trkpt lat="48.625654" lon="23.19489">
        <ele>1611.9220506360498</ele>
      </trkpt>
      <trkpt lat="48.624803" lon="23.194289">
        <ele>1616.26210377377</ele>
      </trkpt>
      <trkpt lat="48.623838" lon="23.193302">
        <ele>1613.8554960594047</ele>
      </trkpt>
      <trkpt lat="48.623016" lon="23.192701">
        <ele>1610.325390266371</ele>
      </trkpt>
      <trkpt lat="48.621938" lon="23.192144">
        <ele>1621.1991999179565</ele>
      </trkpt>
      <trkpt lat="48.62122" lon="23.19227">
        <ele>1621.3868893289473</ele>
      </trkpt>
      <trkpt lat="48.620652" lon="23.19242">
        <ele>1621.0390941023304</ele>
      </trkpt>
      <trkpt lat="48.619929" lon="23.193171">
        <ele>1603.7622602380736</ele>
      </trkpt>
      <trkpt lat="48.620113" lon="23.191862">
        <ele>1619.0153921777382</ele>
      </trkpt>
      <trkpt lat="48.620255" lon="23.190897">
        <ele>1632.175316671575</ele>
      </trkpt>
      <trkpt lat="48.620411" lon="23.189695">
        <ele>1646.8038072090712</ele>
      </trkpt>
      <trkpt lat="48.620722" lon="23.189441">
        <ele>1658.7169037526473</ele>
      </trkpt>
      <trkpt lat="48.620907" lon="23.189763">
        <ele>1665.0754553102524</ele>
      </trkpt>
      <trkpt lat="48.621148" lon="23.190299">
        <ele>1670.3959416120683</ele>
      </trkpt>
      <trkpt lat="48.621346" lon="23.190836">
        <ele>1672.8401739799883</ele>
      </trkpt>
    </trkseg>
  </trk>
</gpx>
