<?xml version="1.0" encoding="UTF-8"?>
<gpx version="1.1" creator="phpGPX/1.0RC5" schemaLocation="http://www.topografix.com/GPX/1/1 http://www.topografix.com/GPX/1/1/gpx.xsd http://www.garmin.com/xmlschemas/GpxExtensions/v3 http://www.garmin.com/xmlschemas/GpxExtensionsv3.xsd http://www.garmin.com/xmlschemas/TrackPointExtension/v1 http://www.garmin.com/xmlschemas/TrackPointExtensionv1.xsd http://www.garmin.com/xmlschemas/PowerExtension/v1 http://www.garmin.com/xmlschemas/PowerExtensionv1.xsd http://www.topografix.com/GPX/gpx_style/0/2 http://www.topografix.com/GPX/gpx_style/0/2/gpx_style.xsd" xmlns="http://www.topografix.com/GPX/1/1" xmlns:xsi="http://www.w3.org/2001/XMLSchema-instance" xsi:schemaLocation="http://www.topografix.com/GPX/1/1 http://www.topografix.com/GPX/1/1/gpx.xsd http://www.garmin.com/xmlschemas/GpxExtensions/v3 http://www.garmin.com/xmlschemas/GpxExtensionsv3.xsd http://www.garmin.com/xmlschemas/TrackPointExtension/v1 http://www.garmin.com/xmlschemas/TrackPointExtensionv1.xsd http://www.garmin.com/xmlschemas/PowerExtension/v1 http://www.garmin.com/xmlschemas/PowerExtensionv1.xsd http://www.topografix.com/GPX/gpx_style/0/2 http://www.topografix.com/GPX/gpx_style/0/2/gpx_style.xsd" xmlns:gpxtpx="http://www.garmin.com/xmlschemas/TrackPointExtension/v1" xmlns:gpxx="http://www.garmin.com/xmlschemas/GpxExtensions/v3" xmlns:gpxpx="http://www.garmin.com/xmlschemas/PowerExtension/v1" xmlns:gpx_style="http://www.topografix.com/GPX/gpx_style/0/2">
  <metadata>
    <name>Горган-Ілемський з Мислівки</name>
    <author>
      <name>gpx.studio</name>
      <link href="https://gpx.studio"/>
    </author>
  </metadata>
  <trk>
    <name>Горган-Ілемський з Мислівки</name>
    <trkseg>
      <trkpt lat="48.791737" lon="23.770626">
        <ele>656.9550277402159</ele>
      </trkpt>
      <trkpt lat="48.791256" lon="23.770755">
        <ele>655.3109841178142</ele>
      </trkpt>
      <trkpt lat="48.786761" lon="23.771742">
        <ele>666.6040719230659</ele>
      </trkpt>
      <trkpt lat="48.783792" lon="23.77024">
        <ele>666.8156764444429</ele>
      </trkpt>
      <trkpt lat="48.782717" lon="23.769682">
        <ele>669.5662620444782</ele>
      </trkpt>
      <trkpt lat="48.78184" lon="23.769639">
        <ele>672.7065968904303</ele>
      </trkpt>
      <trkpt lat="48.781671" lon="23.76981">
        <ele>673.4775086311274</ele>
      </trkpt>
      <trkpt lat="48.781049" lon="23.770797">
        <ele>671.6727202380425</ele>
      </trkpt>
      <trkpt lat="48.77921" lon="23.772385">
        <ele>675.7182097487018</ele>
      </trkpt>
      <trkpt lat="48.777796" lon="23.771441">
        <ele>680.0160625950084</ele>
      </trkpt>
      <trkpt lat="48.775845" lon="23.771184">
        <ele>681.4268257185149</ele>
      </trkpt>
      <trkpt lat="48.775449" lon="23.772214">
        <ele>682.2225183123722</ele>
      </trkpt>
      <trkpt lat="48.774572" lon="23.773716">
        <ele>677.3655221225927</ele>
      </trkpt>
      <trkpt lat="48.773187" lon="23.774059">
        <ele>681.9212075916585</ele>
      </trkpt>
      <trkpt lat="48.772168" lon="23.775518">
        <ele>683.606008294737</ele>
      </trkpt>
      <trkpt lat="48.771461" lon="23.775432">
        <ele>685.0010611583624</ele>
      </trkpt>
      <trkpt lat="48.770528" lon="23.773201">
        <ele>692.9872544079553</ele>
      </trkpt>
      <trkpt lat="48.767586" lon="23.771613">
        <ele>693.1399080847041</ele>
      </trkpt>
      <trkpt lat="48.765465" lon="23.772943">
        <ele>698.3355346267344</ele>
      </trkpt>
      <trkpt lat="48.76289" lon="23.773287">
        <ele>698.1083374655573</ele>
      </trkpt>
      <trkpt lat="48.761023" lon="23.774746">
        <ele>698.9349323710079</ele>
      </trkpt>
      <trkpt lat="48.758958" lon="23.773458">
        <ele>699.5694677333813</ele>
      </trkpt>
      <trkpt lat="48.756978" lon="23.771784">
        <ele>707.6382645414865</ele>
      </trkpt>
      <trkpt lat="48.756469" lon="23.772171">
        <ele>705.0508826567097</ele>
      </trkpt>
      <trkpt lat="48.756921" lon="23.772857">
        <ele>704.4481387031683</ele>
      </trkpt>
      <trkpt lat="48.755846" lon="23.773887">
        <ele>706.4648191999877</ele>
      </trkpt>
      <trkpt lat="48.75511" lon="23.775475">
        <ele>716.5580965012776</ele>
      </trkpt>
      <trkpt lat="48.75446" lon="23.778308">
        <ele>735.2522844143361</ele>
      </trkpt>
      <trkpt lat="48.753894" lon="23.779595">
        <ele>724.5177845887196</ele>
      </trkpt>
      <trkpt lat="48.752677" lon="23.780067">
        <ele>736.4494928145558</ele>
      </trkpt>
      <trkpt lat="48.750612" lon="23.782256">
        <ele>741.291505696252</ele>
      </trkpt>
      <trkpt lat="48.749791" lon="23.783844">
        <ele>733.1580968881631</ele>
      </trkpt>
      <trkpt lat="48.749961" lon="23.786118">
        <ele>743.4855027446687</ele>
      </trkpt>
      <trkpt lat="48.749706" lon="23.787835">
        <ele>748.4720156159661</ele>
      </trkpt>
      <trkpt lat="48.749706" lon="23.789423">
        <ele>757.9296688755276</ele>
      </trkpt>
      <trkpt lat="48.747754" lon="23.791225">
        <ele>751.9835794872987</ele>
      </trkpt>
      <trkpt lat="48.745603" lon="23.796651">
        <ele>775.8433593242081</ele>
      </trkpt>
      <trkpt lat="48.74433" lon="23.797853">
        <ele>784.9446469069496</ele>
      </trkpt>
      <trkpt lat="48.74365" lon="23.801286">
        <ele>788.6725967108505</ele>
      </trkpt>
      <trkpt lat="48.743084" lon="23.804934">
        <ele>799.4819591205626</ele>
      </trkpt>
      <trkpt lat="48.743735" lon="23.807938">
        <ele>809.8081988757476</ele>
      </trkpt>
      <trkpt lat="48.742801" lon="23.810513">
        <ele>818.6095947101214</ele>
      </trkpt>
      <trkpt lat="48.740622" lon="23.812873">
        <ele>826.0092862754578</ele>
      </trkpt>
      <trkpt lat="48.739179" lon="23.813689">
        <ele>832.144854036274</ele>
      </trkpt>
      <trkpt lat="48.73799" lon="23.813946">
        <ele>829.3548864000477</ele>
      </trkpt>
      <trkpt lat="48.737028" lon="23.81386">
        <ele>833.4584608135651</ele>
      </trkpt>
      <trkpt lat="48.736122" lon="23.814633">
        <ele>840.3976064430212</ele>
      </trkpt>
      <trkpt lat="48.734424" lon="23.817079">
        <ele>873.2260800823141</ele>
      </trkpt>
      <trkpt lat="48.73281" lon="23.817637">
        <ele>869.08781463911</ele>
      </trkpt>
      <trkpt lat="48.731423" lon="23.824031">
        <ele>896.2026160886776</ele>
      </trkpt>
      <trkpt lat="48.729385" lon="23.829653">
        <ele>922.9901520552698</ele>
      </trkpt>
      <trkpt lat="48.727998" lon="23.833215">
        <ele>939.8633195512414</ele>
      </trkpt>
      <trkpt lat="48.727149" lon="23.835576">
        <ele>957.3046443289132</ele>
      </trkpt>
      <trkpt lat="48.72545" lon="23.838494">
        <ele>983.5036031800452</ele>
      </trkpt>
      <trkpt lat="48.724177" lon="23.840554">
        <ele>1005.5196791713508</ele>
      </trkpt>
      <trkpt lat="48.722846" lon="23.84167">
        <ele>1023.7961238159202</ele>
      </trkpt>
      <trkpt lat="48.72126" lon="23.843772">
        <ele>1087.95950217254</ele>
      </trkpt>
      <trkpt lat="48.719675" lon="23.846133">
        <ele>1167.7716048537459</ele>
      </trkpt>
      <trkpt lat="48.720222" lon="23.847741">
        <ele>1166.761509529897</ele>
      </trkpt>
      <trkpt lat="48.720618" lon="23.848299">
        <ele>1164.8576172592757</ele>
      </trkpt>
      <trkpt lat="48.720958" lon="23.84905">
        <ele>1177.6724790569533</ele>
      </trkpt>
      <trkpt lat="48.721963" lon="23.849866">
        <ele>1196.7898576065877</ele>
      </trkpt>
      <trkpt lat="48.722289" lon="23.85038">
        <ele>1202.3757575303316</ele>
      </trkpt>
      <trkpt lat="48.723053" lon="23.851132">
        <ele>1215.7451623806064</ele>
      </trkpt>
      <trkpt lat="48.723719" lon="23.851089">
        <ele>1220.191673293477</ele>
      </trkpt>
      <trkpt lat="48.724582" lon="23.851453">
        <ele>1227.293008838962</ele>
      </trkpt>
      <trkpt lat="48.726111" lon="23.85038">
        <ele>1216.8043094904478</ele>
      </trkpt>
      <trkpt lat="48.727739" lon="23.849951">
        <ele>1243.000046988932</ele>
      </trkpt>
      <trkpt lat="48.72846" lon="23.850359">
        <ele>1263.4102796836469</ele>
      </trkpt>
      <trkpt lat="48.729182" lon="23.850187">
        <ele>1290.5617138962261</ele>
      </trkpt>
      <trkpt lat="48.730173" lon="23.851389">
        <ele>1333.3640704723005</ele>
      </trkpt>
      <trkpt lat="48.732551" lon="23.852419">
        <ele>1385.665684881973</ele>
      </trkpt>
      <trkpt lat="48.73299" lon="23.852376">
        <ele>1397.2574467100587</ele>
      </trkpt>
      <trkpt lat="48.733485" lon="23.852591">
        <ele>1412.8275871712458</ele>
      </trkpt>
      <trkpt lat="48.734348" lon="23.852676">
        <ele>1435.4900108900024</ele>
      </trkpt>
      <trkpt lat="48.735027" lon="23.853427">
        <ele>1450.2848949628683</ele>
      </trkpt>
      <trkpt lat="48.735933" lon="23.853685">
        <ele>1486.2215837054423</ele>
      </trkpt>
      <trkpt lat="48.736995" lon="23.854608">
        <ele>1510.9146597645408</ele>
      </trkpt>
      <trkpt lat="48.738367" lon="23.856539">
        <ele>1536.7196486440953</ele>
      </trkpt>
      <trkpt lat="48.73899" lon="23.857075">
        <ele>1552.4361905599944</ele>
      </trkpt>
      <trkpt lat="48.739216" lon="23.85759">
        <ele>1561.1480358766592</ele>
      </trkpt>
      <trkpt lat="48.739471" lon="23.85759">
        <ele>1566.2205438687893</ele>
      </trkpt>
      <trkpt lat="48.739881" lon="23.858513">
        <ele>1578.8826908470592</ele>
      </trkpt>
      <trkpt lat="48.741438" lon="23.858384">
        <ele>1567.4939255399295</ele>
      </trkpt>
      <trkpt lat="48.742627" lon="23.85817">
        <ele>1523.2479234572672</ele>
      </trkpt>
      <trkpt lat="48.744412" lon="23.857397">
        <ele>1481.5447521448232</ele>
      </trkpt>
      <trkpt lat="48.744992" lon="23.856775">
        <ele>1471.6149878997792</ele>
      </trkpt>
      <trkpt lat="48.745544" lon="23.856925">
        <ele>1466.4051412268484</ele>
      </trkpt>
      <trkpt lat="48.746534" lon="23.855831">
        <ele>1460.2634902863733</ele>
      </trkpt>
      <trkpt lat="48.747227" lon="23.854114">
        <ele>1468.675386512346</ele>
      </trkpt>
      <trkpt lat="48.748048" lon="23.852891">
        <ele>1467.8356585105187</ele>
      </trkpt>
      <trkpt lat="48.748586" lon="23.851968">
        <ele>1466.8715076326132</ele>
      </trkpt>
      <trkpt lat="48.748727" lon="23.851818">
        <ele>1465.870495165051</ele>
      </trkpt>
      <trkpt lat="48.748784" lon="23.851346">
        <ele>1465.0402247077138</ele>
      </trkpt>
      <trkpt lat="48.749166" lon="23.850788">
        <ele>1457.4896417913733</ele>
      </trkpt>
      <trkpt lat="48.749491" lon="23.85081">
        <ele>1446.8253129298098</ele>
      </trkpt>
      <trkpt lat="48.749703" lon="23.851089">
        <ele>1437.1984431843737</ele>
      </trkpt>
      <trkpt lat="48.750043" lon="23.851153">
        <ele>1424.0519165785824</ele>
      </trkpt>
      <trkpt lat="48.750411" lon="23.851067">
        <ele>1414.420204412192</ele>
      </trkpt>
      <trkpt lat="48.751132" lon="23.851239">
        <ele>1399.361072526779</ele>
      </trkpt>
      <trkpt lat="48.751797" lon="23.851132">
        <ele>1388.9780056569296</ele>
      </trkpt>
      <trkpt lat="48.753297" lon="23.850445">
        <ele>1356.595426999731</ele>
      </trkpt>
      <trkpt lat="48.754655" lon="23.850187">
        <ele>1332.1956339818425</ele>
      </trkpt>
      <trkpt lat="48.755263" lon="23.850745">
        <ele>1310.7614184657475</ele>
      </trkpt>
      <trkpt lat="48.755631" lon="23.850702">
        <ele>1298.5425241336602</ele>
      </trkpt>
      <trkpt lat="48.756126" lon="23.85096">
        <ele>1280.7779336443912</ele>
      </trkpt>
      <trkpt lat="48.757512" lon="23.850316">
        <ele>1238.8489182332996</ele>
      </trkpt>
      <trkpt lat="48.757894" lon="23.850488">
        <ele>1229.261489122524</ele>
      </trkpt>
      <trkpt lat="48.758191" lon="23.849479">
        <ele>1219.2898411430722</ele>
      </trkpt>
      <trkpt lat="48.758743" lon="23.848964">
        <ele>1209.4292110784445</ele>
      </trkpt>
      <trkpt lat="48.760624" lon="23.845274">
        <ele>1168.0295010424747</ele>
      </trkpt>
      <trkpt lat="48.761572" lon="23.844008">
        <ele>1175.8631058428437</ele>
      </trkpt>
      <trkpt lat="48.762121" lon="23.842207">
        <ele>1183.43813210174</ele>
      </trkpt>
      <trkpt lat="48.762177" lon="23.840791">
        <ele>1192.4478063805727</ele>
      </trkpt>
      <trkpt lat="48.761979" lon="23.83974">
        <ele>1197.6617164791446</ele>
      </trkpt>
      <trkpt lat="48.762234" lon="23.83783">
        <ele>1198.4426834540209</ele>
      </trkpt>
      <trkpt lat="48.762163" lon="23.836757">
        <ele>1212.4436352805737</ele>
      </trkpt>
      <trkpt lat="48.762418" lon="23.834676">
        <ele>1250.3915867482913</ele>
      </trkpt>
      <trkpt lat="48.763733" lon="23.832208">
        <ele>1305.6311399030965</ele>
      </trkpt>
      <trkpt lat="48.763705" lon="23.831693">
        <ele>1317.608415033319</ele>
      </trkpt>
      <trkpt lat="48.763974" lon="23.830491">
        <ele>1325.865575970965</ele>
      </trkpt>
      <trkpt lat="48.764907" lon="23.829075">
        <ele>1330.3347392637506</ele>
      </trkpt>
      <trkpt lat="48.767227" lon="23.824526">
        <ele>1324.845206669388</ele>
      </trkpt>
      <trkpt lat="48.768231" lon="23.822531">
        <ele>1348.7187253851425</ele>
      </trkpt>
      <trkpt lat="48.767934" lon="23.820986">
        <ele>1389.9124531911243</ele>
      </trkpt>
      <trkpt lat="48.768174" lon="23.820578">
        <ele>1406.1748145849187</ele>
      </trkpt>
      <trkpt lat="48.768797" lon="23.819955">
        <ele>1420.418413205572</ele>
      </trkpt>
      <trkpt lat="48.769999" lon="23.818839">
        <ele>1411.609340854061</ele>
      </trkpt>
      <trkpt lat="48.770777" lon="23.819139">
        <ele>1381.4121315615484</ele>
      </trkpt>
      <trkpt lat="48.772389" lon="23.817981">
        <ele>1349.757455295301</ele>
      </trkpt>
      <trkpt lat="48.772899" lon="23.816693">
        <ele>1341.5128341199006</ele>
      </trkpt>
      <trkpt lat="48.773295" lon="23.816071">
        <ele>1334.6234440883222</ele>
      </trkpt>
      <trkpt lat="48.77526" lon="23.812316">
        <ele>1302.9468035192997</ele>
      </trkpt>
      <trkpt lat="48.775812" lon="23.811179">
        <ele>1296.6529226117523</ele>
      </trkpt>
      <trkpt lat="48.77567" lon="23.810363">
        <ele>1287.3930190366227</ele>
      </trkpt>
      <trkpt lat="48.776307" lon="23.809634">
        <ele>1287.0451807764698</ele>
      </trkpt>
      <trkpt lat="48.776505" lon="23.808132">
        <ele>1291.6723895680382</ele>
      </trkpt>
      <trkpt lat="48.776575" lon="23.807145">
        <ele>1297.125531480714</ele>
      </trkpt>
      <trkpt lat="48.776349" lon="23.804763">
        <ele>1314.8630784131992</ele>
      </trkpt>
      <trkpt lat="48.777056" lon="23.802746">
        <ele>1291.7215477238178</ele>
      </trkpt>
      <trkpt lat="48.777155" lon="23.802123">
        <ele>1273.2859589144946</ele>
      </trkpt>
      <trkpt lat="48.778088" lon="23.801587">
        <ele>1246.937952724939</ele>
      </trkpt>
      <trkpt lat="48.779163" lon="23.8003">
        <ele>1205.5923168758954</ele>
      </trkpt>
      <trkpt lat="48.78086" lon="23.796201">
        <ele>1131.3793876323289</ele>
      </trkpt>
      <trkpt lat="48.781977" lon="23.793798">
        <ele>1089.9319186442326</ele>
      </trkpt>
      <trkpt lat="48.782867" lon="23.79118">
        <ele>1019.2107010429891</ele>
      </trkpt>
      <trkpt lat="48.782768" lon="23.790472">
        <ele>1005.0031907767345</ele>
      </trkpt>
      <trkpt lat="48.782076" lon="23.789893">
        <ele>990.6616166009335</ele>
      </trkpt>
      <trkpt lat="48.78151" lon="23.789785">
        <ele>986.1570608132831</ele>
      </trkpt>
      <trkpt lat="48.781086" lon="23.789356">
        <ele>973.2202158030124</ele>
      </trkpt>
      <trkpt lat="48.781312" lon="23.789335">
        <ele>973.6038044441957</ele>
      </trkpt>
      <trkpt lat="48.781326" lon="23.788927">
        <ele>961.1767647599918</ele>
      </trkpt>
      <trkpt lat="48.780775" lon="23.788262">
        <ele>938.8236499251798</ele>
      </trkpt>
      <trkpt lat="48.781411" lon="23.788004">
        <ele>929.4624868705553</ele>
      </trkpt>
      <trkpt lat="48.781114" lon="23.787403">
        <ele>909.3462127423263</ele>
      </trkpt>
      <trkpt lat="48.780421" lon="23.786996">
        <ele>892.4441918012456</ele>
      </trkpt>
      <trkpt lat="48.780747" lon="23.786567">
        <ele>879.7352392573703</ele>
      </trkpt>
      <trkpt lat="48.781722" lon="23.78412">
        <ele>834.8449043216267</ele>
      </trkpt>
      <trkpt lat="48.781849" lon="23.783112">
        <ele>820.6940557312976</ele>
      </trkpt>
      <trkpt lat="48.782146" lon="23.781352">
        <ele>811.6235411560256</ele>
      </trkpt>
      <trkpt lat="48.782203" lon="23.780194">
        <ele>798.1339443991893</ele>
      </trkpt>
      <trkpt lat="48.782358" lon="23.778756">
        <ele>783.4627159407305</ele>
      </trkpt>
      <trkpt lat="48.782175" lon="23.778756">
        <ele>772.6543372667045</ele>
      </trkpt>
      <trkpt lat="48.782175" lon="23.777919">
        <ele>764.5668444641581</ele>
      </trkpt>
      <trkpt lat="48.781906" lon="23.778284">
        <ele>757.751822945429</ele>
      </trkpt>
      <trkpt lat="48.781369" lon="23.777082">
        <ele>740.0355521925376</ele>
      </trkpt>
      <trkpt lat="48.78127" lon="23.775108">
        <ele>709.8368495200039</ele>
      </trkpt>
      <trkpt lat="48.781708" lon="23.774035">
        <ele>698.9004594911966</ele>
      </trkpt>
      <trkpt lat="48.782005" lon="23.77234">
        <ele>677.4037543488799</ele>
      </trkpt>
      <trkpt lat="48.782203" lon="23.771761">
        <ele>669.4897065358238</ele>
      </trkpt>
      <trkpt lat="48.781651" lon="23.770066">
        <ele>673.992169214132</ele>
      </trkpt>
    </trkseg>
  </trk>
</gpx>
