<?xml version="1.0" encoding="UTF-8"?>
<gpx version="1.1" creator="phpGPX/1.0RC5" schemaLocation="http://www.topografix.com/GPX/1/1 http://www.topografix.com/GPX/1/1/gpx.xsd http://www.garmin.com/xmlschemas/GpxExtensions/v3 http://www.garmin.com/xmlschemas/GpxExtensionsv3.xsd http://www.garmin.com/xmlschemas/TrackPointExtension/v1 http://www.garmin.com/xmlschemas/TrackPointExtensionv1.xsd http://www.garmin.com/xmlschemas/PowerExtension/v1 http://www.garmin.com/xmlschemas/PowerExtensionv1.xsd http://www.topografix.com/GPX/gpx_style/0/2 http://www.topografix.com/GPX/gpx_style/0/2/gpx_style.xsd" xmlns="http://www.topografix.com/GPX/1/1" xmlns:xsi="http://www.w3.org/2001/XMLSchema-instance" xsi:schemaLocation="http://www.topografix.com/GPX/1/1 http://www.topografix.com/GPX/1/1/gpx.xsd http://www.garmin.com/xmlschemas/GpxExtensions/v3 http://www.garmin.com/xmlschemas/GpxExtensionsv3.xsd http://www.garmin.com/xmlschemas/TrackPointExtension/v1 http://www.garmin.com/xmlschemas/TrackPointExtensionv1.xsd http://www.garmin.com/xmlschemas/PowerExtension/v1 http://www.garmin.com/xmlschemas/PowerExtensionv1.xsd http://www.topografix.com/GPX/gpx_style/0/2 http://www.topografix.com/GPX/gpx_style/0/2/gpx_style.xsd" xmlns:gpxtpx="http://www.garmin.com/xmlschemas/TrackPointExtension/v1" xmlns:gpxx="http://www.garmin.com/xmlschemas/GpxExtensions/v3" xmlns:gpxpx="http://www.garmin.com/xmlschemas/PowerExtension/v1" xmlns:gpx_style="http://www.topografix.com/GPX/gpx_style/0/2">
  <metadata>
    <name>Грофа, Кінь Грофецький з Осмолоди</name>
    <author>
      <name>gpx.studio</name>
      <link href="https://gpx.studio"/>
    </author>
  </metadata>
  <trk>
    <name>Грофа, Кінь Грофецький з Осмолоди</name>
    <trkseg>
      <trkpt lat="48.64875" lon="24.014047">
        <ele>719.6518486845838</ele>
      </trkpt>
      <trkpt lat="48.647206" lon="24.013812">
        <ele>726.0221536291065</ele>
      </trkpt>
      <trkpt lat="48.647676" lon="24.009844">
        <ele>732.2617778313029</ele>
      </trkpt>
      <trkpt lat="48.64891" lon="24.007016">
        <ele>729.5346311373698</ele>
      </trkpt>
      <trkpt lat="48.64982" lon="24.004348">
        <ele>731.6393275157898</ele>
      </trkpt>
      <trkpt lat="48.650386" lon="24.001822">
        <ele>735.9581660721451</ele>
      </trkpt>
      <trkpt lat="48.650102" lon="23.994748">
        <ele>750.6439253813314</ele>
      </trkpt>
      <trkpt lat="48.649639" lon="23.993453">
        <ele>747.505463371519</ele>
      </trkpt>
      <trkpt lat="48.649237" lon="23.993098">
        <ele>750.1604575593956</ele>
      </trkpt>
      <trkpt lat="48.648266" lon="23.992651">
        <ele>756.1654253952036</ele>
      </trkpt>
      <trkpt lat="48.646885" lon="23.991218">
        <ele>764.5127623111475</ele>
      </trkpt>
      <trkpt lat="48.64659" lon="23.991174">
        <ele>765.3344277262222</ele>
      </trkpt>
      <trkpt lat="48.6458" lon="23.991491">
        <ele>766.6527765333885</ele>
      </trkpt>
      <trkpt lat="48.645018" lon="23.991213">
        <ele>768.6509042790858</ele>
      </trkpt>
      <trkpt lat="48.642755" lon="23.988892">
        <ele>784.3739731156385</ele>
      </trkpt>
      <trkpt lat="48.641187" lon="23.986723">
        <ele>796.4681510270955</ele>
      </trkpt>
      <trkpt lat="48.640543" lon="23.985176">
        <ele>802.1113628444728</ele>
      </trkpt>
      <trkpt lat="48.639496" lon="23.983336">
        <ele>811.4142844099671</ele>
      </trkpt>
      <trkpt lat="48.637414" lon="23.980576">
        <ele>823.4382578263883</ele>
      </trkpt>
      <trkpt lat="48.636911" lon="23.979425">
        <ele>838.2344139016595</ele>
      </trkpt>
      <trkpt lat="48.636352" lon="23.97908">
        <ele>842.4522734639845</ele>
      </trkpt>
      <trkpt lat="48.635662" lon="23.97822">
        <ele>845.9150388218994</ele>
      </trkpt>
      <trkpt lat="48.634742" lon="23.97757">
        <ele>843.6539741476299</ele>
      </trkpt>
      <trkpt lat="48.634365" lon="23.977041">
        <ele>848.9186364406487</ele>
      </trkpt>
      <trkpt lat="48.633477" lon="23.976614">
        <ele>852.1505055592617</ele>
      </trkpt>
      <trkpt lat="48.632942" lon="23.975921">
        <ele>859.7740167109296</ele>
      </trkpt>
      <trkpt lat="48.631825" lon="23.974988">
        <ele>862.9865452492269</ele>
      </trkpt>
      <trkpt lat="48.63025" lon="23.972617">
        <ele>875.8593853709754</ele>
      </trkpt>
      <trkpt lat="48.629857" lon="23.971302">
        <ele>889.0362560117501</ele>
      </trkpt>
      <trkpt lat="48.629012" lon="23.969558">
        <ele>896.2903363686214</ele>
      </trkpt>
      <trkpt lat="48.628006" lon="23.968589">
        <ele>902.6412869711555</ele>
      </trkpt>
      <trkpt lat="48.628055" lon="23.968725">
        <ele>900.4449469494594</ele>
      </trkpt>
      <trkpt lat="48.627366" lon="23.968319">
        <ele>900.590359376426</ele>
      </trkpt>
      <trkpt lat="48.626955" lon="23.968254">
        <ele>904.6304548342748</ele>
      </trkpt>
      <trkpt lat="48.626671" lon="23.967556">
        <ele>907.5716543351565</ele>
      </trkpt>
      <trkpt lat="48.625421" lon="23.965719">
        <ele>924.205832752989</ele>
      </trkpt>
      <trkpt lat="48.624513" lon="23.965091">
        <ele>927.7487839688704</ele>
      </trkpt>
      <trkpt lat="48.623738" lon="23.964005">
        <ele>943.7887798273848</ele>
      </trkpt>
      <trkpt lat="48.623221" lon="23.963585">
        <ele>940.5375206363759</ele>
      </trkpt>
      <trkpt lat="48.622242" lon="23.962384">
        <ele>950.9755329949668</ele>
      </trkpt>
      <trkpt lat="48.621602" lon="23.962195">
        <ele>955.345210691079</ele>
      </trkpt>
      <trkpt lat="48.621303" lon="23.961957">
        <ele>962.0366545162741</ele>
      </trkpt>
      <trkpt lat="48.620963" lon="23.961122">
        <ele>963.50045011008</ele>
      </trkpt>
      <trkpt lat="48.620634" lon="23.959149">
        <ele>975.0932166906765</ele>
      </trkpt>
      <trkpt lat="48.620395" lon="23.958461">
        <ele>980.7385737617547</ele>
      </trkpt>
      <trkpt lat="48.618875" lon="23.955727">
        <ele>1017.0820154302485</ele>
      </trkpt>
      <trkpt lat="48.617286" lon="23.953504">
        <ele>1040.7532049470742</ele>
      </trkpt>
      <trkpt lat="48.617205" lon="23.953343">
        <ele>1043.060240885105</ele>
      </trkpt>
      <trkpt lat="48.617027" lon="23.95302">
        <ele>1048.8739937567275</ele>
      </trkpt>
      <trkpt lat="48.616274" lon="23.951483">
        <ele>1075.5121594582051</ele>
      </trkpt>
      <trkpt lat="48.616099" lon="23.950337">
        <ele>1082.4892235891693</ele>
      </trkpt>
      <trkpt lat="48.615743" lon="23.948723">
        <ele>1099.4219789941126</ele>
      </trkpt>
      <trkpt lat="48.615218" lon="23.947344">
        <ele>1111.5165241272002</ele>
      </trkpt>
      <trkpt lat="48.614644" lon="23.946408">
        <ele>1134.011132416495</ele>
      </trkpt>
      <trkpt lat="48.613831" lon="23.945368">
        <ele>1164.5047234557449</ele>
      </trkpt>
      <trkpt lat="48.611973" lon="23.943287">
        <ele>1217.9311392915183</ele>
      </trkpt>
      <trkpt lat="48.610193" lon="23.940675">
        <ele>1260.7504800441855</ele>
      </trkpt>
      <trkpt lat="48.609096" lon="23.938976">
        <ele>1277.5888223282836</ele>
      </trkpt>
      <trkpt lat="48.609224" lon="23.938622">
        <ele>1288.297289741031</ele>
      </trkpt>
      <trkpt lat="48.608853" lon="23.93829">
        <ele>1301.8767529479228</ele>
      </trkpt>
      <trkpt lat="48.608826" lon="23.938093">
        <ele>1311.3583547542407</ele>
      </trkpt>
      <trkpt lat="48.608515" lon="23.937816">
        <ele>1319.2179960540618</ele>
      </trkpt>
      <trkpt lat="48.608293" lon="23.937147">
        <ele>1337.1988578429446</ele>
      </trkpt>
      <trkpt lat="48.608391" lon="23.936746">
        <ele>1347.8912301168311</ele>
      </trkpt>
      <trkpt lat="48.608941" lon="23.936089">
        <ele>1363.3115545432145</ele>
      </trkpt>
      <trkpt lat="48.609908" lon="23.935392">
        <ele>1380.2769682129078</ele>
      </trkpt>
      <trkpt lat="48.610259" lon="23.934535">
        <ele>1398.4903272999295</ele>
      </trkpt>
      <trkpt lat="48.610419" lon="23.933622">
        <ele>1415.9929071909282</ele>
      </trkpt>
      <trkpt lat="48.610494" lon="23.932899">
        <ele>1434.2910977495394</ele>
      </trkpt>
      <trkpt lat="48.610711" lon="23.932143">
        <ele>1450.1144245982646</ele>
      </trkpt>
      <trkpt lat="48.610709" lon="23.932069">
        <ele>1451.0179065190641</ele>
      </trkpt>
      <trkpt lat="48.610711" lon="23.932031">
        <ele>1451.5431109116578</ele>
      </trkpt>
      <trkpt lat="48.610759" lon="23.931978">
        <ele>1453.2530377317453</ele>
      </trkpt>
      <trkpt lat="48.610797" lon="23.931912">
        <ele>1454.8590164454654</ele>
      </trkpt>
      <trkpt lat="48.610885" lon="23.93184">
        <ele>1457.6362486726139</ele>
      </trkpt>
      <trkpt lat="48.610959" lon="23.931763">
        <ele>1459.774954826585</ele>
      </trkpt>
      <trkpt lat="48.611061" lon="23.931659">
        <ele>1462.3992589277916</ele>
      </trkpt>
      <trkpt lat="48.611165" lon="23.931174">
        <ele>1468.2801203569397</ele>
      </trkpt>
      <trkpt lat="48.611212" lon="23.930937">
        <ele>1471.546749338059</ele>
      </trkpt>
      <trkpt lat="48.61149" lon="23.930702">
        <ele>1479.22130465589</ele>
      </trkpt>
      <trkpt lat="48.611906" lon="23.930303">
        <ele>1493.9739171385302</ele>
      </trkpt>
      <trkpt lat="48.612448" lon="23.929564">
        <ele>1517.0186033898526</ele>
      </trkpt>
      <trkpt lat="48.612887" lon="23.928364">
        <ele>1533.0554235249465</ele>
      </trkpt>
      <trkpt lat="48.616104" lon="23.93101">
        <ele>1640.1450667364988</ele>
      </trkpt>
      <trkpt lat="48.618522" lon="23.932614">
        <ele>1723.2233140742173</ele>
      </trkpt>
      <trkpt lat="48.619975" lon="23.932464">
        <ele>1740.6574307418418</ele>
      </trkpt>
      <trkpt lat="48.620101" lon="23.932338">
        <ele>1742.653864930151</ele>
      </trkpt>
      <trkpt lat="48.62047" lon="23.932316">
        <ele>1743.6567891157306</ele>
      </trkpt>
      <trkpt lat="48.62059" lon="23.93252">
        <ele>1740.9666381926143</ele>
      </trkpt>
      <trkpt lat="48.620725" lon="23.932552">
        <ele>1739.088842604559</ele>
      </trkpt>
      <trkpt lat="48.621569" lon="23.933175">
        <ele>1696.7206884389811</ele>
      </trkpt>
      <trkpt lat="48.622711" lon="23.934067">
        <ele>1644.346108264819</ele>
      </trkpt>
      <trkpt lat="48.623502" lon="23.934851">
        <ele>1614.173515516802</ele>
      </trkpt>
      <trkpt lat="48.62453" lon="23.936632">
        <ele>1533.5272721861472</ele>
      </trkpt>
      <trkpt lat="48.624693" lon="23.937147">
        <ele>1515.870663900394</ele>
      </trkpt>
      <trkpt lat="48.624913" lon="23.937501">
        <ele>1505.5210252834627</ele>
      </trkpt>
      <trkpt lat="48.625083" lon="23.937865">
        <ele>1496.4236107370816</ele>
      </trkpt>
      <trkpt lat="48.625211" lon="23.93808">
        <ele>1489.436230492644</ele>
      </trkpt>
      <trkpt lat="48.625133" lon="23.938423">
        <ele>1482.3062677608104</ele>
      </trkpt>
      <trkpt lat="48.625296" lon="23.938434">
        <ele>1477.6465908921086</ele>
      </trkpt>
      <trkpt lat="48.62524" lon="23.938767">
        <ele>1468.0991303390442</ele>
      </trkpt>
      <trkpt lat="48.625637" lon="23.938531">
        <ele>1460.8485594862934</ele>
      </trkpt>
      <trkpt lat="48.625474" lon="23.939292">
        <ele>1449.039185861554</ele>
      </trkpt>
      <trkpt lat="48.625786" lon="23.9394">
        <ele>1437.1756731496416</ele>
      </trkpt>
      <trkpt lat="48.625828" lon="23.939754">
        <ele>1426.8146912949296</ele>
      </trkpt>
      <trkpt lat="48.626048" lon="23.9397">
        <ele>1420.835844486137</ele>
      </trkpt>
      <trkpt lat="48.626147" lon="23.940151">
        <ele>1406.84752167542</ele>
      </trkpt>
      <trkpt lat="48.626317" lon="23.940151">
        <ele>1401.8834384225072</ele>
      </trkpt>
      <trkpt lat="48.626403" lon="23.940376">
        <ele>1395.0947428967138</ele>
      </trkpt>
      <trkpt lat="48.626573" lon="23.940279">
        <ele>1390.0681006284194</ele>
      </trkpt>
      <trkpt lat="48.62675" lon="23.940462">
        <ele>1378.9457772455644</ele>
      </trkpt>
      <trkpt lat="48.626821" lon="23.941181">
        <ele>1359.7710174554898</ele>
      </trkpt>
      <trkpt lat="48.626956" lon="23.941406">
        <ele>1348.766898546816</ele>
      </trkpt>
      <trkpt lat="48.627154" lon="23.941202">
        <ele>1343.0277662063056</ele>
      </trkpt>
      <trkpt lat="48.627105" lon="23.94176">
        <ele>1334.6229121195242</ele>
      </trkpt>
      <trkpt lat="48.627452" lon="23.942822">
        <ele>1297.1818944606348</ele>
      </trkpt>
      <trkpt lat="48.627385" lon="23.943651">
        <ele>1283.1164519063423</ele>
      </trkpt>
      <trkpt lat="48.627583" lon="23.944702">
        <ele>1263.2410189387379</ele>
      </trkpt>
      <trkpt lat="48.627853" lon="23.94556">
        <ele>1256.4839177962858</ele>
      </trkpt>
      <trkpt lat="48.628051" lon="23.946376">
        <ele>1253.9560839138617</ele>
      </trkpt>
      <trkpt lat="48.628094" lon="23.947406">
        <ele>1247.3464644700289</ele>
      </trkpt>
      <trkpt lat="48.628392" lon="23.949208">
        <ele>1237.2069495397154</ele>
      </trkpt>
      <trkpt lat="48.628434" lon="23.951461">
        <ele>1222.632658058661</ele>
      </trkpt>
      <trkpt lat="48.628704" lon="23.953264">
        <ele>1213.0404279084178</ele>
      </trkpt>
      <trkpt lat="48.629668" lon="23.95468">
        <ele>1217.0225600349295</ele>
      </trkpt>
      <trkpt lat="48.630023" lon="23.955121">
        <ele>1210.4874505374491</ele>
      </trkpt>
      <trkpt lat="48.630597" lon="23.955475">
        <ele>1208.7569301054464</ele>
      </trkpt>
      <trkpt lat="48.630817" lon="23.955443">
        <ele>1217.2347890877254</ele>
      </trkpt>
      <trkpt lat="48.631072" lon="23.956676">
        <ele>1202.3706353059024</ele>
      </trkpt>
      <trkpt lat="48.631795" lon="23.957277">
        <ele>1193.8114084753224</ele>
      </trkpt>
      <trkpt lat="48.632072" lon="23.957556">
        <ele>1198.3653591480106</ele>
      </trkpt>
      <trkpt lat="48.632121" lon="23.958017">
        <ele>1200.2224806264276</ele>
      </trkpt>
      <trkpt lat="48.632008" lon="23.958983">
        <ele>1207.5081321892794</ele>
      </trkpt>
      <trkpt lat="48.631724" lon="23.959841">
        <ele>1203.9151220385102</ele>
      </trkpt>
      <trkpt lat="48.631497" lon="23.960378">
        <ele>1196.7035078895278</ele>
      </trkpt>
      <trkpt lat="48.631256" lon="23.960281">
        <ele>1183.2900974959625</ele>
      </trkpt>
      <trkpt lat="48.631136" lon="23.959552">
        <ele>1162.9908560056406</ele>
      </trkpt>
      <trkpt lat="48.631051" lon="23.959058">
        <ele>1148.3988760495558</ele>
      </trkpt>
      <trkpt lat="48.631015" lon="23.958093">
        <ele>1136.030253451198</ele>
      </trkpt>
      <trkpt lat="48.629046" lon="23.958999">
        <ele>1047.187073670843</ele>
      </trkpt>
      <trkpt lat="48.628415" lon="23.959889">
        <ele>1014.3214126168857</ele>
      </trkpt>
      <trkpt lat="48.627798" lon="23.962089">
        <ele>983.0589351017885</ele>
      </trkpt>
      <trkpt lat="48.627855" lon="23.962432">
        <ele>979.0741930666845</ele>
      </trkpt>
      <trkpt lat="48.627607" lon="23.96358">
        <ele>965.8345520466205</ele>
      </trkpt>
      <trkpt lat="48.627316" lon="23.964353">
        <ele>956.6356859097787</ele>
      </trkpt>
      <trkpt lat="48.627103" lon="23.965254">
        <ele>942.8095539525384</ele>
      </trkpt>
      <trkpt lat="48.627082" lon="23.965758">
        <ele>940.3067080849621</ele>
      </trkpt>
      <trkpt lat="48.627309" lon="23.967131">
        <ele>928.3163064206019</ele>
      </trkpt>
      <trkpt lat="48.627451" lon="23.967904">
        <ele>909.5057723939376</ele>
      </trkpt>
      <trkpt lat="48.627947" lon="23.96859">
        <ele>900.9606015785952</ele>
      </trkpt>
      <trkpt lat="48.628006" lon="23.968589">
        <ele>902.6412869711555</ele>
      </trkpt>
      <trkpt lat="48.629012" lon="23.969558">
        <ele>896.2903363686214</ele>
      </trkpt>
      <trkpt lat="48.629857" lon="23.971302">
        <ele>889.0362560117501</ele>
      </trkpt>
      <trkpt lat="48.63025" lon="23.972617">
        <ele>875.8593853709754</ele>
      </trkpt>
      <trkpt lat="48.631825" lon="23.974988">
        <ele>862.9865452492269</ele>
      </trkpt>
      <trkpt lat="48.632942" lon="23.975921">
        <ele>859.7740167109296</ele>
      </trkpt>
      <trkpt lat="48.633477" lon="23.976614">
        <ele>852.1505055592617</ele>
      </trkpt>
      <trkpt lat="48.634365" lon="23.977041">
        <ele>848.9186364406487</ele>
      </trkpt>
      <trkpt lat="48.634742" lon="23.97757">
        <ele>843.6539741476299</ele>
      </trkpt>
      <trkpt lat="48.635662" lon="23.97822">
        <ele>845.9150388218994</ele>
      </trkpt>
      <trkpt lat="48.636352" lon="23.97908">
        <ele>842.4522734639845</ele>
      </trkpt>
      <trkpt lat="48.636911" lon="23.979425">
        <ele>838.2344139016595</ele>
      </trkpt>
      <trkpt lat="48.637414" lon="23.980576">
        <ele>823.4382578263883</ele>
      </trkpt>
      <trkpt lat="48.639496" lon="23.983336">
        <ele>811.4142844099671</ele>
      </trkpt>
      <trkpt lat="48.640543" lon="23.985176">
        <ele>802.1113628444728</ele>
      </trkpt>
      <trkpt lat="48.641187" lon="23.986723">
        <ele>796.4681510270955</ele>
      </trkpt>
      <trkpt lat="48.642755" lon="23.988892">
        <ele>784.3739731156385</ele>
      </trkpt>
      <trkpt lat="48.645018" lon="23.991213">
        <ele>768.6509042790858</ele>
      </trkpt>
      <trkpt lat="48.6458" lon="23.991491">
        <ele>766.6527765333885</ele>
      </trkpt>
      <trkpt lat="48.64659" lon="23.991174">
        <ele>765.3344277262222</ele>
      </trkpt>
      <trkpt lat="48.646885" lon="23.991218">
        <ele>764.5127623111475</ele>
      </trkpt>
      <trkpt lat="48.648266" lon="23.992651">
        <ele>756.1654253952036</ele>
      </trkpt>
      <trkpt lat="48.649237" lon="23.993098">
        <ele>750.1604575593956</ele>
      </trkpt>
      <trkpt lat="48.649639" lon="23.993453">
        <ele>747.505463371519</ele>
      </trkpt>
      <trkpt lat="48.650102" lon="23.994748">
        <ele>750.6439253813314</ele>
      </trkpt>
      <trkpt lat="48.650386" lon="24.001822">
        <ele>735.9581660721451</ele>
      </trkpt>
      <trkpt lat="48.64982" lon="24.004348">
        <ele>731.6393275157898</ele>
      </trkpt>
      <trkpt lat="48.64891" lon="24.007016">
        <ele>729.5346311373698</ele>
      </trkpt>
      <trkpt lat="48.647676" lon="24.009844">
        <ele>732.2617778313029</ele>
      </trkpt>
      <trkpt lat="48.647206" lon="24.013812">
        <ele>726.0221536291065</ele>
      </trkpt>
      <trkpt lat="48.64875" lon="24.014047">
        <ele>719.6518486845838</ele>
      </trkpt>
    </trkseg>
  </trk>
</gpx>
