<?xml version="1.0" encoding="UTF-8"?>
<gpx version="1.1" creator="phpGPX/1.0RC5" schemaLocation="http://www.topografix.com/GPX/1/1 http://www.topografix.com/GPX/1/1/gpx.xsd http://www.garmin.com/xmlschemas/GpxExtensions/v3 http://www.garmin.com/xmlschemas/GpxExtensionsv3.xsd http://www.garmin.com/xmlschemas/TrackPointExtension/v1 http://www.garmin.com/xmlschemas/TrackPointExtensionv1.xsd http://www.garmin.com/xmlschemas/PowerExtension/v1 http://www.garmin.com/xmlschemas/PowerExtensionv1.xsd http://www.topografix.com/GPX/gpx_style/0/2 http://www.topografix.com/GPX/gpx_style/0/2/gpx_style.xsd" xmlns="http://www.topografix.com/GPX/1/1" xmlns:xsi="http://www.w3.org/2001/XMLSchema-instance" xsi:schemaLocation="http://www.topografix.com/GPX/1/1 http://www.topografix.com/GPX/1/1/gpx.xsd http://www.garmin.com/xmlschemas/GpxExtensions/v3 http://www.garmin.com/xmlschemas/GpxExtensionsv3.xsd http://www.garmin.com/xmlschemas/TrackPointExtension/v1 http://www.garmin.com/xmlschemas/TrackPointExtensionv1.xsd http://www.garmin.com/xmlschemas/PowerExtension/v1 http://www.garmin.com/xmlschemas/PowerExtensionv1.xsd http://www.topografix.com/GPX/gpx_style/0/2 http://www.topografix.com/GPX/gpx_style/0/2/gpx_style.xsd" xmlns:gpxtpx="http://www.garmin.com/xmlschemas/TrackPointExtension/v1" xmlns:gpxx="http://www.garmin.com/xmlschemas/GpxExtensions/v3" xmlns:gpxpx="http://www.garmin.com/xmlschemas/PowerExtension/v1" xmlns:gpx_style="http://www.topografix.com/GPX/gpx_style/0/2">
  <metadata>
    <name>До місця падіння метеорита Боркут та мінерального джерела</name>
    <author>
      <name>gpx.studio</name>
      <link href="https://gpx.studio"/>
    </author>
  </metadata>
  <trk>
    <name>До місця падіння метеорита Боркут та мінерального джерела</name>
    <trkseg>
      <trkpt lat="48.146415" lon="24.28131">
        <ele>522.731787181925</ele>
      </trkpt>
      <trkpt lat="48.146305" lon="24.281524">
        <ele>521.5697048297734</ele>
      </trkpt>
      <trkpt lat="48.1462" lon="24.281741">
        <ele>520.3517870819855</ele>
      </trkpt>
      <trkpt lat="48.146085" lon="24.281917">
        <ele>518.7551844574045</ele>
      </trkpt>
      <trkpt lat="48.145985" lon="24.282202">
        <ele>517.2187416905529</ele>
      </trkpt>
      <trkpt lat="48.145866" lon="24.282764">
        <ele>521.9759624368744</ele>
      </trkpt>
      <trkpt lat="48.145795" lon="24.283067">
        <ele>531.7897749826037</ele>
      </trkpt>
      <trkpt lat="48.145946" lon="24.283283">
        <ele>539.4271091826572</ele>
      </trkpt>
      <trkpt lat="48.146093" lon="24.283359">
        <ele>544.6045873370663</ele>
      </trkpt>
      <trkpt lat="48.146191" lon="24.283496">
        <ele>552.022291932045</ele>
      </trkpt>
      <trkpt lat="48.146279" lon="24.283502">
        <ele>552.4870794106502</ele>
      </trkpt>
      <trkpt lat="48.146383" lon="24.283589">
        <ele>555.7345974688999</ele>
      </trkpt>
      <trkpt lat="48.146501" lon="24.283612">
        <ele>554.6777517594345</ele>
      </trkpt>
      <trkpt lat="48.146643" lon="24.283525">
        <ele>546.0920027702814</ele>
      </trkpt>
      <trkpt lat="48.14679" lon="24.283554">
        <ele>543.0489990847357</ele>
      </trkpt>
      <trkpt lat="48.146889" lon="24.283709">
        <ele>549.0648148560447</ele>
      </trkpt>
      <trkpt lat="48.147002" lon="24.283753">
        <ele>547.5493938237196</ele>
      </trkpt>
      <trkpt lat="48.147128" lon="24.283818">
        <ele>545.9343152552931</ele>
      </trkpt>
      <trkpt lat="48.147244" lon="24.283873">
        <ele>543.2949796585848</ele>
      </trkpt>
      <trkpt lat="48.147287" lon="24.284052">
        <ele>550.2105977563706</ele>
      </trkpt>
      <trkpt lat="48.147351" lon="24.284108">
        <ele>549.7702443509727</ele>
      </trkpt>
      <trkpt lat="48.147425" lon="24.284216">
        <ele>552.1095488971497</ele>
      </trkpt>
      <trkpt lat="48.1475" lon="24.284222">
        <ele>549.7554069221111</ele>
      </trkpt>
      <trkpt lat="48.147591" lon="24.284369">
        <ele>555.2872374218341</ele>
      </trkpt>
      <trkpt lat="48.147639" lon="24.284482">
        <ele>560.6103671862353</ele>
      </trkpt>
      <trkpt lat="48.147809" lon="24.284623">
        <ele>564.0046309389909</ele>
      </trkpt>
      <trkpt lat="48.147907" lon="24.284663">
        <ele>562.6729805854266</ele>
      </trkpt>
      <trkpt lat="48.147922" lon="24.28493">
        <ele>572.4750078542008</ele>
      </trkpt>
      <trkpt lat="48.147996" lon="24.284989">
        <ele>571.6208897158474</ele>
      </trkpt>
      <trkpt lat="48.148074" lon="24.285124">
        <ele>572.2756301329019</ele>
      </trkpt>
      <trkpt lat="48.148054" lon="24.285382">
        <ele>576.2444076622003</ele>
      </trkpt>
      <trkpt lat="48.148094" lon="24.28559">
        <ele>578.5597206044938</ele>
      </trkpt>
      <trkpt lat="48.148367" lon="24.285583">
        <ele>578.5104727089638</ele>
      </trkpt>
      <trkpt lat="48.148531" lon="24.285494">
        <ele>576.5438531026676</ele>
      </trkpt>
      <trkpt lat="48.148729" lon="24.285637">
        <ele>579.4444637310778</ele>
      </trkpt>
      <trkpt lat="48.149003" lon="24.285503">
        <ele>573.5647644697456</ele>
      </trkpt>
      <trkpt lat="48.149047" lon="24.285317">
        <ele>568.7966761020361</ele>
      </trkpt>
      <trkpt lat="48.149172" lon="24.285282">
        <ele>567.8831752449541</ele>
      </trkpt>
      <trkpt lat="48.149255" lon="24.285089">
        <ele>564.0350376946908</ele>
      </trkpt>
      <trkpt lat="48.149456" lon="24.284715">
        <ele>551.6672165561242</ele>
      </trkpt>
      <trkpt lat="48.149679" lon="24.284528">
        <ele>546.3510683177738</ele>
      </trkpt>
      <trkpt lat="48.149708" lon="24.284203">
        <ele>533.3618111647479</ele>
      </trkpt>
      <trkpt lat="48.149732" lon="24.283928">
        <ele>526.0234097145875</ele>
      </trkpt>
      <trkpt lat="48.149543" lon="24.284113">
        <ele>527.1374935051426</ele>
      </trkpt>
      <trkpt lat="48.149293" lon="24.284388">
        <ele>534.6346133745124</ele>
      </trkpt>
      <trkpt lat="48.149073" lon="24.284453">
        <ele>539.1010222405894</ele>
      </trkpt>
      <trkpt lat="48.148754" lon="24.284563">
        <ele>543.4948333020203</ele>
      </trkpt>
      <trkpt lat="48.149047" lon="24.284419">
        <ele>537.7435189596144</ele>
      </trkpt>
      <trkpt lat="48.149162" lon="24.28443">
        <ele>537.2520656331908</ele>
      </trkpt>
      <trkpt lat="48.149405" lon="24.284259">
        <ele>529.7692382095846</ele>
      </trkpt>
      <trkpt lat="48.149604" lon="24.284066">
        <ele>526.9248950476087</ele>
      </trkpt>
      <trkpt lat="48.149803" lon="24.283833">
        <ele>525.806280184202</ele>
      </trkpt>
      <trkpt lat="48.149971" lon="24.283558">
        <ele>524.5155598996679</ele>
      </trkpt>
      <trkpt lat="48.150206" lon="24.283266">
        <ele>524.2323299254986</ele>
      </trkpt>
      <trkpt lat="48.150446" lon="24.282933">
        <ele>523.6929483034867</ele>
      </trkpt>
      <trkpt lat="48.150598" lon="24.282781">
        <ele>523.9415593834866</ele>
      </trkpt>
      <trkpt lat="48.150757" lon="24.282653">
        <ele>524.0219430089039</ele>
      </trkpt>
      <trkpt lat="48.150876" lon="24.2825">
        <ele>523.9045725296019</ele>
      </trkpt>
      <trkpt lat="48.151004" lon="24.282354">
        <ele>523.6305793197826</ele>
      </trkpt>
      <trkpt lat="48.151157" lon="24.282235">
        <ele>524.0377512711373</ele>
      </trkpt>
      <trkpt lat="48.151366" lon="24.282111">
        <ele>524.7777166296728</ele>
      </trkpt>
      <trkpt lat="48.151551" lon="24.281983">
        <ele>524.8397376292851</ele>
      </trkpt>
      <trkpt lat="48.151753" lon="24.281874">
        <ele>525.0866637644358</ele>
      </trkpt>
      <trkpt lat="48.152158" lon="24.281975">
        <ele>527.1351466667838</ele>
      </trkpt>
      <trkpt lat="48.152379" lon="24.282103">
        <ele>528.5048369779252</ele>
      </trkpt>
      <trkpt lat="48.152458" lon="24.282138">
        <ele>528.9126165332273</ele>
      </trkpt>
      <trkpt lat="48.152259" lon="24.281982">
        <ele>527.1705223389938</ele>
      </trkpt>
      <trkpt lat="48.152428" lon="24.282147">
        <ele>529.0174741335213</ele>
      </trkpt>
      <trkpt lat="48.152554" lon="24.281672">
        <ele>525.4305938987941</ele>
      </trkpt>
    </trkseg>
  </trk>
</gpx>
