<?xml version="1.0" encoding="UTF-8"?>
<gpx version="1.1" creator="phpGPX/1.0RC5" schemaLocation="http://www.topografix.com/GPX/1/1 http://www.topografix.com/GPX/1/1/gpx.xsd http://www.garmin.com/xmlschemas/GpxExtensions/v3 http://www.garmin.com/xmlschemas/GpxExtensionsv3.xsd http://www.garmin.com/xmlschemas/TrackPointExtension/v1 http://www.garmin.com/xmlschemas/TrackPointExtensionv1.xsd http://www.garmin.com/xmlschemas/PowerExtension/v1 http://www.garmin.com/xmlschemas/PowerExtensionv1.xsd http://www.topografix.com/GPX/gpx_style/0/2 http://www.topografix.com/GPX/gpx_style/0/2/gpx_style.xsd" xmlns="http://www.topografix.com/GPX/1/1" xmlns:xsi="http://www.w3.org/2001/XMLSchema-instance" xsi:schemaLocation="http://www.topografix.com/GPX/1/1 http://www.topografix.com/GPX/1/1/gpx.xsd http://www.garmin.com/xmlschemas/GpxExtensions/v3 http://www.garmin.com/xmlschemas/GpxExtensionsv3.xsd http://www.garmin.com/xmlschemas/TrackPointExtension/v1 http://www.garmin.com/xmlschemas/TrackPointExtensionv1.xsd http://www.garmin.com/xmlschemas/PowerExtension/v1 http://www.garmin.com/xmlschemas/PowerExtensionv1.xsd http://www.topografix.com/GPX/gpx_style/0/2 http://www.topografix.com/GPX/gpx_style/0/2/gpx_style.xsd" xmlns:gpxtpx="http://www.garmin.com/xmlschemas/TrackPointExtension/v1" xmlns:gpxx="http://www.garmin.com/xmlschemas/GpxExtensions/v3" xmlns:gpxpx="http://www.garmin.com/xmlschemas/PowerExtension/v1" xmlns:gpx_style="http://www.topografix.com/GPX/gpx_style/0/2">
  <metadata>
    <name>Зачарований край на Закарпатті</name>
    <author>
      <name>gpx.studio</name>
      <link href="https://gpx.studio"/>
    </author>
  </metadata>
  <trk>
    <name>Зачарований край на Закарпатті</name>
    <trkseg>
      <trkpt lat="48.343265" lon="23.078207">
        <ele>192.06576571493252</ele>
      </trkpt>
      <trkpt lat="48.344734" lon="23.076748">
        <ele>190</ele>
      </trkpt>
      <trkpt lat="48.345276" lon="23.076555">
        <ele>190.5</ele>
      </trkpt>
      <trkpt lat="48.345633" lon="23.076512">
        <ele>191.95476642740311</ele>
      </trkpt>
      <trkpt lat="48.346774" lon="23.076211">
        <ele>198.15331016883556</ele>
      </trkpt>
      <trkpt lat="48.348628" lon="23.075096">
        <ele>202.00868353529023</ele>
      </trkpt>
      <trkpt lat="48.349061" lon="23.074846">
        <ele>197.59010920552012</ele>
      </trkpt>
      <trkpt lat="48.34966" lon="23.072829">
        <ele>191.87449743720936</ele>
      </trkpt>
      <trkpt lat="48.350401" lon="23.071863">
        <ele>202.0180537405393</ele>
      </trkpt>
      <trkpt lat="48.3513" lon="23.071198">
        <ele>211.64610566641204</ele>
      </trkpt>
      <trkpt lat="48.351656" lon="23.07034">
        <ele>212.0416395400243</ele>
      </trkpt>
      <trkpt lat="48.351884" lon="23.069546">
        <ele>214</ele>
      </trkpt>
      <trkpt lat="48.352112" lon="23.069246">
        <ele>213.66928981018054</ele>
      </trkpt>
      <trkpt lat="48.352532" lon="23.069828">
        <ele>215</ele>
      </trkpt>
      <trkpt lat="48.353017" lon="23.070407">
        <ele>216.5</ele>
      </trkpt>
      <trkpt lat="48.35353" lon="23.071309">
        <ele>219.58190887852106</ele>
      </trkpt>
      <trkpt lat="48.353773" lon="23.071995">
        <ele>220.63048332257202</ele>
      </trkpt>
      <trkpt lat="48.354971" lon="23.072768">
        <ele>222.38456462230533</ele>
      </trkpt>
      <trkpt lat="48.355655" lon="23.072725">
        <ele>224.0971718471603</ele>
      </trkpt>
      <trkpt lat="48.356097" lon="23.072489">
        <ele>226.33360504650045</ele>
      </trkpt>
      <trkpt lat="48.357166" lon="23.072768">
        <ele>231.026891167438</ele>
      </trkpt>
      <trkpt lat="48.358219" lon="23.072875">
        <ele>236.13520146353403</ele>
      </trkpt>
      <trkpt lat="48.359245" lon="23.074141">
        <ele>237.34482840425335</ele>
      </trkpt>
      <trkpt lat="48.361954" lon="23.074828">
        <ele>250.90055423451122</ele>
      </trkpt>
      <trkpt lat="48.362225" lon="23.075107">
        <ele>251.8450945724148</ele>
      </trkpt>
      <trkpt lat="48.363608" lon="23.075579">
        <ele>261.515870232653</ele>
      </trkpt>
      <trkpt lat="48.365147" lon="23.0756">
        <ele>273.9503461879425</ele>
      </trkpt>
      <trkpt lat="48.365989" lon="23.075836">
        <ele>278.05489788588767</ele>
      </trkpt>
      <trkpt lat="48.366559" lon="23.075622">
        <ele>282.9554062926909</ele>
      </trkpt>
      <trkpt lat="48.366929" lon="23.075986">
        <ele>283.57239863232587</ele>
      </trkpt>
      <trkpt lat="48.367699" lon="23.076244">
        <ele>287.9570236550644</ele>
      </trkpt>
      <trkpt lat="48.369039" lon="23.076265">
        <ele>300.13853954318705</ele>
      </trkpt>
      <trkpt lat="48.371006" lon="23.076351">
        <ele>319.7061477852985</ele>
      </trkpt>
      <trkpt lat="48.37116" lon="23.075729">
        <ele>326.190315919868</ele>
      </trkpt>
      <trkpt lat="48.371346" lon="23.075214">
        <ele>333.98106546078355</ele>
      </trkpt>
      <trkpt lat="48.371702" lon="23.074806">
        <ele>341.5162580985343</ele>
      </trkpt>
      <trkpt lat="48.372429" lon="23.072553">
        <ele>366.1854091631249</ele>
      </trkpt>
      <trkpt lat="48.373298" lon="23.071995">
        <ele>376.34782663118375</ele>
      </trkpt>
      <trkpt lat="48.374182" lon="23.071931">
        <ele>383.0004462450743</ele>
      </trkpt>
      <trkpt lat="48.374952" lon="23.072017">
        <ele>388.6328182336067</ele>
      </trkpt>
      <trkpt lat="48.375465" lon="23.07163">
        <ele>395.509162115741</ele>
      </trkpt>
      <trkpt lat="48.376876" lon="23.071738">
        <ele>407.5300081068999</ele>
      </trkpt>
      <trkpt lat="48.377788" lon="23.072381">
        <ele>426.4533724961109</ele>
      </trkpt>
      <trkpt lat="48.379054" lon="23.07169">
        <ele>451.9154743628843</ele>
      </trkpt>
      <trkpt lat="48.379938" lon="23.071325">
        <ele>465.94308975012973</ele>
      </trkpt>
      <trkpt lat="48.380964" lon="23.070788">
        <ele>474.2385597699322</ele>
      </trkpt>
      <trkpt lat="48.381434" lon="23.070831">
        <ele>476.42660685302684</ele>
      </trkpt>
      <trkpt lat="48.382161" lon="23.070488">
        <ele>485.1051909886301</ele>
      </trkpt>
      <trkpt lat="48.382332" lon="23.070767">
        <ele>487.7979922163067</ele>
      </trkpt>
      <trkpt lat="48.383458" lon="23.071582">
        <ele>502.7146987751047</ele>
      </trkpt>
      <trkpt lat="48.3836" lon="23.072484">
        <ele>515.6043516066857</ele>
      </trkpt>
      <trkpt lat="48.383828" lon="23.072784">
        <ele>522.7450392869068</ele>
      </trkpt>
      <trkpt lat="48.384423" lon="23.072848">
        <ele>529.1691116750754</ele>
      </trkpt>
      <trkpt lat="48.384552" lon="23.072698">
        <ele>530.562901635752</ele>
      </trkpt>
      <trkpt lat="48.384566" lon="23.072333">
        <ele>529.1689422228432</ele>
      </trkpt>
      <trkpt lat="48.384794" lon="23.07199">
        <ele>535.2988424518844</ele>
      </trkpt>
      <trkpt lat="48.38535" lon="23.072183">
        <ele>547.3419923961358</ele>
      </trkpt>
      <trkpt lat="48.385934" lon="23.072161">
        <ele>550.1044569415972</ele>
      </trkpt>
      <trkpt lat="48.386547" lon="23.071882">
        <ele>553.7254803474061</ele>
      </trkpt>
      <trkpt lat="48.387131" lon="23.07199">
        <ele>560.950168150344</ele>
      </trkpt>
      <trkpt lat="48.387273" lon="23.07244">
        <ele>571.9068602694897</ele>
      </trkpt>
      <trkpt lat="48.387957" lon="23.072784">
        <ele>575.6734046479039</ele>
      </trkpt>
      <trkpt lat="48.38934" lon="23.07302">
        <ele>576.1003610295011</ele>
      </trkpt>
      <trkpt lat="48.390993" lon="23.074028">
        <ele>596.6069662336959</ele>
      </trkpt>
      <trkpt lat="48.39224" lon="23.074307">
        <ele>596.6873740777373</ele>
      </trkpt>
      <trkpt lat="48.392725" lon="23.07538">
        <ele>617.6914734992897</ele>
      </trkpt>
      <trkpt lat="48.394064" lon="23.07611">
        <ele>629.1248402369605</ele>
      </trkpt>
      <trkpt lat="48.394919" lon="23.076238">
        <ele>632.0276276850136</ele>
      </trkpt>
      <trkpt lat="48.395603" lon="23.076002">
        <ele>637.0549840492687</ele>
      </trkpt>
      <trkpt lat="48.396828" lon="23.075144">
        <ele>642.8771010544151</ele>
      </trkpt>
      <trkpt lat="48.397427" lon="23.0745">
        <ele>641.4600956813069</ele>
      </trkpt>
      <trkpt lat="48.399629" lon="23.074267">
        <ele>640.9409263808047</ele>
      </trkpt>
      <trkpt lat="48.400968" lon="23.073988">
        <ele>666.7228865710786</ele>
      </trkpt>
      <trkpt lat="48.402008" lon="23.074868">
        <ele>681.1371702715231</ele>
      </trkpt>
      <trkpt lat="48.402635" lon="23.075125">
        <ele>696.4969522052041</ele>
      </trkpt>
      <trkpt lat="48.404287" lon="23.074675">
        <ele>717.1399351656437</ele>
      </trkpt>
      <trkpt lat="48.404681" lon="23.074827">
        <ele>722.2361507550813</ele>
      </trkpt>
      <trkpt lat="48.40498" lon="23.075342">
        <ele>725.509414890332</ele>
      </trkpt>
      <trkpt lat="48.405194" lon="23.076522">
        <ele>747.4682444400387</ele>
      </trkpt>
      <trkpt lat="48.405806" lon="23.077444">
        <ele>751.4133474800037</ele>
      </trkpt>
      <trkpt lat="48.406163" lon="23.078389">
        <ele>753.5857309115069</ele>
      </trkpt>
      <trkpt lat="48.406291" lon="23.079118">
        <ele>759.1999506166367</ele>
      </trkpt>
      <trkpt lat="48.406875" lon="23.079569">
        <ele>763.3222770668259</ele>
      </trkpt>
      <trkpt lat="48.408185" lon="23.079504">
        <ele>799.2005513733243</ele>
      </trkpt>
      <trkpt lat="48.408954" lon="23.079333">
        <ele>811.1446318090893</ele>
      </trkpt>
      <trkpt lat="48.409667" lon="23.079268">
        <ele>828.4571516103151</ele>
      </trkpt>
      <trkpt lat="48.410357" lon="23.079022">
        <ele>841.6662864675745</ele>
      </trkpt>
      <trkpt lat="48.410949" lon="23.078174">
        <ele>851.4403028051602</ele>
      </trkpt>
      <trkpt lat="48.41139" lon="23.077638">
        <ele>855.9790874248237</ele>
      </trkpt>
      <trkpt lat="48.411832" lon="23.077097">
        <ele>858.6938139475789</ele>
      </trkpt>
      <trkpt lat="48.412202" lon="23.076517">
        <ele>867.0333889016136</ele>
      </trkpt>
      <trkpt lat="48.412359" lon="23.076196">
        <ele>866.2591098810171</ele>
      </trkpt>
      <trkpt lat="48.412458" lon="23.075509">
        <ele>857.0534279307606</ele>
      </trkpt>
      <trkpt lat="48.412686" lon="23.074972">
        <ele>856.5487081166532</ele>
      </trkpt>
      <trkpt lat="48.412943" lon="23.074736">
        <ele>862.5836427087391</ele>
      </trkpt>
      <trkpt lat="48.41337" lon="23.075015">
        <ele>875.877568349475</ele>
      </trkpt>
      <trkpt lat="48.413811" lon="23.07626">
        <ele>879.9540501704678</ele>
      </trkpt>
      <trkpt lat="48.413883" lon="23.077719">
        <ele>879.2293863685337</ele>
      </trkpt>
      <trkpt lat="48.41384" lon="23.078985">
        <ele>891.343691435528</ele>
      </trkpt>
      <trkpt lat="48.413968" lon="23.080294">
        <ele>898.8975064391332</ele>
      </trkpt>
      <trkpt lat="48.414728" lon="23.085031">
        <ele>888.5389277125164</ele>
      </trkpt>
      <trkpt lat="48.415098" lon="23.087906">
        <ele>879.3237094163741</ele>
      </trkpt>
      <trkpt lat="48.418744" lon="23.091768">
        <ele>893.7957190777249</ele>
      </trkpt>
      <trkpt lat="48.419057" lon="23.092498">
        <ele>899.4754100260159</ele>
      </trkpt>
      <trkpt lat="48.418773" lon="23.096274">
        <ele>849.6782848000294</ele>
      </trkpt>
      <trkpt lat="48.419456" lon="23.100137">
        <ele>884.9291712530968</ele>
      </trkpt>
      <trkpt lat="48.421307" lon="23.10151">
        <ele>888.6286263046785</ele>
      </trkpt>
      <trkpt lat="48.423386" lon="23.102283">
        <ele>863.6301263254672</ele>
      </trkpt>
      <trkpt lat="48.422784" lon="23.101001">
        <ele>857.7206702996652</ele>
      </trkpt>
      <trkpt lat="48.422442" lon="23.099671">
        <ele>854.6092150754621</ele>
      </trkpt>
      <trkpt lat="48.422613" lon="23.098512">
        <ele>858.4545151185139</ele>
      </trkpt>
      <trkpt lat="48.423012" lon="23.097225">
        <ele>868.7836254597643</ele>
      </trkpt>
      <trkpt lat="48.42324" lon="23.096495">
        <ele>868.0715220716665</ele>
      </trkpt>
      <trkpt lat="48.424351" lon="23.094435">
        <ele>860.1682497885117</ele>
      </trkpt>
      <trkpt lat="48.425006" lon="23.094521">
        <ele>848.8159635731718</ele>
      </trkpt>
      <trkpt lat="48.426287" lon="23.093749">
        <ele>852.9815284758806</ele>
      </trkpt>
      <trkpt lat="48.426971" lon="23.094135">
        <ele>850.5776936052134</ele>
      </trkpt>
      <trkpt lat="48.428252" lon="23.093878">
        <ele>848.7881119044994</ele>
      </trkpt>
      <trkpt lat="48.430018" lon="23.092118">
        <ele>849.47208891646</ele>
      </trkpt>
      <trkpt lat="48.431157" lon="23.09126">
        <ele>846.401842398124</ele>
      </trkpt>
      <trkpt lat="48.43278" lon="23.091603">
        <ele>840.1964141357371</ele>
      </trkpt>
      <trkpt lat="48.43278" lon="23.091603">
        <ele>840.1964141357371</ele>
      </trkpt>
      <trkpt lat="48.431157" lon="23.09126">
        <ele>846.401842398124</ele>
      </trkpt>
      <trkpt lat="48.430018" lon="23.092118">
        <ele>849.47208891646</ele>
      </trkpt>
      <trkpt lat="48.428252" lon="23.093878">
        <ele>848.7881119044994</ele>
      </trkpt>
      <trkpt lat="48.426971" lon="23.094135">
        <ele>850.5776936052134</ele>
      </trkpt>
      <trkpt lat="48.426287" lon="23.093749">
        <ele>852.9815284758806</ele>
      </trkpt>
      <trkpt lat="48.425006" lon="23.094521">
        <ele>848.8159635731718</ele>
      </trkpt>
      <trkpt lat="48.424351" lon="23.094435">
        <ele>860.1682497885117</ele>
      </trkpt>
      <trkpt lat="48.42324" lon="23.096495">
        <ele>868.0715220716665</ele>
      </trkpt>
      <trkpt lat="48.423012" lon="23.097225">
        <ele>868.7836254597643</ele>
      </trkpt>
      <trkpt lat="48.422613" lon="23.098512">
        <ele>858.4545151185139</ele>
      </trkpt>
      <trkpt lat="48.422442" lon="23.099671">
        <ele>854.6092150754621</ele>
      </trkpt>
      <trkpt lat="48.422784" lon="23.101001">
        <ele>857.7206702996652</ele>
      </trkpt>
      <trkpt lat="48.423386" lon="23.102283">
        <ele>863.6301263254672</ele>
      </trkpt>
      <trkpt lat="48.421307" lon="23.10151">
        <ele>888.6286263046785</ele>
      </trkpt>
      <trkpt lat="48.419456" lon="23.100137">
        <ele>884.9291712530968</ele>
      </trkpt>
      <trkpt lat="48.418773" lon="23.096274">
        <ele>849.6782848000294</ele>
      </trkpt>
      <trkpt lat="48.419057" lon="23.092498">
        <ele>899.4754100260159</ele>
      </trkpt>
      <trkpt lat="48.418744" lon="23.091768">
        <ele>893.7957190777249</ele>
      </trkpt>
      <trkpt lat="48.415098" lon="23.087906">
        <ele>879.3237094163741</ele>
      </trkpt>
      <trkpt lat="48.414728" lon="23.085031">
        <ele>888.5389277125164</ele>
      </trkpt>
      <trkpt lat="48.413968" lon="23.080294">
        <ele>898.8975064391332</ele>
      </trkpt>
      <trkpt lat="48.41384" lon="23.078985">
        <ele>891.343691435528</ele>
      </trkpt>
      <trkpt lat="48.413883" lon="23.077719">
        <ele>879.2293863685337</ele>
      </trkpt>
      <trkpt lat="48.413811" lon="23.07626">
        <ele>879.9540501704678</ele>
      </trkpt>
      <trkpt lat="48.41337" lon="23.075015">
        <ele>875.877568349475</ele>
      </trkpt>
      <trkpt lat="48.412943" lon="23.074736">
        <ele>862.5836427087391</ele>
      </trkpt>
      <trkpt lat="48.412686" lon="23.074972">
        <ele>856.5487081166532</ele>
      </trkpt>
      <trkpt lat="48.412458" lon="23.075509">
        <ele>857.0534279307606</ele>
      </trkpt>
      <trkpt lat="48.412359" lon="23.076196">
        <ele>866.2591098810171</ele>
      </trkpt>
      <trkpt lat="48.412202" lon="23.076517">
        <ele>867.0333889016136</ele>
      </trkpt>
      <trkpt lat="48.411832" lon="23.077097">
        <ele>858.6938139475789</ele>
      </trkpt>
      <trkpt lat="48.41139" lon="23.077638">
        <ele>855.9790874248237</ele>
      </trkpt>
      <trkpt lat="48.410949" lon="23.078174">
        <ele>851.4403028051602</ele>
      </trkpt>
      <trkpt lat="48.410357" lon="23.079022">
        <ele>841.6662864675745</ele>
      </trkpt>
      <trkpt lat="48.409667" lon="23.079268">
        <ele>828.4571516103151</ele>
      </trkpt>
      <trkpt lat="48.408954" lon="23.079333">
        <ele>811.1446318090893</ele>
      </trkpt>
      <trkpt lat="48.408185" lon="23.079504">
        <ele>799.2005513733243</ele>
      </trkpt>
      <trkpt lat="48.406875" lon="23.079569">
        <ele>763.3222770668259</ele>
      </trkpt>
      <trkpt lat="48.406291" lon="23.079118">
        <ele>759.1999506166367</ele>
      </trkpt>
      <trkpt lat="48.406163" lon="23.078389">
        <ele>753.5857309115069</ele>
      </trkpt>
      <trkpt lat="48.405806" lon="23.077444">
        <ele>751.4133474800037</ele>
      </trkpt>
      <trkpt lat="48.405194" lon="23.076522">
        <ele>747.4682444400387</ele>
      </trkpt>
      <trkpt lat="48.40498" lon="23.075342">
        <ele>725.509414890332</ele>
      </trkpt>
      <trkpt lat="48.404681" lon="23.074827">
        <ele>722.2361507550813</ele>
      </trkpt>
      <trkpt lat="48.404287" lon="23.074675">
        <ele>717.1399351656437</ele>
      </trkpt>
      <trkpt lat="48.402635" lon="23.075125">
        <ele>696.4969522052041</ele>
      </trkpt>
      <trkpt lat="48.402008" lon="23.074868">
        <ele>681.1371702715231</ele>
      </trkpt>
      <trkpt lat="48.400968" lon="23.073988">
        <ele>666.7228865710786</ele>
      </trkpt>
      <trkpt lat="48.399629" lon="23.074267">
        <ele>640.9409263808047</ele>
      </trkpt>
      <trkpt lat="48.397427" lon="23.0745">
        <ele>641.4600956813069</ele>
      </trkpt>
      <trkpt lat="48.396828" lon="23.075144">
        <ele>642.8771010544151</ele>
      </trkpt>
      <trkpt lat="48.395603" lon="23.076002">
        <ele>637.0549840492687</ele>
      </trkpt>
      <trkpt lat="48.394919" lon="23.076238">
        <ele>632.0276276850136</ele>
      </trkpt>
      <trkpt lat="48.394064" lon="23.07611">
        <ele>629.1248402369605</ele>
      </trkpt>
      <trkpt lat="48.392725" lon="23.07538">
        <ele>617.6914734992897</ele>
      </trkpt>
      <trkpt lat="48.39224" lon="23.074307">
        <ele>596.6873740777373</ele>
      </trkpt>
      <trkpt lat="48.390993" lon="23.074028">
        <ele>596.6069662336959</ele>
      </trkpt>
      <trkpt lat="48.38934" lon="23.07302">
        <ele>576.1003610295011</ele>
      </trkpt>
      <trkpt lat="48.387957" lon="23.072784">
        <ele>575.6734046479039</ele>
      </trkpt>
      <trkpt lat="48.387273" lon="23.07244">
        <ele>571.9068602694897</ele>
      </trkpt>
      <trkpt lat="48.387131" lon="23.07199">
        <ele>560.950168150344</ele>
      </trkpt>
      <trkpt lat="48.386547" lon="23.071882">
        <ele>553.7254803474061</ele>
      </trkpt>
      <trkpt lat="48.385934" lon="23.072161">
        <ele>550.1044569415972</ele>
      </trkpt>
      <trkpt lat="48.38535" lon="23.072183">
        <ele>547.3419923961358</ele>
      </trkpt>
      <trkpt lat="48.384794" lon="23.07199">
        <ele>535.2988424518844</ele>
      </trkpt>
      <trkpt lat="48.384566" lon="23.072333">
        <ele>529.1689422228432</ele>
      </trkpt>
      <trkpt lat="48.384552" lon="23.072698">
        <ele>530.562901635752</ele>
      </trkpt>
      <trkpt lat="48.384423" lon="23.072848">
        <ele>529.1691116750754</ele>
      </trkpt>
      <trkpt lat="48.383828" lon="23.072784">
        <ele>522.7450392869068</ele>
      </trkpt>
      <trkpt lat="48.3836" lon="23.072484">
        <ele>515.6043516066857</ele>
      </trkpt>
      <trkpt lat="48.383458" lon="23.071582">
        <ele>502.7146987751047</ele>
      </trkpt>
      <trkpt lat="48.382332" lon="23.070767">
        <ele>487.7979922163067</ele>
      </trkpt>
      <trkpt lat="48.382161" lon="23.070488">
        <ele>485.1051909886301</ele>
      </trkpt>
      <trkpt lat="48.381434" lon="23.070831">
        <ele>476.42660685302684</ele>
      </trkpt>
      <trkpt lat="48.380964" lon="23.070788">
        <ele>474.2385597699322</ele>
      </trkpt>
      <trkpt lat="48.379938" lon="23.071325">
        <ele>465.94308975012973</ele>
      </trkpt>
      <trkpt lat="48.379054" lon="23.07169">
        <ele>451.9154743628843</ele>
      </trkpt>
      <trkpt lat="48.377788" lon="23.072381">
        <ele>426.4533724961109</ele>
      </trkpt>
      <trkpt lat="48.376876" lon="23.071738">
        <ele>407.5300081068999</ele>
      </trkpt>
      <trkpt lat="48.375465" lon="23.07163">
        <ele>395.509162115741</ele>
      </trkpt>
      <trkpt lat="48.374952" lon="23.072017">
        <ele>388.6328182336067</ele>
      </trkpt>
      <trkpt lat="48.374182" lon="23.071931">
        <ele>383.0004462450743</ele>
      </trkpt>
      <trkpt lat="48.373298" lon="23.071995">
        <ele>376.34782663118375</ele>
      </trkpt>
      <trkpt lat="48.372429" lon="23.072553">
        <ele>366.1854091631249</ele>
      </trkpt>
      <trkpt lat="48.371702" lon="23.074806">
        <ele>341.5162580985343</ele>
      </trkpt>
      <trkpt lat="48.371346" lon="23.075214">
        <ele>333.98106546078355</ele>
      </trkpt>
      <trkpt lat="48.37116" lon="23.075729">
        <ele>326.190315919868</ele>
      </trkpt>
      <trkpt lat="48.371006" lon="23.076351">
        <ele>319.7061477852985</ele>
      </trkpt>
      <trkpt lat="48.369039" lon="23.076265">
        <ele>300.13853954318705</ele>
      </trkpt>
      <trkpt lat="48.367699" lon="23.076244">
        <ele>287.9570236550644</ele>
      </trkpt>
      <trkpt lat="48.366929" lon="23.075986">
        <ele>283.57239863232587</ele>
      </trkpt>
      <trkpt lat="48.366559" lon="23.075622">
        <ele>282.9554062926909</ele>
      </trkpt>
      <trkpt lat="48.365989" lon="23.075836">
        <ele>278.05489788588767</ele>
      </trkpt>
      <trkpt lat="48.365147" lon="23.0756">
        <ele>273.9503461879425</ele>
      </trkpt>
      <trkpt lat="48.363608" lon="23.075579">
        <ele>261.515870232653</ele>
      </trkpt>
      <trkpt lat="48.362225" lon="23.075107">
        <ele>251.8450945724148</ele>
      </trkpt>
      <trkpt lat="48.361954" lon="23.074828">
        <ele>250.90055423451122</ele>
      </trkpt>
      <trkpt lat="48.359245" lon="23.074141">
        <ele>237.34482840425335</ele>
      </trkpt>
      <trkpt lat="48.358219" lon="23.072875">
        <ele>236.13520146353403</ele>
      </trkpt>
      <trkpt lat="48.357166" lon="23.072768">
        <ele>231.026891167438</ele>
      </trkpt>
      <trkpt lat="48.356097" lon="23.072489">
        <ele>226.33360504650045</ele>
      </trkpt>
      <trkpt lat="48.355655" lon="23.072725">
        <ele>224.0971718471603</ele>
      </trkpt>
      <trkpt lat="48.354971" lon="23.072768">
        <ele>222.38456462230533</ele>
      </trkpt>
      <trkpt lat="48.353773" lon="23.071995">
        <ele>220.63048332257202</ele>
      </trkpt>
      <trkpt lat="48.35353" lon="23.071309">
        <ele>219.58190887852106</ele>
      </trkpt>
      <trkpt lat="48.353017" lon="23.070407">
        <ele>216.5</ele>
      </trkpt>
      <trkpt lat="48.352532" lon="23.069828">
        <ele>215</ele>
      </trkpt>
      <trkpt lat="48.352112" lon="23.069246">
        <ele>213.66928981018054</ele>
      </trkpt>
      <trkpt lat="48.351884" lon="23.069546">
        <ele>214</ele>
      </trkpt>
      <trkpt lat="48.351656" lon="23.07034">
        <ele>212.0416395400243</ele>
      </trkpt>
      <trkpt lat="48.3513" lon="23.071198">
        <ele>211.64610566641204</ele>
      </trkpt>
      <trkpt lat="48.350401" lon="23.071863">
        <ele>202.0180537405393</ele>
      </trkpt>
      <trkpt lat="48.34966" lon="23.072829">
        <ele>191.87449743720936</ele>
      </trkpt>
      <trkpt lat="48.349061" lon="23.074846">
        <ele>197.59010920552012</ele>
      </trkpt>
      <trkpt lat="48.348628" lon="23.075096">
        <ele>202.00868353529023</ele>
      </trkpt>
      <trkpt lat="48.346774" lon="23.076211">
        <ele>198.15331016883556</ele>
      </trkpt>
      <trkpt lat="48.345633" lon="23.076512">
        <ele>191.95476642740311</ele>
      </trkpt>
      <trkpt lat="48.345276" lon="23.076555">
        <ele>190.5</ele>
      </trkpt>
      <trkpt lat="48.344734" lon="23.076748">
        <ele>190</ele>
      </trkpt>
    </trkseg>
  </trk>
</gpx>
