<?xml version="1.0" encoding="UTF-8"?>
<gpx version="1.1" creator="phpGPX/1.0RC5" schemaLocation="http://www.topografix.com/GPX/1/1 http://www.topografix.com/GPX/1/1/gpx.xsd http://www.garmin.com/xmlschemas/GpxExtensions/v3 http://www.garmin.com/xmlschemas/GpxExtensionsv3.xsd http://www.garmin.com/xmlschemas/TrackPointExtension/v1 http://www.garmin.com/xmlschemas/TrackPointExtensionv1.xsd http://www.garmin.com/xmlschemas/PowerExtension/v1 http://www.garmin.com/xmlschemas/PowerExtensionv1.xsd http://www.topografix.com/GPX/gpx_style/0/2 http://www.topografix.com/GPX/gpx_style/0/2/gpx_style.xsd" xmlns="http://www.topografix.com/GPX/1/1" xmlns:xsi="http://www.w3.org/2001/XMLSchema-instance" xsi:schemaLocation="http://www.topografix.com/GPX/1/1 http://www.topografix.com/GPX/1/1/gpx.xsd http://www.garmin.com/xmlschemas/GpxExtensions/v3 http://www.garmin.com/xmlschemas/GpxExtensionsv3.xsd http://www.garmin.com/xmlschemas/TrackPointExtension/v1 http://www.garmin.com/xmlschemas/TrackPointExtensionv1.xsd http://www.garmin.com/xmlschemas/PowerExtension/v1 http://www.garmin.com/xmlschemas/PowerExtensionv1.xsd http://www.topografix.com/GPX/gpx_style/0/2 http://www.topografix.com/GPX/gpx_style/0/2/gpx_style.xsd" xmlns:gpxtpx="http://www.garmin.com/xmlschemas/TrackPointExtension/v1" xmlns:gpxx="http://www.garmin.com/xmlschemas/GpxExtensions/v3" xmlns:gpxpx="http://www.garmin.com/xmlschemas/PowerExtension/v1" xmlns:gpx_style="http://www.topografix.com/GPX/gpx_style/0/2">
  <metadata>
    <name>Західний Свидівець  Усть Чорна - Лопухів</name>
    <author>
      <name>gpx.studio</name>
      <link href="https://gpx.studio"/>
    </author>
  </metadata>
  <trk>
    <name>Західний Свидівець  Усть Чорна - Лопухів</name>
    <trkseg>
      <trkpt lat="48.331898" lon="23.927156">
        <ele>529.4392669743627</ele>
      </trkpt>
      <trkpt lat="48.332383" lon="23.928368">
        <ele>530.3119392472436</ele>
      </trkpt>
      <trkpt lat="48.331784" lon="23.928937">
        <ele>531.0806769777555</ele>
      </trkpt>
      <trkpt lat="48.332076" lon="23.929452">
        <ele>532.6399054811649</ele>
      </trkpt>
      <trkpt lat="48.332397" lon="23.930074">
        <ele>532.8117598928511</ele>
      </trkpt>
      <trkpt lat="48.33259" lon="23.930857">
        <ele>532.8543943108525</ele>
      </trkpt>
      <trkpt lat="48.332433" lon="23.931469">
        <ele>540.9700294451619</ele>
      </trkpt>
      <trkpt lat="48.331927" lon="23.931759">
        <ele>567.3040880371847</ele>
      </trkpt>
      <trkpt lat="48.331591" lon="23.931759">
        <ele>572.0476028530916</ele>
      </trkpt>
      <trkpt lat="48.331256" lon="23.931812">
        <ele>577.6462020137114</ele>
      </trkpt>
      <trkpt lat="48.330928" lon="23.931694">
        <ele>571.6176442340343</ele>
      </trkpt>
      <trkpt lat="48.330764" lon="23.931705">
        <ele>570.5249501598882</ele>
      </trkpt>
      <trkpt lat="48.330621" lon="23.931834">
        <ele>572.8186498399591</ele>
      </trkpt>
      <trkpt lat="48.330664" lon="23.932059">
        <ele>583.6753112114657</ele>
      </trkpt>
      <trkpt lat="48.330415" lon="23.93295">
        <ele>608.8179031822975</ele>
      </trkpt>
      <trkpt lat="48.330086" lon="23.933443">
        <ele>614.2319437679835</ele>
      </trkpt>
      <trkpt lat="48.328706" lon="23.936195">
        <ele>676.619633949711</ele>
      </trkpt>
      <trkpt lat="48.328314" lon="23.937461">
        <ele>694.0164740910307</ele>
      </trkpt>
      <trkpt lat="48.328221" lon="23.938459">
        <ele>708.4762291104726</ele>
      </trkpt>
      <trkpt lat="48.327943" lon="23.938877">
        <ele>715.6705202708681</ele>
      </trkpt>
      <trkpt lat="48.327729" lon="23.940036">
        <ele>738.3330774380593</ele>
      </trkpt>
      <trkpt lat="48.3282" lon="23.939843">
        <ele>759.1215131190063</ele>
      </trkpt>
      <trkpt lat="48.328296" lon="23.940207">
        <ele>773.7377816675786</ele>
      </trkpt>
      <trkpt lat="48.328592" lon="23.93995">
        <ele>780.2042674002005</ele>
      </trkpt>
      <trkpt lat="48.328942" lon="23.939939">
        <ele>783.63692159974</ele>
      </trkpt>
      <trkpt lat="48.328735" lon="23.940486">
        <ele>794.8155819138046</ele>
      </trkpt>
      <trkpt lat="48.328813" lon="23.940701">
        <ele>799.5011344873335</ele>
      </trkpt>
      <trkpt lat="48.329134" lon="23.940433">
        <ele>799.3197181623649</ele>
      </trkpt>
      <trkpt lat="48.329527" lon="23.940401">
        <ele>804.5630357038058</ele>
      </trkpt>
      <trkpt lat="48.329284" lon="23.940991">
        <ele>818.8494683238156</ele>
      </trkpt>
      <trkpt lat="48.329298" lon="23.941366">
        <ele>829.5335559521336</ele>
      </trkpt>
      <trkpt lat="48.329106" lon="23.941763">
        <ele>832.0124591035938</ele>
      </trkpt>
      <trkpt lat="48.328606" lon="23.944145">
        <ele>865.3355355670957</ele>
      </trkpt>
      <trkpt lat="48.328499" lon="23.945529">
        <ele>893.5823661955741</ele>
      </trkpt>
      <trkpt lat="48.328186" lon="23.946419">
        <ele>894.0304184494377</ele>
      </trkpt>
      <trkpt lat="48.328086" lon="23.946859">
        <ele>908.779608631623</ele>
      </trkpt>
      <trkpt lat="48.327808" lon="23.946999">
        <ele>912.6187848651967</ele>
      </trkpt>
      <trkpt lat="48.327743" lon="23.947342">
        <ele>919.7965235594056</ele>
      </trkpt>
      <trkpt lat="48.327772" lon="23.947943">
        <ele>932.3296592297941</ele>
      </trkpt>
      <trkpt lat="48.327565" lon="23.948361">
        <ele>925.1223958243961</ele>
      </trkpt>
      <trkpt lat="48.328471" lon="23.949649">
        <ele>942.5417642508271</ele>
      </trkpt>
      <trkpt lat="48.328528" lon="23.950165">
        <ele>949.282225204166</ele>
      </trkpt>
      <trkpt lat="48.328906" lon="23.951377">
        <ele>988.3136241131092</ele>
      </trkpt>
      <trkpt lat="48.32907" lon="23.952686">
        <ele>1015.5450827042912</ele>
      </trkpt>
      <trkpt lat="48.329755" lon="23.955551">
        <ele>1042.0814164332244</ele>
      </trkpt>
      <trkpt lat="48.330012" lon="23.956398">
        <ele>1043.9739141085781</ele>
      </trkpt>
      <trkpt lat="48.330411" lon="23.957675">
        <ele>1064.6588003268698</ele>
      </trkpt>
      <trkpt lat="48.330611" lon="23.959134">
        <ele>1087.245090892836</ele>
      </trkpt>
      <trkpt lat="48.330753" lon="23.960475">
        <ele>1109.7087999997893</ele>
      </trkpt>
      <trkpt lat="48.330739" lon="23.961366">
        <ele>1116.306410898183</ele>
      </trkpt>
      <trkpt lat="48.33004" lon="23.962578">
        <ele>1115.681866066203</ele>
      </trkpt>
      <trkpt lat="48.329548" lon="23.963276">
        <ele>1119.9028244048463</ele>
      </trkpt>
      <trkpt lat="48.329329" lon="23.963563">
        <ele>1125.0578542533594</ele>
      </trkpt>
      <trkpt lat="48.328936" lon="23.96441">
        <ele>1141.472750635434</ele>
      </trkpt>
      <trkpt lat="48.328637" lon="23.965708">
        <ele>1173.1037086815836</ele>
      </trkpt>
      <trkpt lat="48.328394" lon="23.966384">
        <ele>1184.2862125601644</ele>
      </trkpt>
      <trkpt lat="48.328344" lon="23.96705">
        <ele>1183.840108672157</ele>
      </trkpt>
      <trkpt lat="48.327881" lon="23.969346">
        <ele>1173.6251685785828</ele>
      </trkpt>
      <trkpt lat="48.327652" lon="23.970998">
        <ele>1183.4073319674935</ele>
      </trkpt>
      <trkpt lat="48.327766" lon="23.972017">
        <ele>1187.0187247324213</ele>
      </trkpt>
      <trkpt lat="48.328344" lon="23.973594">
        <ele>1214.8653403054223</ele>
      </trkpt>
      <trkpt lat="48.329015" lon="23.973991">
        <ele>1224.6957696145723</ele>
      </trkpt>
      <trkpt lat="48.329956" lon="23.975332">
        <ele>1255.0081202925828</ele>
      </trkpt>
      <trkpt lat="48.330213" lon="23.975622">
        <ele>1265.2857192132747</ele>
      </trkpt>
      <trkpt lat="48.330527" lon="23.976984">
        <ele>1264.6261056578949</ele>
      </trkpt>
      <trkpt lat="48.330349" lon="23.977907">
        <ele>1264.2975480732107</ele>
      </trkpt>
      <trkpt lat="48.329842" lon="23.978744">
        <ele>1280.549602560699</ele>
      </trkpt>
      <trkpt lat="48.328872" lon="23.979559">
        <ele>1281.6464286144032</ele>
      </trkpt>
      <trkpt lat="48.328583" lon="23.980211">
        <ele>1280.3309635680885</ele>
      </trkpt>
      <trkpt lat="48.32829" lon="23.980426">
        <ele>1282.6168284584853</ele>
      </trkpt>
      <trkpt lat="48.328112" lon="23.980952">
        <ele>1287.2586132728384</ele>
      </trkpt>
      <trkpt lat="48.32782" lon="23.981327">
        <ele>1290.4220555493448</ele>
      </trkpt>
      <trkpt lat="48.327399" lon="23.982464">
        <ele>1296.773582785571</ele>
      </trkpt>
      <trkpt lat="48.327292" lon="23.983527">
        <ele>1297.1594513102166</ele>
      </trkpt>
      <trkpt lat="48.32712" lon="23.983999">
        <ele>1286.1164384264853</ele>
      </trkpt>
      <trkpt lat="48.327135" lon="23.984471">
        <ele>1275.8513816105128</ele>
      </trkpt>
      <trkpt lat="48.326842" lon="23.98519">
        <ele>1283.6760646086698</ele>
      </trkpt>
      <trkpt lat="48.326831" lon="23.985604">
        <ele>1290.1339226945288</ele>
      </trkpt>
      <trkpt lat="48.326332" lon="23.98629">
        <ele>1301.8284909807064</ele>
      </trkpt>
      <trkpt lat="48.326253" lon="23.986644">
        <ele>1302.9630677572616</ele>
      </trkpt>
      <trkpt lat="48.326346" lon="23.987234">
        <ele>1300.3069278267212</ele>
      </trkpt>
      <trkpt lat="48.326189" lon="23.987857">
        <ele>1300.7949980925234</ele>
      </trkpt>
      <trkpt lat="48.326282" lon="23.988307">
        <ele>1309.6591662331484</ele>
      </trkpt>
      <trkpt lat="48.326018" lon="23.988361">
        <ele>1311.3871141722516</ele>
      </trkpt>
      <trkpt lat="48.325162" lon="23.98953">
        <ele>1308.2848070870386</ele>
      </trkpt>
      <trkpt lat="48.325076" lon="23.990013">
        <ele>1306.8686437306687</ele>
      </trkpt>
      <trkpt lat="48.324869" lon="23.990324">
        <ele>1304.6264154947062</ele>
      </trkpt>
      <trkpt lat="48.324555" lon="23.990442">
        <ele>1301.253703699132</ele>
      </trkpt>
      <trkpt lat="48.324227" lon="23.990453">
        <ele>1299.6232431095996</ele>
      </trkpt>
      <trkpt lat="48.323564" lon="23.99041">
        <ele>1305.8481138588395</ele>
      </trkpt>
      <trkpt lat="48.322608" lon="23.990721">
        <ele>1305.8150657580554</ele>
      </trkpt>
      <trkpt lat="48.321487" lon="23.991504">
        <ele>1302.7529164438602</ele>
      </trkpt>
      <trkpt lat="48.32036" lon="23.991794">
        <ele>1298.3510976386324</ele>
      </trkpt>
      <trkpt lat="48.319932" lon="23.991912">
        <ele>1296.9370840315491</ele>
      </trkpt>
      <trkpt lat="48.319718" lon="23.991821">
        <ele>1300.17026463296</ele>
      </trkpt>
      <trkpt lat="48.319119" lon="23.992309">
        <ele>1297.44289280716</ele>
      </trkpt>
      <trkpt lat="48.318678" lon="23.993159">
        <ele>1295.9299407181218</ele>
      </trkpt>
      <trkpt lat="48.318129" lon="23.993739">
        <ele>1298.7204449232086</ele>
      </trkpt>
      <trkpt lat="48.317194" lon="23.994243">
        <ele>1299.7562319223407</ele>
      </trkpt>
      <trkpt lat="48.316474" lon="23.994758">
        <ele>1302.2472823914636</ele>
      </trkpt>
      <trkpt lat="48.316352" lon="23.995026">
        <ele>1300.7735391274707</ele>
      </trkpt>
      <trkpt lat="48.316467" lon="23.99538">
        <ele>1300.085135107332</ele>
      </trkpt>
      <trkpt lat="48.316452" lon="23.996067">
        <ele>1299.9944778907777</ele>
      </trkpt>
      <trkpt lat="48.316302" lon="23.997333">
        <ele>1302.6160341438222</ele>
      </trkpt>
      <trkpt lat="48.316035" lon="23.998497">
        <ele>1312.1901858920723</ele>
      </trkpt>
      <trkpt lat="48.315782" lon="23.999275">
        <ele>1308.8996838713065</ele>
      </trkpt>
      <trkpt lat="48.315632" lon="24.000401">
        <ele>1298.5315847897436</ele>
      </trkpt>
      <trkpt lat="48.315475" lon="24.000809">
        <ele>1295.401164068318</ele>
      </trkpt>
      <trkpt lat="48.314997" lon="24.001957">
        <ele>1284.4624896917276</ele>
      </trkpt>
      <trkpt lat="48.314676" lon="24.002161">
        <ele>1277.8126167005394</ele>
      </trkpt>
      <trkpt lat="48.314005" lon="24.002375">
        <ele>1276.1114481335721</ele>
      </trkpt>
      <trkpt lat="48.311989" lon="24.003881">
        <ele>1286.9358809424693</ele>
      </trkpt>
      <trkpt lat="48.310933" lon="24.005458">
        <ele>1300.182630148367</ele>
      </trkpt>
      <trkpt lat="48.310176" lon="24.006552">
        <ele>1274.5705003509784</ele>
      </trkpt>
      <trkpt lat="48.309305" lon="24.007217">
        <ele>1279.9448544569916</ele>
      </trkpt>
      <trkpt lat="48.308592" lon="24.008751">
        <ele>1280.7070536717301</ele>
      </trkpt>
      <trkpt lat="48.308278" lon="24.009685">
        <ele>1283.7791362158023</ele>
      </trkpt>
      <trkpt lat="48.308035" lon="24.009894">
        <ele>1284.111001732992</ele>
      </trkpt>
      <trkpt lat="48.307521" lon="24.010017">
        <ele>1264.117644251557</ele>
      </trkpt>
      <trkpt lat="48.306629" lon="24.009814">
        <ele>1226.662260412355</ele>
      </trkpt>
      <trkpt lat="48.305559" lon="24.010296">
        <ele>1229.5220905377646</ele>
      </trkpt>
      <trkpt lat="48.303973" lon="24.010747">
        <ele>1246.9076328262638</ele>
      </trkpt>
      <trkpt lat="48.303316" lon="24.010951">
        <ele>1263.8592004891634</ele>
      </trkpt>
      <trkpt lat="48.302859" lon="24.010876">
        <ele>1282.80344351112</ele>
      </trkpt>
      <trkpt lat="48.302695" lon="24.010983">
        <ele>1290.5946139631399</ele>
      </trkpt>
      <trkpt lat="48.302388" lon="24.011133">
        <ele>1301.2598813214572</ele>
      </trkpt>
      <trkpt lat="48.301774" lon="24.012174">
        <ele>1306.1933154367669</ele>
      </trkpt>
      <trkpt lat="48.301211" lon="24.012652">
        <ele>1304.6579642878044</ele>
      </trkpt>
      <trkpt lat="48.300654" lon="24.013114">
        <ele>1305.5364644822707</ele>
      </trkpt>
      <trkpt lat="48.299826" lon="24.014594">
        <ele>1307.2494197110236</ele>
      </trkpt>
      <trkpt lat="48.29882" lon="24.015796">
        <ele>1312.375823851442</ele>
      </trkpt>
      <trkpt lat="48.298291" lon="24.016311">
        <ele>1318.5228000355673</ele>
      </trkpt>
      <trkpt lat="48.296433" lon="24.019075">
        <ele>1319.2235665278974</ele>
      </trkpt>
      <trkpt lat="48.295748" lon="24.019965">
        <ele>1323.0404018069385</ele>
      </trkpt>
      <trkpt lat="48.295448" lon="24.02047">
        <ele>1324.998853063675</ele>
      </trkpt>
      <trkpt lat="48.295105" lon="24.020631">
        <ele>1323.7322478995775</ele>
      </trkpt>
      <trkpt lat="48.29489" lon="24.02085">
        <ele>1324.7729895739303</ele>
      </trkpt>
      <trkpt lat="48.294283" lon="24.021247">
        <ele>1330.1243171552196</ele>
      </trkpt>
      <trkpt lat="48.293712" lon="24.021483">
        <ele>1329.8921336975181</ele>
      </trkpt>
      <trkpt lat="48.293134" lon="24.02262">
        <ele>1329.9725323549937</ele>
      </trkpt>
      <trkpt lat="48.292178" lon="24.023897">
        <ele>1322.4427132720682</ele>
      </trkpt>
      <trkpt lat="48.291977" lon="24.024283">
        <ele>1320.4037024064455</ele>
      </trkpt>
      <trkpt lat="48.291727" lon="24.02453">
        <ele>1318.877283181093</ele>
      </trkpt>
      <trkpt lat="48.291377" lon="24.024669">
        <ele>1319.2053043210346</ele>
      </trkpt>
      <trkpt lat="48.291049" lon="24.02541">
        <ele>1326.2388606716906</ele>
      </trkpt>
      <trkpt lat="48.290499" lon="24.025989">
        <ele>1330.7544618072156</ele>
      </trkpt>
      <trkpt lat="48.290235" lon="24.026107">
        <ele>1331.7274739882773</ele>
      </trkpt>
      <trkpt lat="48.289507" lon="24.027126">
        <ele>1334.17945266976</ele>
      </trkpt>
      <trkpt lat="48.28855" lon="24.028328">
        <ele>1369.5441422122856</ele>
      </trkpt>
      <trkpt lat="48.287736" lon="24.029122">
        <ele>1390.3844410788386</ele>
      </trkpt>
      <trkpt lat="48.28755" lon="24.029412">
        <ele>1394.764084939989</ele>
      </trkpt>
      <trkpt lat="48.287193" lon="24.029552">
        <ele>1402.1189773533524</ele>
      </trkpt>
      <trkpt lat="48.286672" lon="24.030163">
        <ele>1409.3880143264541</ele>
      </trkpt>
      <trkpt lat="48.286144" lon="24.030646">
        <ele>1415.913862632644</ele>
      </trkpt>
      <trkpt lat="48.285713" lon="24.030457">
        <ele>1428.2699300459155</ele>
      </trkpt>
      <trkpt lat="48.284856" lon="24.030693">
        <ele>1449.4819724893896</ele>
      </trkpt>
      <trkpt lat="48.284242" lon="24.030478">
        <ele>1456.222361829103</ele>
      </trkpt>
      <trkpt lat="48.28205" lon="24.03212">
        <ele>1441.3870807026096</ele>
      </trkpt>
      <trkpt lat="48.281038" lon="24.032811">
        <ele>1445.0556073778214</ele>
      </trkpt>
      <trkpt lat="48.280153" lon="24.03383">
        <ele>1445.3804276209246</ele>
      </trkpt>
      <trkpt lat="48.279332" lon="24.034527">
        <ele>1455.9095183705722</ele>
      </trkpt>
      <trkpt lat="48.275244" lon="24.038531">
        <ele>1540.2879782624295</ele>
      </trkpt>
      <trkpt lat="48.273188" lon="24.040719">
        <ele>1628.2957820374286</ele>
      </trkpt>
      <trkpt lat="48.272902" lon="24.042393">
        <ele>1631.4606788941892</ele>
      </trkpt>
      <trkpt lat="48.27265" lon="24.04214">
        <ele>1629.381967537338</ele>
      </trkpt>
      <trkpt lat="48.273564" lon="24.045917">
        <ele>1575.3637844096645</ele>
      </trkpt>
      <trkpt lat="48.273507" lon="24.050122">
        <ele>1537.9424270222662</ele>
      </trkpt>
      <trkpt lat="48.272478" lon="24.054071">
        <ele>1544.030767196091</ele>
      </trkpt>
      <trkpt lat="48.27305" lon="24.058191">
        <ele>1539.8534135911627</ele>
      </trkpt>
      <trkpt lat="48.271393" lon="24.061023">
        <ele>1559.5387038423153</ele>
      </trkpt>
      <trkpt lat="48.271107" lon="24.063083">
        <ele>1565.4475709647952</ele>
      </trkpt>
      <trkpt lat="48.27085" lon="24.066387">
        <ele>1617.615304562787</ele>
      </trkpt>
      <trkpt lat="48.272992" lon="24.068619">
        <ele>1611.8828525303397</ele>
      </trkpt>
      <trkpt lat="48.276334" lon="24.072138">
        <ele>1601.7699517071883</ele>
      </trkpt>
      <trkpt lat="48.278354" lon="24.075987">
        <ele>1575.6417432383168</ele>
      </trkpt>
      <trkpt lat="48.278897" lon="24.081952">
        <ele>1600.8948044287972</ele>
      </trkpt>
      <trkpt lat="48.280039" lon="24.085557">
        <ele>1604.1130491142394</ele>
      </trkpt>
      <trkpt lat="48.281553" lon="24.086673">
        <ele>1614.2343504991259</ele>
      </trkpt>
      <trkpt lat="48.283238" lon="24.086888">
        <ele>1607.4630968892016</ele>
      </trkpt>
      <trkpt lat="48.284752" lon="24.088218">
        <ele>1597.25577403442</ele>
      </trkpt>
      <trkpt lat="48.286808" lon="24.088905">
        <ele>1592.338619121252</ele>
      </trkpt>
      <trkpt lat="48.288207" lon="24.091523">
        <ele>1558.3248491576041</ele>
      </trkpt>
      <trkpt lat="48.289949" lon="24.094405">
        <ele>1560.16222007545</ele>
      </trkpt>
      <trkpt lat="48.290862" lon="24.094448">
        <ele>1562.0235516245011</ele>
      </trkpt>
      <trkpt lat="48.292204" lon="24.095714">
        <ele>1563.0272721746337</ele>
      </trkpt>
      <trkpt lat="48.293246" lon="24.097023">
        <ele>1557.1001844609855</ele>
      </trkpt>
      <trkpt lat="48.294103" lon="24.098418">
        <ele>1541.5047488399518</ele>
      </trkpt>
      <trkpt lat="48.294389" lon="24.099598">
        <ele>1535.3287431251015</ele>
      </trkpt>
      <trkpt lat="48.29476" lon="24.09977">
        <ele>1535.6811675634444</ele>
      </trkpt>
      <trkpt lat="48.295816" lon="24.099748">
        <ele>1540.1202664799353</ele>
      </trkpt>
      <trkpt lat="48.296573" lon="24.099319">
        <ele>1538.8023770975133</ele>
      </trkpt>
      <trkpt lat="48.2977" lon="24.098439">
        <ele>1540.2089642666979</ele>
      </trkpt>
      <trkpt lat="48.298842" lon="24.097152">
        <ele>1549.9366204691894</ele>
      </trkpt>
      <trkpt lat="48.300241" lon="24.095586">
        <ele>1579.1083010972943</ele>
      </trkpt>
      <trkpt lat="48.300727" lon="24.095006">
        <ele>1581.7634366319398</ele>
      </trkpt>
      <trkpt lat="48.301469" lon="24.093955">
        <ele>1586.9420690007973</ele>
      </trkpt>
      <trkpt lat="48.302254" lon="24.09329">
        <ele>1588.8927576462095</ele>
      </trkpt>
      <trkpt lat="48.302982" lon="24.093139">
        <ele>1582.5789511548817</ele>
      </trkpt>
      <trkpt lat="48.304181" lon="24.091809">
        <ele>1598.7065760873397</ele>
      </trkpt>
      <trkpt lat="48.305351" lon="24.090693">
        <ele>1626.0416490666103</ele>
      </trkpt>
      <trkpt lat="48.306622" lon="24.089706">
        <ele>1595.2140559843033</ele>
      </trkpt>
      <trkpt lat="48.308049" lon="24.089019">
        <ele>1560.9438222229946</ele>
      </trkpt>
      <trkpt lat="48.309661" lon="24.088011">
        <ele>1549.6976170950484</ele>
      </trkpt>
      <trkpt lat="48.310589" lon="24.087174">
        <ele>1553.2713642545048</ele>
      </trkpt>
      <trkpt lat="48.312473" lon="24.088183">
        <ele>1552.0267864179634</ele>
      </trkpt>
      <trkpt lat="48.314528" lon="24.087732">
        <ele>1534.649717994171</ele>
      </trkpt>
      <trkpt lat="48.316369" lon="24.085672">
        <ele>1505.6881697881308</ele>
      </trkpt>
      <trkpt lat="48.317896" lon="24.085221">
        <ele>1472.9337558642296</ele>
      </trkpt>
      <trkpt lat="48.31878" lon="24.085522">
        <ele>1458.5617604373258</ele>
      </trkpt>
      <trkpt lat="48.319066" lon="24.086359">
        <ele>1451.6252558383653</ele>
      </trkpt>
      <trkpt lat="48.319814" lon="24.086788">
        <ele>1452.850238482817</ele>
      </trkpt>
      <trkpt lat="48.320898" lon="24.086187">
        <ele>1465.701129197376</ele>
      </trkpt>
      <trkpt lat="48.322839" lon="24.084342">
        <ele>1495.2534735541558</ele>
      </trkpt>
      <trkpt lat="48.323667" lon="24.084771">
        <ele>1497.3914354921749</ele>
      </trkpt>
      <trkpt lat="48.325093" lon="24.084642">
        <ele>1503.8664679470241</ele>
      </trkpt>
      <trkpt lat="48.326406" lon="24.083698">
        <ele>1508.034108669497</ele>
      </trkpt>
      <trkpt lat="48.328061" lon="24.081338">
        <ele>1514.302318177768</ele>
      </trkpt>
      <trkpt lat="48.328803" lon="24.08078">
        <ele>1515.9054919289192</ele>
      </trkpt>
      <trkpt lat="48.330201" lon="24.081252">
        <ele>1501.5558506838279</ele>
      </trkpt>
      <trkpt lat="48.331256" lon="24.081252">
        <ele>1493.215436207247</ele>
      </trkpt>
      <trkpt lat="48.332084" lon="24.081896">
        <ele>1486.7964753521373</ele>
      </trkpt>
      <trkpt lat="48.332996" lon="24.081724">
        <ele>1488.4050790002577</ele>
      </trkpt>
      <trkpt lat="48.33525" lon="24.079492">
        <ele>1489.4016614765658</ele>
      </trkpt>
      <trkpt lat="48.337161" lon="24.077432">
        <ele>1500.0677369436874</ele>
      </trkpt>
      <trkpt lat="48.339586" lon="24.075329">
        <ele>1504.3637600471848</ele>
      </trkpt>
      <trkpt lat="48.341355" lon="24.073742">
        <ele>1501.1600459702877</ele>
      </trkpt>
      <trkpt lat="48.342496" lon="24.073055">
        <ele>1505.4862544103648</ele>
      </trkpt>
      <trkpt lat="48.343152" lon="24.070952">
        <ele>1519.4740402101456</ele>
      </trkpt>
      <trkpt lat="48.343569" lon="24.069119">
        <ele>1521.651705360273</ele>
      </trkpt>
      <trkpt lat="48.343757" lon="24.066428">
        <ele>1523.052237810054</ele>
      </trkpt>
      <trkpt lat="48.343786" lon="24.06351">
        <ele>1509.539932730301</ele>
      </trkpt>
      <trkpt lat="48.344699" lon="24.061622">
        <ele>1503.7980988705528</ele>
      </trkpt>
      <trkpt lat="48.346838" lon="24.061622">
        <ele>1504.6408165778603</ele>
      </trkpt>
      <trkpt lat="48.347779" lon="24.061622">
        <ele>1515.7701216687167</ele>
      </trkpt>
      <trkpt lat="48.34912" lon="24.060635">
        <ele>1538.3349949758244</ele>
      </trkpt>
      <trkpt lat="48.350289" lon="24.058618">
        <ele>1526.9385074535137</ele>
      </trkpt>
      <trkpt lat="48.351316" lon="24.057158">
        <ele>1508.3080769258188</ele>
      </trkpt>
      <trkpt lat="48.352385" lon="24.055432">
        <ele>1496.325226079207</ele>
      </trkpt>
      <trkpt lat="48.354096" lon="24.054101">
        <ele>1489.1599733959883</ele>
      </trkpt>
      <trkpt lat="48.35612" lon="24.051913">
        <ele>1463.7156027096407</ele>
      </trkpt>
      <trkpt lat="48.356406" lon="24.050239">
        <ele>1444.1950805332744</ele>
      </trkpt>
      <trkpt lat="48.356434" lon="24.04702">
        <ele>1433.7200098612464</ele>
      </trkpt>
      <trkpt lat="48.35786" lon="24.042686">
        <ele>1389.0580261206396</ele>
      </trkpt>
      <trkpt lat="48.358508" lon="24.041843">
        <ele>1392.145584130011</ele>
      </trkpt>
      <trkpt lat="48.359762" lon="24.039182">
        <ele>1397.0810692492723</ele>
      </trkpt>
      <trkpt lat="48.361045" lon="24.037079">
        <ele>1394.3194455534883</ele>
      </trkpt>
      <trkpt lat="48.361045" lon="24.036049">
        <ele>1389.628036572947</ele>
      </trkpt>
      <trkpt lat="48.360219" lon="24.034547">
        <ele>1388.4861109798394</ele>
      </trkpt>
      <trkpt lat="48.359363" lon="24.03326">
        <ele>1385.967273812159</ele>
      </trkpt>
      <trkpt lat="48.358422" lon="24.030942">
        <ele>1371.5751621088712</ele>
      </trkpt>
      <trkpt lat="48.358337" lon="24.029526">
        <ele>1372.9076961476821</ele>
      </trkpt>
      <trkpt lat="48.358337" lon="24.026436">
        <ele>1399.3862635610594</ele>
      </trkpt>
      <trkpt lat="48.358023" lon="24.023647">
        <ele>1412.6693610666553</ele>
      </trkpt>
      <trkpt lat="48.358108" lon="24.022188">
        <ele>1419.4911674592877</ele>
      </trkpt>
      <trkpt lat="48.358536" lon="24.020643">
        <ele>1421.574327265378</ele>
      </trkpt>
      <trkpt lat="48.358536" lon="24.019784">
        <ele>1418.174332887167</ele>
      </trkpt>
      <trkpt lat="48.356797" lon="24.01648">
        <ele>1344.2173620283395</ele>
      </trkpt>
      <trkpt lat="48.358736" lon="24.016523">
        <ele>1322.1543633679926</ele>
      </trkpt>
      <trkpt lat="48.360133" lon="24.016094">
        <ele>1322.1747680157991</ele>
      </trkpt>
      <trkpt lat="48.362043" lon="24.01369">
        <ele>1297.3486700791912</ele>
      </trkpt>
      <trkpt lat="48.362927" lon="24.010901">
        <ele>1287.8227919897763</ele>
      </trkpt>
      <trkpt lat="48.363441" lon="24.009399">
        <ele>1291.1293074315013</ele>
      </trkpt>
      <trkpt lat="48.363697" lon="24.007811">
        <ele>1281.7657943274244</ele>
      </trkpt>
      <trkpt lat="48.363699" lon="24.006479">
        <ele>1276.9484900193056</ele>
      </trkpt>
      <trkpt lat="48.363271" lon="24.004591">
        <ele>1258.938431470402</ele>
      </trkpt>
      <trkpt lat="48.362401" lon="24.00238">
        <ele>1209.4881799239727</ele>
      </trkpt>
      <trkpt lat="48.361489" lon="24.000492">
        <ele>1174.5894855265315</ele>
      </trkpt>
      <trkpt lat="48.360805" lon="23.999012">
        <ele>1144.0900083111794</ele>
      </trkpt>
      <trkpt lat="48.36012" lon="23.99766">
        <ele>1135.622533690698</ele>
      </trkpt>
      <trkpt lat="48.359579" lon="23.996565">
        <ele>1127.0111047323157</ele>
      </trkpt>
      <trkpt lat="48.35744" lon="23.996179">
        <ele>1075.6481789532118</ele>
      </trkpt>
      <trkpt lat="48.357138" lon="23.995557">
        <ele>1062.808241599705</ele>
      </trkpt>
      <trkpt lat="48.356981" lon="23.994634">
        <ele>1046.2833900866806</ele>
      </trkpt>
      <trkpt lat="48.35651" lon="23.994205">
        <ele>1026.140994585261</ele>
      </trkpt>
      <trkpt lat="48.356097" lon="23.994226">
        <ele>1017.499043978375</ele>
      </trkpt>
      <trkpt lat="48.355626" lon="23.99354">
        <ele>1011.7886956633301</ele>
      </trkpt>
      <trkpt lat="48.354571" lon="23.990879">
        <ele>980.0920235710219</ele>
      </trkpt>
      <trkpt lat="48.353773" lon="23.989592">
        <ele>968.1525075586146</ele>
      </trkpt>
      <trkpt lat="48.353259" lon="23.98942">
        <ele>960.098359822962</ele>
      </trkpt>
      <trkpt lat="48.352803" lon="23.988926">
        <ele>949.9613243807688</ele>
      </trkpt>
      <trkpt lat="48.352375" lon="23.987948">
        <ele>944.9010061256122</ele>
      </trkpt>
      <trkpt lat="48.351976" lon="23.986498">
        <ele>936.9774618769297</ele>
      </trkpt>
      <trkpt lat="48.351876" lon="23.985018">
        <ele>929.824305497031</ele>
      </trkpt>
      <trkpt lat="48.351748" lon="23.983838">
        <ele>909.2175660215307</ele>
      </trkpt>
      <trkpt lat="48.351621" lon="23.982659">
        <ele>907.375239434885</ele>
      </trkpt>
      <trkpt lat="48.351618" lon="23.981302">
        <ele>900.8381685954517</ele>
      </trkpt>
      <trkpt lat="48.351725" lon="23.980369">
        <ele>896.5839523767354</ele>
      </trkpt>
      <trkpt lat="48.351732" lon="23.979242">
        <ele>882.5283385016955</ele>
      </trkpt>
      <trkpt lat="48.351621" lon="23.977676">
        <ele>867.4919570178027</ele>
      </trkpt>
      <trkpt lat="48.351675" lon="23.97546">
        <ele>842.9343425318862</ele>
      </trkpt>
      <trkpt lat="48.351921" lon="23.973904">
        <ele>843.5262654897235</ele>
      </trkpt>
      <trkpt lat="48.352717" lon="23.970846">
        <ele>838.1993980635109</ele>
      </trkpt>
      <trkpt lat="48.352843" lon="23.96901">
        <ele>831.6602677169722</ele>
      </trkpt>
      <trkpt lat="48.352872" lon="23.967341">
        <ele>830.5592218435597</ele>
      </trkpt>
      <trkpt lat="48.352865" lon="23.966211">
        <ele>819.0645994031802</ele>
      </trkpt>
      <trkpt lat="48.352765" lon="23.964967">
        <ele>791.1629945492606</ele>
      </trkpt>
      <trkpt lat="48.352526" lon="23.963781">
        <ele>759.0563215876326</ele>
      </trkpt>
      <trkpt lat="48.352398" lon="23.962408">
        <ele>725.4871377148004</ele>
      </trkpt>
      <trkpt lat="48.351621" lon="23.961153">
        <ele>702.2609718854129</ele>
      </trkpt>
      <trkpt lat="48.351029" lon="23.958739">
        <ele>648.7949064296445</ele>
      </trkpt>
      <trkpt lat="48.350786" lon="23.956958">
        <ele>607.9615882806247</ele>
      </trkpt>
      <trkpt lat="48.350794" lon="23.955703">
        <ele>589.4321091165766</ele>
      </trkpt>
      <trkpt lat="48.350979" lon="23.954769">
        <ele>583.1205192787208</ele>
      </trkpt>
      <trkpt lat="48.352111" lon="23.954896">
        <ele>577.4999999999999</ele>
      </trkpt>
      <trkpt lat="48.35311" lon="23.955154">
        <ele>579.4432241778122</ele>
      </trkpt>
      <trkpt lat="48.354051" lon="23.956098">
        <ele>579.5518638646281</ele>
      </trkpt>
      <trkpt lat="48.354735" lon="23.956098">
        <ele>580.8330464273764</ele>
      </trkpt>
    </trkseg>
  </trk>
</gpx>
