<?xml version="1.0" encoding="UTF-8"?>
<gpx version="1.1" creator="phpGPX/1.0RC5" schemaLocation="http://www.topografix.com/GPX/1/1 http://www.topografix.com/GPX/1/1/gpx.xsd http://www.garmin.com/xmlschemas/GpxExtensions/v3 http://www.garmin.com/xmlschemas/GpxExtensionsv3.xsd http://www.garmin.com/xmlschemas/TrackPointExtension/v1 http://www.garmin.com/xmlschemas/TrackPointExtensionv1.xsd http://www.garmin.com/xmlschemas/PowerExtension/v1 http://www.garmin.com/xmlschemas/PowerExtensionv1.xsd http://www.topografix.com/GPX/gpx_style/0/2 http://www.topografix.com/GPX/gpx_style/0/2/gpx_style.xsd" xmlns="http://www.topografix.com/GPX/1/1" xmlns:xsi="http://www.w3.org/2001/XMLSchema-instance" xsi:schemaLocation="http://www.topografix.com/GPX/1/1 http://www.topografix.com/GPX/1/1/gpx.xsd http://www.garmin.com/xmlschemas/GpxExtensions/v3 http://www.garmin.com/xmlschemas/GpxExtensionsv3.xsd http://www.garmin.com/xmlschemas/TrackPointExtension/v1 http://www.garmin.com/xmlschemas/TrackPointExtensionv1.xsd http://www.garmin.com/xmlschemas/PowerExtension/v1 http://www.garmin.com/xmlschemas/PowerExtensionv1.xsd http://www.topografix.com/GPX/gpx_style/0/2 http://www.topografix.com/GPX/gpx_style/0/2/gpx_style.xsd" xmlns:gpxtpx="http://www.garmin.com/xmlschemas/TrackPointExtension/v1" xmlns:gpxx="http://www.garmin.com/xmlschemas/GpxExtensions/v3" xmlns:gpxpx="http://www.garmin.com/xmlschemas/PowerExtension/v1" xmlns:gpx_style="http://www.topografix.com/GPX/gpx_style/0/2">
  <metadata>
    <name>Заросляк - о Несамовите - г  Пожижевська - Заросляк</name>
    <author>
      <name>gpx.studio</name>
      <link href="https://gpx.studio"/>
    </author>
  </metadata>
  <trk>
    <name>Заросляк - о Несамовите - г  Пожижевська - Заросляк</name>
    <trkseg>
      <trkpt lat="48.164259" lon="24.535813">
        <ele>1264.853983289213</ele>
      </trkpt>
      <trkpt lat="48.163672" lon="24.535706">
        <ele>1279.6851204593033</ele>
      </trkpt>
      <trkpt lat="48.163286" lon="24.53562">
        <ele>1289.6765605790642</ele>
      </trkpt>
      <trkpt lat="48.163" lon="24.535685">
        <ele>1292.3661580906683</ele>
      </trkpt>
      <trkpt lat="48.162613" lon="24.535942">
        <ele>1298.7227527974296</ele>
      </trkpt>
      <trkpt lat="48.16217" lon="24.536006">
        <ele>1305.6686319459075</ele>
      </trkpt>
      <trkpt lat="48.161806" lon="24.536382">
        <ele>1297.2753430568255</ele>
      </trkpt>
      <trkpt lat="48.160455" lon="24.535391">
        <ele>1321.8711264538579</ele>
      </trkpt>
      <trkpt lat="48.159851" lon="24.534093">
        <ele>1339.597991552495</ele>
      </trkpt>
      <trkpt lat="48.159656" lon="24.532396">
        <ele>1354.1097172184225</ele>
      </trkpt>
      <trkpt lat="48.159161" lon="24.531424">
        <ele>1364.7522725876188</ele>
      </trkpt>
      <trkpt lat="48.1589" lon="24.531267">
        <ele>1365.926731516323</ele>
      </trkpt>
      <trkpt lat="48.158222" lon="24.531995">
        <ele>1360.6880904608765</ele>
      </trkpt>
      <trkpt lat="48.157403" lon="24.531962">
        <ele>1366.3951061863916</ele>
      </trkpt>
      <trkpt lat="48.156742" lon="24.532455">
        <ele>1372.7254703048059</ele>
      </trkpt>
      <trkpt lat="48.156472" lon="24.532834">
        <ele>1379.4045015926338</ele>
      </trkpt>
      <trkpt lat="48.15658" lon="24.534443">
        <ele>1384.0405822557514</ele>
      </trkpt>
      <trkpt lat="48.157029" lon="24.537162">
        <ele>1385.199965072097</ele>
      </trkpt>
      <trkpt lat="48.156936" lon="24.538413">
        <ele>1386.6569857565767</ele>
      </trkpt>
      <trkpt lat="48.156681" lon="24.538848">
        <ele>1383.9640718102455</ele>
      </trkpt>
      <trkpt lat="48.156228" lon="24.538943">
        <ele>1382.09702278045</ele>
      </trkpt>
      <trkpt lat="48.155913" lon="24.538723">
        <ele>1381.8145803195093</ele>
      </trkpt>
      <trkpt lat="48.155721" lon="24.538366">
        <ele>1382.1010266661112</ele>
      </trkpt>
      <trkpt lat="48.155624" lon="24.537493">
        <ele>1385.9003363992088</ele>
      </trkpt>
      <trkpt lat="48.155214" lon="24.537202">
        <ele>1385.2361814507499</ele>
      </trkpt>
      <trkpt lat="48.154591" lon="24.537171">
        <ele>1386.8838151372086</ele>
      </trkpt>
      <trkpt lat="48.154226" lon="24.536732">
        <ele>1389.7057655495955</ele>
      </trkpt>
      <trkpt lat="48.153877" lon="24.536709">
        <ele>1389.313383138273</ele>
      </trkpt>
      <trkpt lat="48.153416" lon="24.536381">
        <ele>1392.1043484439142</ele>
      </trkpt>
      <trkpt lat="48.153003" lon="24.536698">
        <ele>1389.447787980756</ele>
      </trkpt>
      <trkpt lat="48.152776" lon="24.53664">
        <ele>1394.0158068891471</ele>
      </trkpt>
      <trkpt lat="48.152524" lon="24.537196">
        <ele>1389.8298207792686</ele>
      </trkpt>
      <trkpt lat="48.152077" lon="24.537546">
        <ele>1384.8526871277718</ele>
      </trkpt>
      <trkpt lat="48.151545" lon="24.537386">
        <ele>1384.788568868349</ele>
      </trkpt>
      <trkpt lat="48.150889" lon="24.53749">
        <ele>1383.1297113496114</ele>
      </trkpt>
      <trkpt lat="48.150583" lon="24.537686">
        <ele>1379.5930929420642</ele>
      </trkpt>
      <trkpt lat="48.14996" lon="24.537394">
        <ele>1376.321625405224</ele>
      </trkpt>
      <trkpt lat="48.149387" lon="24.53681">
        <ele>1378.1538648161804</ele>
      </trkpt>
      <trkpt lat="48.148874" lon="24.536821">
        <ele>1379.8427599749648</ele>
      </trkpt>
      <trkpt lat="48.148722" lon="24.537138">
        <ele>1384.2364022892434</ele>
      </trkpt>
      <trkpt lat="48.148727" lon="24.537685">
        <ele>1379.6146065827268</ele>
      </trkpt>
      <trkpt lat="48.14855" lon="24.537971">
        <ele>1383.517892177851</ele>
      </trkpt>
      <trkpt lat="48.148213" lon="24.538291">
        <ele>1388.4970787142215</ele>
      </trkpt>
      <trkpt lat="48.147916" lon="24.538201">
        <ele>1396.9492934951295</ele>
      </trkpt>
      <trkpt lat="48.148465" lon="24.539064">
        <ele>1383.0761443864385</ele>
      </trkpt>
      <trkpt lat="48.148022" lon="24.540126">
        <ele>1381.4029528218966</ele>
      </trkpt>
      <trkpt lat="48.148141" lon="24.541863">
        <ele>1368.2399516933947</ele>
      </trkpt>
      <trkpt lat="48.147677" lon="24.545464">
        <ele>1374.5273978942828</ele>
      </trkpt>
      <trkpt lat="48.147597" lon="24.54798">
        <ele>1368.7810014949646</ele>
      </trkpt>
      <trkpt lat="48.147433" lon="24.548489">
        <ele>1367.149430543126</ele>
      </trkpt>
      <trkpt lat="48.147105" lon="24.548855">
        <ele>1366.8063661778879</ele>
      </trkpt>
      <trkpt lat="48.146358" lon="24.54911">
        <ele>1363.9927594531487</ele>
      </trkpt>
      <trkpt lat="48.145091" lon="24.548827">
        <ele>1360.6277342330006</ele>
      </trkpt>
      <trkpt lat="48.143012" lon="24.548994">
        <ele>1346.806128101104</ele>
      </trkpt>
      <trkpt lat="48.142564" lon="24.548409">
        <ele>1350.147073142405</ele>
      </trkpt>
      <trkpt lat="48.142212" lon="24.548179">
        <ele>1347.6243890479116</ele>
      </trkpt>
      <trkpt lat="48.141937" lon="24.547684">
        <ele>1354.9937312047696</ele>
      </trkpt>
      <trkpt lat="48.141279" lon="24.547097">
        <ele>1377.7765392068254</ele>
      </trkpt>
      <trkpt lat="48.139946" lon="24.548746">
        <ele>1399.7715397844645</ele>
      </trkpt>
      <trkpt lat="48.138753" lon="24.548849">
        <ele>1409.6265379551332</ele>
      </trkpt>
      <trkpt lat="48.137788" lon="24.54853">
        <ele>1426.7752615800816</ele>
      </trkpt>
      <trkpt lat="48.137573" lon="24.548585">
        <ele>1429.2175447080645</ele>
      </trkpt>
      <trkpt lat="48.137325" lon="24.548932">
        <ele>1422.2759353508227</ele>
      </trkpt>
      <trkpt lat="48.136843" lon="24.54879">
        <ele>1431.4331137357512</ele>
      </trkpt>
      <trkpt lat="48.136627" lon="24.548887">
        <ele>1429.9896255135213</ele>
      </trkpt>
      <trkpt lat="48.136306" lon="24.54863">
        <ele>1433.242637293661</ele>
      </trkpt>
      <trkpt lat="48.136307" lon="24.548266">
        <ele>1439.9375501062334</ele>
      </trkpt>
      <trkpt lat="48.13655" lon="24.548278">
        <ele>1442.2221462327582</ele>
      </trkpt>
      <trkpt lat="48.13658" lon="24.547953">
        <ele>1449.0170195278479</ele>
      </trkpt>
      <trkpt lat="48.135997" lon="24.547099">
        <ele>1455.7718015828787</ele>
      </trkpt>
      <trkpt lat="48.135616" lon="24.547003">
        <ele>1461.6183290635238</ele>
      </trkpt>
      <trkpt lat="48.134895" lon="24.547428">
        <ele>1471.998851554078</ele>
      </trkpt>
      <trkpt lat="48.134711" lon="24.547324">
        <ele>1475.6523348575452</ele>
      </trkpt>
      <trkpt lat="48.13462" lon="24.547032">
        <ele>1479.0224983030039</ele>
      </trkpt>
      <trkpt lat="48.134445" lon="24.54699">
        <ele>1480.6809113423633</ele>
      </trkpt>
      <trkpt lat="48.134084" lon="24.547204">
        <ele>1485.7503146388767</ele>
      </trkpt>
      <trkpt lat="48.133788" lon="24.54679">
        <ele>1495.0848115590634</ele>
      </trkpt>
      <trkpt lat="48.133158" lon="24.546446">
        <ele>1504.0137364274703</ele>
      </trkpt>
      <trkpt lat="48.13303" lon="24.546179">
        <ele>1508.0226059222614</ele>
      </trkpt>
      <trkpt lat="48.132536" lon="24.545857">
        <ele>1513.50400745982</ele>
      </trkpt>
      <trkpt lat="48.132286" lon="24.545124">
        <ele>1520.117748499765</ele>
      </trkpt>
      <trkpt lat="48.132377" lon="24.542919">
        <ele>1553.0629960200156</ele>
      </trkpt>
      <trkpt lat="48.131531" lon="24.541945">
        <ele>1570.4924513084557</ele>
      </trkpt>
      <trkpt lat="48.131169" lon="24.541279">
        <ele>1585.9564203568734</ele>
      </trkpt>
      <trkpt lat="48.13037" lon="24.540861">
        <ele>1619.9867308207847</ele>
      </trkpt>
      <trkpt lat="48.130292" lon="24.540091">
        <ele>1653.163253748964</ele>
      </trkpt>
      <trkpt lat="48.130114" lon="24.54">
        <ele>1660.6912643942048</ele>
      </trkpt>
      <trkpt lat="48.129491" lon="24.538948">
        <ele>1684.4262347790645</ele>
      </trkpt>
      <trkpt lat="48.129261" lon="24.538986">
        <ele>1687.6405410066945</ele>
      </trkpt>
      <trkpt lat="48.128553" lon="24.539557">
        <ele>1690.7641641523232</ele>
      </trkpt>
      <trkpt lat="48.128402" lon="24.539286">
        <ele>1695.9573998980925</ele>
      </trkpt>
      <trkpt lat="48.12756" lon="24.539162">
        <ele>1702.7100742486073</ele>
      </trkpt>
      <trkpt lat="48.12729" lon="24.539041">
        <ele>1705.0438947882585</ele>
      </trkpt>
      <trkpt lat="48.126904" lon="24.538432">
        <ele>1710.772928711027</ele>
      </trkpt>
      <trkpt lat="48.125778" lon="24.537437">
        <ele>1719.0248618849437</ele>
      </trkpt>
      <trkpt lat="48.123495" lon="24.538813">
        <ele>1742.7571412813377</ele>
      </trkpt>
      <trkpt lat="48.122789" lon="24.539745">
        <ele>1747.37585066678</ele>
      </trkpt>
      <trkpt lat="48.122787" lon="24.539674">
        <ele>1746.974254183122</ele>
      </trkpt>
      <trkpt lat="48.122732" lon="24.539497">
        <ele>1746.2531459158054</ele>
      </trkpt>
      <trkpt lat="48.122676" lon="24.539079">
        <ele>1746.0087973857298</ele>
      </trkpt>
      <trkpt lat="48.12269" lon="24.538765">
        <ele>1746.5232759467442</ele>
      </trkpt>
      <trkpt lat="48.122722" lon="24.5384">
        <ele>1747.99653770646</ele>
      </trkpt>
      <trkpt lat="48.122733" lon="24.538188">
        <ele>1749.5264790301444</ele>
      </trkpt>
      <trkpt lat="48.122821" lon="24.537971">
        <ele>1750.5190932362414</ele>
      </trkpt>
      <trkpt lat="48.122823" lon="24.537821">
        <ele>1752.0888684448846</ele>
      </trkpt>
      <trkpt lat="48.122801" lon="24.53767">
        <ele>1754.168328345894</ele>
      </trkpt>
      <trkpt lat="48.122799" lon="24.537555">
        <ele>1755.536188856</ele>
      </trkpt>
      <trkpt lat="48.122799" lon="24.537335">
        <ele>1758.400903030375</ele>
      </trkpt>
      <trkpt lat="48.122757" lon="24.53722">
        <ele>1761.1310697187437</ele>
      </trkpt>
      <trkpt lat="48.122707" lon="24.537054">
        <ele>1764.5490185887616</ele>
      </trkpt>
      <trkpt lat="48.122651" lon="24.537046">
        <ele>1766.6313039274964</ele>
      </trkpt>
      <trkpt lat="48.122657" lon="24.536928">
        <ele>1767.8244279501907</ele>
      </trkpt>
      <trkpt lat="48.12266" lon="24.536794">
        <ele>1769.5978635090307</ele>
      </trkpt>
      <trkpt lat="48.122657" lon="24.53655">
        <ele>1772.6397053406106</ele>
      </trkpt>
      <trkpt lat="48.122671" lon="24.536279">
        <ele>1775.6336084862292</ele>
      </trkpt>
      <trkpt lat="48.122707" lon="24.535959">
        <ele>1778.4478101210273</ele>
      </trkpt>
      <trkpt lat="48.122734" lon="24.535672">
        <ele>1782.3358607926648</ele>
      </trkpt>
      <trkpt lat="48.122784" lon="24.535442">
        <ele>1786.316019062541</ele>
      </trkpt>
      <trkpt lat="48.122848" lon="24.535211">
        <ele>1790.3499683052069</ele>
      </trkpt>
      <trkpt lat="48.122879" lon="24.535029">
        <ele>1793.9425506957552</ele>
      </trkpt>
      <trkpt lat="48.122818" lon="24.534978">
        <ele>1796.337959776415</ele>
      </trkpt>
      <trkpt lat="48.122822" lon="24.534928">
        <ele>1797.3688557749585</ele>
      </trkpt>
      <trkpt lat="48.122893" lon="24.534372">
        <ele>1809.7852728859289</ele>
      </trkpt>
      <trkpt lat="48.122957" lon="24.534265">
        <ele>1811.5239596462343</ele>
      </trkpt>
      <trkpt lat="48.122957" lon="24.534018">
        <ele>1817.47596971664</ele>
      </trkpt>
      <trkpt lat="48.122986" lon="24.533803">
        <ele>1822.4380639158478</ele>
      </trkpt>
      <trkpt lat="48.1231" lon="24.533567">
        <ele>1828.2116310770496</ele>
      </trkpt>
      <trkpt lat="48.123193" lon="24.533471">
        <ele>1830.0241653857724</ele>
      </trkpt>
      <trkpt lat="48.123322" lon="24.533342">
        <ele>1832.3703888253074</ele>
      </trkpt>
      <trkpt lat="48.123394" lon="24.533149">
        <ele>1838.4901513808873</ele>
      </trkpt>
      <trkpt lat="48.123523" lon="24.532913">
        <ele>1844.3272588078398</ele>
      </trkpt>
      <trkpt lat="48.123623" lon="24.532741">
        <ele>1847.7093734179507</ele>
      </trkpt>
      <trkpt lat="48.123781" lon="24.532559">
        <ele>1848.3529500244185</ele>
      </trkpt>
      <trkpt lat="48.123895" lon="24.532334">
        <ele>1851.5001055619214</ele>
      </trkpt>
      <trkpt lat="48.124038" lon="24.532151">
        <ele>1851.656651549507</ele>
      </trkpt>
      <trkpt lat="48.124203" lon="24.531937">
        <ele>1852.9520010451088</ele>
      </trkpt>
      <trkpt lat="48.124411" lon="24.531733">
        <ele>1853.864177291406</ele>
      </trkpt>
      <trkpt lat="48.124647" lon="24.53154">
        <ele>1854.664642933989</ele>
      </trkpt>
      <trkpt lat="48.124833" lon="24.5314">
        <ele>1854.9197766034515</ele>
      </trkpt>
      <trkpt lat="48.125063" lon="24.531304">
        <ele>1854.8179825170514</ele>
      </trkpt>
      <trkpt lat="48.125249" lon="24.53125">
        <ele>1854.8057482873555</ele>
      </trkpt>
      <trkpt lat="48.125449" lon="24.531261">
        <ele>1852.1301561159605</ele>
      </trkpt>
      <trkpt lat="48.125671" lon="24.53125">
        <ele>1850.6142632402818</ele>
      </trkpt>
      <trkpt lat="48.125879" lon="24.531207">
        <ele>1850.68992879085</ele>
      </trkpt>
      <trkpt lat="48.126058" lon="24.531143">
        <ele>1851.4059754069895</ele>
      </trkpt>
      <trkpt lat="48.126244" lon="24.531089">
        <ele>1851.5408749478197</ele>
      </trkpt>
      <trkpt lat="48.126588" lon="24.531046">
        <ele>1850.196930155037</ele>
      </trkpt>
      <trkpt lat="48.126975" lon="24.531089">
        <ele>1847.7568168250727</ele>
      </trkpt>
      <trkpt lat="48.127311" lon="24.530971">
        <ele>1846.13429884566</ele>
      </trkpt>
      <trkpt lat="48.127641" lon="24.530896">
        <ele>1844.7393968360266</ele>
      </trkpt>
      <trkpt lat="48.127913" lon="24.530735">
        <ele>1842.9321603928668</ele>
      </trkpt>
      <trkpt lat="48.127727" lon="24.53074">
        <ele>1843.8646488329723</ele>
      </trkpt>
      <trkpt lat="48.129052" lon="24.530644">
        <ele>1844.3265640744385</ele>
      </trkpt>
      <trkpt lat="48.12989" lon="24.530901">
        <ele>1845.6833133855057</ele>
      </trkpt>
      <trkpt lat="48.130916" lon="24.531475">
        <ele>1845.373655960121</ele>
      </trkpt>
      <trkpt lat="48.131639" lon="24.531185">
        <ele>1831.9226969144656</ele>
      </trkpt>
      <trkpt lat="48.132613" lon="24.531206">
        <ele>1815.094456342398</ele>
      </trkpt>
      <trkpt lat="48.133338" lon="24.530835">
        <ele>1806.2402515961012</ele>
      </trkpt>
      <trkpt lat="48.134305" lon="24.530223">
        <ele>1810.0446484511765</ele>
      </trkpt>
      <trkpt lat="48.135185" lon="24.529601">
        <ele>1808.0278592220707</ele>
      </trkpt>
      <trkpt lat="48.135715" lon="24.52914">
        <ele>1791.4790658008424</ele>
      </trkpt>
      <trkpt lat="48.135851" lon="24.528807">
        <ele>1783.1202415010998</ele>
      </trkpt>
      <trkpt lat="48.136016" lon="24.528818">
        <ele>1781.354208600242</ele>
      </trkpt>
      <trkpt lat="48.136417" lon="24.528485">
        <ele>1769.6360522590471</ele>
      </trkpt>
      <trkpt lat="48.136739" lon="24.527842">
        <ele>1756.2190966247306</ele>
      </trkpt>
      <trkpt lat="48.137555" lon="24.526586">
        <ele>1734.980883829538</ele>
      </trkpt>
      <trkpt lat="48.138909" lon="24.525367">
        <ele>1726.1594490276184</ele>
      </trkpt>
      <trkpt lat="48.140011" lon="24.524498">
        <ele>1732.160483271582</ele>
      </trkpt>
      <trkpt lat="48.140556" lon="24.524434">
        <ele>1730.0592635907574</ele>
      </trkpt>
      <trkpt lat="48.140799" lon="24.524595">
        <ele>1730.5396495643072</ele>
      </trkpt>
      <trkpt lat="48.141657" lon="24.524372">
        <ele>1742.69797927393</ele>
      </trkpt>
      <trkpt lat="48.142688" lon="24.523749">
        <ele>1771.5727464498486</ele>
      </trkpt>
      <trkpt lat="48.14296" lon="24.52376">
        <ele>1779.4728336338885</ele>
      </trkpt>
      <trkpt lat="48.143103" lon="24.523664">
        <ele>1783.7960053503048</ele>
      </trkpt>
      <trkpt lat="48.143998" lon="24.523846">
        <ele>1809.5130665890651</ele>
      </trkpt>
      <trkpt lat="48.144112" lon="24.523696">
        <ele>1812.742365093669</ele>
      </trkpt>
      <trkpt lat="48.144244" lon="24.523522">
        <ele>1814.6923321298318</ele>
      </trkpt>
      <trkpt lat="48.144731" lon="24.523861">
        <ele>1809.9790445915835</ele>
      </trkpt>
      <trkpt lat="48.145904" lon="24.525279">
        <ele>1773.4040085462184</ele>
      </trkpt>
      <trkpt lat="48.14642" lon="24.525688">
        <ele>1758.353964734939</ele>
      </trkpt>
      <trkpt lat="48.147458" lon="24.527023">
        <ele>1707.681561070649</ele>
      </trkpt>
      <trkpt lat="48.147895" lon="24.528179">
        <ele>1678.8518652802532</ele>
      </trkpt>
      <trkpt lat="48.147975" lon="24.529059">
        <ele>1660.8917575995206</ele>
      </trkpt>
      <trkpt lat="48.148578" lon="24.529953">
        <ele>1654.1334378647882</ele>
      </trkpt>
      <trkpt lat="48.14912" lon="24.530319">
        <ele>1645.2544502026867</ele>
      </trkpt>
      <trkpt lat="48.14925" lon="24.530163">
        <ele>1645.3798652552946</ele>
      </trkpt>
      <trkpt lat="48.14935" lon="24.530035">
        <ele>1644.9080471713098</ele>
      </trkpt>
      <trkpt lat="48.149417" lon="24.52995">
        <ele>1644.171058367705</ele>
      </trkpt>
      <trkpt lat="48.149471" lon="24.529912">
        <ele>1643.0742616837379</ele>
      </trkpt>
      <trkpt lat="48.149551" lon="24.5299">
        <ele>1640.50685193097</ele>
      </trkpt>
      <trkpt lat="48.149711" lon="24.530338">
        <ele>1626.5907805761667</ele>
      </trkpt>
      <trkpt lat="48.149679" lon="24.530966">
        <ele>1600.4481755794666</ele>
      </trkpt>
      <trkpt lat="48.150296" lon="24.531185">
        <ele>1573.8011421577667</ele>
      </trkpt>
      <trkpt lat="48.151061" lon="24.532675">
        <ele>1498.549422221724</ele>
      </trkpt>
      <trkpt lat="48.151622" lon="24.533207">
        <ele>1484.6984192002565</ele>
      </trkpt>
      <trkpt lat="48.152013" lon="24.533313">
        <ele>1478.6595113575459</ele>
      </trkpt>
      <trkpt lat="48.15245" lon="24.533171">
        <ele>1473.3724435380007</ele>
      </trkpt>
      <trkpt lat="48.152758" lon="24.533247">
        <ele>1466.6079971216573</ele>
      </trkpt>
      <trkpt lat="48.153428" lon="24.533942">
        <ele>1449.47350059402</ele>
      </trkpt>
      <trkpt lat="48.153547" lon="24.533965">
        <ele>1449.266910311724</ele>
      </trkpt>
      <trkpt lat="48.153688" lon="24.534379">
        <ele>1445.3827331517823</ele>
      </trkpt>
      <trkpt lat="48.153846" lon="24.534717">
        <ele>1440.7136373552494</ele>
      </trkpt>
      <trkpt lat="48.154113" lon="24.534928">
        <ele>1436.0834367994685</ele>
      </trkpt>
      <trkpt lat="48.15428" lon="24.534969">
        <ele>1434.7589538300733</ele>
      </trkpt>
      <trkpt lat="48.154458" lon="24.535049">
        <ele>1432.1779830673327</ele>
      </trkpt>
      <trkpt lat="48.154663" lon="24.535092">
        <ele>1430.239508421501</ele>
      </trkpt>
      <trkpt lat="48.154834" lon="24.535047">
        <ele>1430.1120665796368</ele>
      </trkpt>
      <trkpt lat="48.154966" lon="24.534999">
        <ele>1429.8400948720523</ele>
      </trkpt>
      <trkpt lat="48.155071" lon="24.534848">
        <ele>1429.163882681347</ele>
      </trkpt>
      <trkpt lat="48.154968" lon="24.533732">
        <ele>1426.2243154194896</ele>
      </trkpt>
      <trkpt lat="48.154606" lon="24.532424">
        <ele>1424.8012769080115</ele>
      </trkpt>
      <trkpt lat="48.154269" lon="24.531352">
        <ele>1415.498765186174</ele>
      </trkpt>
      <trkpt lat="48.154136" lon="24.530695">
        <ele>1415.838087612979</ele>
      </trkpt>
      <trkpt lat="48.154537" lon="24.530657">
        <ele>1413.5167530221368</ele>
      </trkpt>
      <trkpt lat="48.155011" lon="24.530902">
        <ele>1404.978997201227</ele>
      </trkpt>
      <trkpt lat="48.155294" lon="24.531434">
        <ele>1401.36054429274</ele>
      </trkpt>
      <trkpt lat="48.155689" lon="24.531267">
        <ele>1396.1793502371293</ele>
      </trkpt>
      <trkpt lat="48.156458" lon="24.531442">
        <ele>1384.658129551215</ele>
      </trkpt>
      <trkpt lat="48.156779" lon="24.531284">
        <ele>1380.2444521829336</ele>
      </trkpt>
      <trkpt lat="48.156984" lon="24.530948">
        <ele>1379.0962857316813</ele>
      </trkpt>
      <trkpt lat="48.157314" lon="24.531018">
        <ele>1376.9976037168421</ele>
      </trkpt>
      <trkpt lat="48.157545" lon="24.531503">
        <ele>1369.8865813099546</ele>
      </trkpt>
      <trkpt lat="48.15748" lon="24.531903">
        <ele>1366.2307494903798</ele>
      </trkpt>
      <trkpt lat="48.157403" lon="24.531962">
        <ele>1366.3951061863916</ele>
      </trkpt>
      <trkpt lat="48.158222" lon="24.531995">
        <ele>1360.6880904608765</ele>
      </trkpt>
      <trkpt lat="48.1589" lon="24.531267">
        <ele>1365.926731516323</ele>
      </trkpt>
      <trkpt lat="48.159161" lon="24.531424">
        <ele>1364.7522725876188</ele>
      </trkpt>
      <trkpt lat="48.159656" lon="24.532396">
        <ele>1354.1097172184225</ele>
      </trkpt>
      <trkpt lat="48.159851" lon="24.534093">
        <ele>1339.597991552495</ele>
      </trkpt>
      <trkpt lat="48.160455" lon="24.535391">
        <ele>1321.8711264538579</ele>
      </trkpt>
      <trkpt lat="48.161806" lon="24.536382">
        <ele>1297.2753430568255</ele>
      </trkpt>
      <trkpt lat="48.16217" lon="24.536006">
        <ele>1305.6686319459075</ele>
      </trkpt>
      <trkpt lat="48.162613" lon="24.535942">
        <ele>1298.7227527974296</ele>
      </trkpt>
      <trkpt lat="48.163" lon="24.535685">
        <ele>1292.3661580906683</ele>
      </trkpt>
      <trkpt lat="48.163286" lon="24.53562">
        <ele>1289.6765605790642</ele>
      </trkpt>
      <trkpt lat="48.163672" lon="24.535706">
        <ele>1279.6851204593033</ele>
      </trkpt>
      <trkpt lat="48.164259" lon="24.535813">
        <ele>1264.853983289213</ele>
      </trkpt>
    </trkseg>
  </trk>
</gpx>
