<?xml version="1.0" encoding="UTF-8"?>
<gpx version="1.1" creator="phpGPX/1.0RC5" schemaLocation="http://www.topografix.com/GPX/1/1 http://www.topografix.com/GPX/1/1/gpx.xsd http://www.garmin.com/xmlschemas/GpxExtensions/v3 http://www.garmin.com/xmlschemas/GpxExtensionsv3.xsd http://www.garmin.com/xmlschemas/TrackPointExtension/v1 http://www.garmin.com/xmlschemas/TrackPointExtensionv1.xsd http://www.garmin.com/xmlschemas/PowerExtension/v1 http://www.garmin.com/xmlschemas/PowerExtensionv1.xsd http://www.topografix.com/GPX/gpx_style/0/2 http://www.topografix.com/GPX/gpx_style/0/2/gpx_style.xsd" xmlns="http://www.topografix.com/GPX/1/1" xmlns:xsi="http://www.w3.org/2001/XMLSchema-instance" xsi:schemaLocation="http://www.topografix.com/GPX/1/1 http://www.topografix.com/GPX/1/1/gpx.xsd http://www.garmin.com/xmlschemas/GpxExtensions/v3 http://www.garmin.com/xmlschemas/GpxExtensionsv3.xsd http://www.garmin.com/xmlschemas/TrackPointExtension/v1 http://www.garmin.com/xmlschemas/TrackPointExtensionv1.xsd http://www.garmin.com/xmlschemas/PowerExtension/v1 http://www.garmin.com/xmlschemas/PowerExtensionv1.xsd http://www.topografix.com/GPX/gpx_style/0/2 http://www.topografix.com/GPX/gpx_style/0/2/gpx_style.xsd" xmlns:gpxtpx="http://www.garmin.com/xmlschemas/TrackPointExtension/v1" xmlns:gpxx="http://www.garmin.com/xmlschemas/GpxExtensions/v3" xmlns:gpxpx="http://www.garmin.com/xmlschemas/PowerExtension/v1" xmlns:gpx_style="http://www.topografix.com/GPX/gpx_style/0/2">
  <metadata>
    <name>Кваси (Тростянець) - полонина Браїлка</name>
    <author>
      <name>gpx.studio</name>
      <link href="https://gpx.studio"/>
    </author>
  </metadata>
  <trk>
    <name>Кваси (Тростянець) - полонина Браїлка</name>
    <trkseg>
      <trkpt lat="48.164142" lon="24.281762">
        <ele>540</ele>
      </trkpt>
      <trkpt lat="48.16397" lon="24.281225">
        <ele>538.9558861740516</ele>
      </trkpt>
      <trkpt lat="48.163741" lon="24.280775">
        <ele>536.5282827236224</ele>
      </trkpt>
      <trkpt lat="48.163412" lon="24.279959">
        <ele>537.9872867555823</ele>
      </trkpt>
      <trkpt lat="48.163383" lon="24.278929">
        <ele>543.6861674680839</ele>
      </trkpt>
      <trkpt lat="48.163469" lon="24.278135">
        <ele>548.4192853333661</ele>
      </trkpt>
      <trkpt lat="48.164099" lon="24.278414">
        <ele>548.8129290681098</ele>
      </trkpt>
      <trkpt lat="48.1646" lon="24.278543">
        <ele>548.3277549904305</ele>
      </trkpt>
      <trkpt lat="48.165058" lon="24.278264">
        <ele>546.9504144856041</ele>
      </trkpt>
      <trkpt lat="48.165616" lon="24.277813">
        <ele>543.740194470678</ele>
      </trkpt>
      <trkpt lat="48.1661" lon="24.277513">
        <ele>539.3269432886736</ele>
      </trkpt>
      <trkpt lat="48.166011" lon="24.277309">
        <ele>543.4226034098566</ele>
      </trkpt>
      <trkpt lat="48.165885" lon="24.276993">
        <ele>548.7219839843547</ele>
      </trkpt>
      <trkpt lat="48.165789" lon="24.276671">
        <ele>553.3714993976755</ele>
      </trkpt>
      <trkpt lat="48.165825" lon="24.276387">
        <ele>556.0772837226283</ele>
      </trkpt>
      <trkpt lat="48.165914" lon="24.276102">
        <ele>559.0749041331189</ele>
      </trkpt>
      <trkpt lat="48.166079" lon="24.275475">
        <ele>565.8068156353206</ele>
      </trkpt>
      <trkpt lat="48.166125" lon="24.275185">
        <ele>569.2021475555375</ele>
      </trkpt>
      <trkpt lat="48.166222" lon="24.274868">
        <ele>568.8529476281255</ele>
      </trkpt>
      <trkpt lat="48.166297" lon="24.274616">
        <ele>571.0524802211031</ele>
      </trkpt>
      <trkpt lat="48.166372" lon="24.27452">
        <ele>572.8401524863947</ele>
      </trkpt>
      <trkpt lat="48.166516" lon="24.274388">
        <ele>575.3538782479843</ele>
      </trkpt>
      <trkpt lat="48.166643" lon="24.274697">
        <ele>577.3700012279442</ele>
      </trkpt>
      <trkpt lat="48.166872" lon="24.274825">
        <ele>578.4350695349858</ele>
      </trkpt>
      <trkpt lat="48.16703" lon="24.274827">
        <ele>579.6918288451852</ele>
      </trkpt>
      <trkpt lat="48.167209" lon="24.274848">
        <ele>581.2913153997365</ele>
      </trkpt>
      <trkpt lat="48.167377" lon="24.274907">
        <ele>583.0714683093312</ele>
      </trkpt>
      <trkpt lat="48.167556" lon="24.274956">
        <ele>584.8444030920509</ele>
      </trkpt>
      <trkpt lat="48.167753" lon="24.275004">
        <ele>586.5650757835247</ele>
      </trkpt>
      <trkpt lat="48.167868" lon="24.274854">
        <ele>587.9325660405448</ele>
      </trkpt>
      <trkpt lat="48.167989" lon="24.274736">
        <ele>589.2558954135318</ele>
      </trkpt>
      <trkpt lat="48.168093" lon="24.274575">
        <ele>590.7104602399049</ele>
      </trkpt>
      <trkpt lat="48.168175" lon="24.27443">
        <ele>592.1705783724319</ele>
      </trkpt>
      <trkpt lat="48.168261" lon="24.274269">
        <ele>594.7041651288164</ele>
      </trkpt>
      <trkpt lat="48.168322" lon="24.274151">
        <ele>596.5344704802845</ele>
      </trkpt>
      <trkpt lat="48.168394" lon="24.273931">
        <ele>601.0199838864402</ele>
      </trkpt>
      <trkpt lat="48.168461" lon="24.273754">
        <ele>605.2747718822211</ele>
      </trkpt>
      <trkpt lat="48.16856" lon="24.273656">
        <ele>609.0586834707509</ele>
      </trkpt>
      <trkpt lat="48.16866" lon="24.273463">
        <ele>614.9078139804484</ele>
      </trkpt>
      <trkpt lat="48.168785" lon="24.273275">
        <ele>621.026325404971</ele>
      </trkpt>
      <trkpt lat="48.168914" lon="24.273104">
        <ele>626.4585848625284</ele>
      </trkpt>
      <trkpt lat="48.169043" lon="24.272948">
        <ele>631.1012762173331</ele>
      </trkpt>
      <trkpt lat="48.169171" lon="24.272776">
        <ele>635.6029684320112</ele>
      </trkpt>
      <trkpt lat="48.169282" lon="24.272674">
        <ele>639.3987301405286</ele>
      </trkpt>
      <trkpt lat="48.169418" lon="24.272503">
        <ele>644.1918374956585</ele>
      </trkpt>
      <trkpt lat="48.169511" lon="24.272369">
        <ele>646.6998967633117</ele>
      </trkpt>
      <trkpt lat="48.169683" lon="24.272288">
        <ele>649.671453590272</ele>
      </trkpt>
      <trkpt lat="48.169819" lon="24.272235">
        <ele>651.733317088107</ele>
      </trkpt>
      <trkpt lat="48.169923" lon="24.272213">
        <ele>653.3450300929845</ele>
      </trkpt>
      <trkpt lat="48.170105" lon="24.272208">
        <ele>656.6628780090251</ele>
      </trkpt>
      <trkpt lat="48.170277" lon="24.272186">
        <ele>660.0206041253352</ele>
      </trkpt>
      <trkpt lat="48.170406" lon="24.272084">
        <ele>663.5880546773225</ele>
      </trkpt>
      <trkpt lat="48.170549" lon="24.271956">
        <ele>668.1840628574137</ele>
      </trkpt>
      <trkpt lat="48.170635" lon="24.271768">
        <ele>671.9007606072701</ele>
      </trkpt>
      <trkpt lat="48.170742" lon="24.271575">
        <ele>675.1735186604784</ele>
      </trkpt>
      <trkpt lat="48.170792" lon="24.271387">
        <ele>677.6035919868154</ele>
      </trkpt>
      <trkpt lat="48.170842" lon="24.271264">
        <ele>679.551874165074</ele>
      </trkpt>
      <trkpt lat="48.17091" lon="24.271205">
        <ele>681.2553742170567</ele>
      </trkpt>
      <trkpt lat="48.170928" lon="24.27106">
        <ele>683.2507207712624</ele>
      </trkpt>
      <trkpt lat="48.170985" lon="24.270872">
        <ele>687.2654101823045</ele>
      </trkpt>
      <trkpt lat="48.171111" lon="24.270727">
        <ele>691.2631680890918</ele>
      </trkpt>
      <trkpt lat="48.171204" lon="24.270486">
        <ele>695.9057583661051</ele>
      </trkpt>
      <trkpt lat="48.171314" lon="24.270314">
        <ele>699.0456854174661</ele>
      </trkpt>
      <trkpt lat="48.171422" lon="24.270121">
        <ele>703.1058935684238</ele>
      </trkpt>
      <trkpt lat="48.171522" lon="24.26989">
        <ele>707.9944268685716</ele>
      </trkpt>
      <trkpt lat="48.171601" lon="24.269676">
        <ele>712.1134175104779</ele>
      </trkpt>
      <trkpt lat="48.171722" lon="24.269531">
        <ele>715.5067976847695</ele>
      </trkpt>
      <trkpt lat="48.171894" lon="24.269429">
        <ele>718.6856636529101</ele>
      </trkpt>
      <trkpt lat="48.172041" lon="24.269349">
        <ele>721.6196300387383</ele>
      </trkpt>
      <trkpt lat="48.172177" lon="24.269257">
        <ele>724.1425204738043</ele>
      </trkpt>
      <trkpt lat="48.172302" lon="24.269198">
        <ele>726.1240629025269</ele>
      </trkpt>
      <trkpt lat="48.172391" lon="24.269193">
        <ele>727.3464445907371</ele>
      </trkpt>
      <trkpt lat="48.172482" lon="24.269087">
        <ele>729.7257928699255</ele>
      </trkpt>
      <trkpt lat="48.172568" lon="24.268926">
        <ele>732.6350882380502</ele>
      </trkpt>
      <trkpt lat="48.17265" lon="24.26877">
        <ele>735.6290443608884</ele>
      </trkpt>
      <trkpt lat="48.172725" lon="24.268604">
        <ele>739.1862267490942</ele>
      </trkpt>
      <trkpt lat="48.172822" lon="24.268438">
        <ele>743.6506614747923</ele>
      </trkpt>
      <trkpt lat="48.172872" lon="24.268261">
        <ele>747.2600748703626</ele>
      </trkpt>
      <trkpt lat="48.172929" lon="24.26811">
        <ele>751.1254344561602</ele>
      </trkpt>
      <trkpt lat="48.173001" lon="24.267944">
        <ele>755.0835081042044</ele>
      </trkpt>
      <trkpt lat="48.173058" lon="24.267773">
        <ele>758.577594274655</ele>
      </trkpt>
      <trkpt lat="48.173105" lon="24.267574">
        <ele>761.7553656070539</ele>
      </trkpt>
      <trkpt lat="48.173133" lon="24.267392">
        <ele>763.8751656051494</ele>
      </trkpt>
      <trkpt lat="48.173148" lon="24.26722">
        <ele>764.9136716887589</ele>
      </trkpt>
      <trkpt lat="48.173155" lon="24.266968">
        <ele>765.3774473739738</ele>
      </trkpt>
      <trkpt lat="48.173171" lon="24.26681">
        <ele>766.0941920341941</ele>
      </trkpt>
      <trkpt lat="48.173207" lon="24.266654">
        <ele>767.362277777982</ele>
      </trkpt>
      <trkpt lat="48.173228" lon="24.266413">
        <ele>768.8892938750532</ele>
      </trkpt>
      <trkpt lat="48.173246" lon="24.266171">
        <ele>771.3375550808187</ele>
      </trkpt>
      <trkpt lat="48.173278" lon="24.265978">
        <ele>774.9695320983882</ele>
      </trkpt>
      <trkpt lat="48.173375" lon="24.265753">
        <ele>781.211981816101</ele>
      </trkpt>
      <trkpt lat="48.173475" lon="24.265592">
        <ele>786.2735270659905</ele>
      </trkpt>
      <trkpt lat="48.173579" lon="24.265452">
        <ele>791.0632584352279</ele>
      </trkpt>
      <trkpt lat="48.173672" lon="24.265329">
        <ele>795.1475348619861</ele>
      </trkpt>
      <trkpt lat="48.1738" lon="24.265174">
        <ele>799.9415767740438</ele>
      </trkpt>
      <trkpt lat="48.173893" lon="24.265034">
        <ele>803.0650312202731</ele>
      </trkpt>
      <trkpt lat="48.173994" lon="24.265034">
        <ele>805.7764291623985</ele>
      </trkpt>
      <trkpt lat="48.174104" lon="24.265029">
        <ele>809.103194370494</ele>
      </trkpt>
      <trkpt lat="48.174255" lon="24.264959">
        <ele>813.5568839809653</ele>
      </trkpt>
      <trkpt lat="48.174398" lon="24.264921">
        <ele>818.4355885926634</ele>
      </trkpt>
      <trkpt lat="48.174541" lon="24.264862">
        <ele>823.4607687868057</ele>
      </trkpt>
      <trkpt lat="48.17463" lon="24.264857">
        <ele>826.5489532220311</ele>
      </trkpt>
      <trkpt lat="48.174763" lon="24.26483">
        <ele>830.7786489996706</ele>
      </trkpt>
      <trkpt lat="48.174902" lon="24.264889">
        <ele>835.1524869884597</ele>
      </trkpt>
      <trkpt lat="48.175056" lon="24.26498">
        <ele>839.9475908775348</ele>
      </trkpt>
      <trkpt lat="48.175192" lon="24.265018">
        <ele>843.6156294624917</ele>
      </trkpt>
      <trkpt lat="48.175367" lon="24.265077">
        <ele>847.8067970314297</ele>
      </trkpt>
      <trkpt lat="48.175531" lon="24.265045">
        <ele>850.5789021300152</ele>
      </trkpt>
      <trkpt lat="48.175699" lon="24.264975">
        <ele>852.6855311897816</ele>
      </trkpt>
      <trkpt lat="48.175867" lon="24.264884">
        <ele>854.3997671447594</ele>
      </trkpt>
      <trkpt lat="48.175996" lon="24.264798">
        <ele>855.7433386580569</ele>
      </trkpt>
      <trkpt lat="48.176197" lon="24.264664">
        <ele>858.2238487997674</ele>
      </trkpt>
      <trkpt lat="48.176322" lon="24.264562">
        <ele>860.0850776918296</ele>
      </trkpt>
      <trkpt lat="48.176472" lon="24.264439">
        <ele>861.8912025644095</ele>
      </trkpt>
      <trkpt lat="48.176572" lon="24.264262">
        <ele>862.4289227519135</ele>
      </trkpt>
      <trkpt lat="48.176647" lon="24.264079">
        <ele>862.8709551783733</ele>
      </trkpt>
      <trkpt lat="48.17674" lon="24.2638">
        <ele>863.5122636963905</ele>
      </trkpt>
      <trkpt lat="48.176801" lon="24.263559">
        <ele>864.4541667703271</ele>
      </trkpt>
      <trkpt lat="48.176905" lon="24.26328">
        <ele>867.2382341286623</ele>
      </trkpt>
      <trkpt lat="48.177016" lon="24.263108">
        <ele>869.9550187092009</ele>
      </trkpt>
      <trkpt lat="48.177127" lon="24.262819">
        <ele>872.547928203082</ele>
      </trkpt>
      <trkpt lat="48.17726" lon="24.262615">
        <ele>875.7356468262942</ele>
      </trkpt>
      <trkpt lat="48.177345" lon="24.262395">
        <ele>878.4128454201336</ele>
      </trkpt>
      <trkpt lat="48.177449" lon="24.262159">
        <ele>881.7504429182968</ele>
      </trkpt>
      <trkpt lat="48.177535" lon="24.261939">
        <ele>885.4677600363813</ele>
      </trkpt>
      <trkpt lat="48.177685" lon="24.261681">
        <ele>889.2415377988549</ele>
      </trkpt>
      <trkpt lat="48.1778" lon="24.261488">
        <ele>890.1045075994218</ele>
      </trkpt>
      <trkpt lat="48.177989" lon="24.261327">
        <ele>889.7361729047159</ele>
      </trkpt>
      <trkpt lat="48.178116" lon="24.261233">
        <ele>889.3913453608327</ele>
      </trkpt>
      <trkpt lat="48.178348" lon="24.261023">
        <ele>889.9434169769837</ele>
      </trkpt>
      <trkpt lat="48.178481" lon="24.260895">
        <ele>890.9472652650818</ele>
      </trkpt>
      <trkpt lat="48.178606" lon="24.260793">
        <ele>890.4803214754708</ele>
      </trkpt>
      <trkpt lat="48.178752" lon="24.260659">
        <ele>889.5189168965882</ele>
      </trkpt>
      <trkpt lat="48.178867" lon="24.260557">
        <ele>888.8521429693383</ele>
      </trkpt>
      <trkpt lat="48.179003" lon="24.260406">
        <ele>888.4363008716521</ele>
      </trkpt>
      <trkpt lat="48.179139" lon="24.260283">
        <ele>888.5851552182944</ele>
      </trkpt>
      <trkpt lat="48.179303" lon="24.260187">
        <ele>888.2019068448943</ele>
      </trkpt>
      <trkpt lat="48.179443" lon="24.260074">
        <ele>889.0202306376129</ele>
      </trkpt>
      <trkpt lat="48.179649" lon="24.259829">
        <ele>894.1975441430695</ele>
      </trkpt>
      <trkpt lat="48.179767" lon="24.259663">
        <ele>898.9158358793939</ele>
      </trkpt>
      <trkpt lat="48.179906" lon="24.259416">
        <ele>904.8043767965864</ele>
      </trkpt>
      <trkpt lat="48.180038" lon="24.259158">
        <ele>911.2198956579668</ele>
      </trkpt>
      <trkpt lat="48.180131" lon="24.258895">
        <ele>916.8473470215686</ele>
      </trkpt>
      <trkpt lat="48.180253" lon="24.2586">
        <ele>926.050135987562</ele>
      </trkpt>
      <trkpt lat="48.180317" lon="24.258321">
        <ele>931.2113937206603</ele>
      </trkpt>
      <trkpt lat="48.180403" lon="24.258048">
        <ele>937.8773617895029</ele>
      </trkpt>
      <trkpt lat="48.180486" lon="24.257785">
        <ele>948.2485584032838</ele>
      </trkpt>
      <trkpt lat="48.180575" lon="24.257399">
        <ele>956.8702595108437</ele>
      </trkpt>
      <trkpt lat="48.180657" lon="24.25702">
        <ele>962.9947001862888</ele>
      </trkpt>
      <trkpt lat="48.180732" lon="24.256661">
        <ele>966.146704576928</ele>
      </trkpt>
      <trkpt lat="48.180807" lon="24.25635">
        <ele>968.5038892308223</ele>
      </trkpt>
      <trkpt lat="48.180861" lon="24.256028">
        <ele>970.5782312521071</ele>
      </trkpt>
      <trkpt lat="48.180943" lon="24.255759">
        <ele>973.6383675192684</ele>
      </trkpt>
      <trkpt lat="48.181036" lon="24.25548">
        <ele>976.0986091547128</ele>
      </trkpt>
      <trkpt lat="48.181108" lon="24.255212">
        <ele>981.0568999004317</ele>
      </trkpt>
      <trkpt lat="48.181176" lon="24.254955">
        <ele>985.9358717829454</ele>
      </trkpt>
      <trkpt lat="48.181204" lon="24.254778">
        <ele>987.932778854171</ele>
      </trkpt>
      <trkpt lat="48.181261" lon="24.254457">
        <ele>989.4396545993357</ele>
      </trkpt>
      <trkpt lat="48.181365" lon="24.254178">
        <ele>990.2510167977564</ele>
      </trkpt>
      <trkpt lat="48.181462" lon="24.253915">
        <ele>992.3970963534307</ele>
      </trkpt>
      <trkpt lat="48.18159" lon="24.253663">
        <ele>994.2058502305299</ele>
      </trkpt>
      <trkpt lat="48.181698" lon="24.253448">
        <ele>995.141961882118</ele>
      </trkpt>
      <trkpt lat="48.181823" lon="24.253239">
        <ele>997.1044095161469</ele>
      </trkpt>
      <trkpt lat="48.18198" lon="24.25303">
        <ele>1001.5746757473678</ele>
      </trkpt>
      <trkpt lat="48.182141" lon="24.252869">
        <ele>1008.7020043940397</ele>
      </trkpt>
      <trkpt lat="48.182256" lon="24.25274">
        <ele>1014.3937128579785</ele>
      </trkpt>
      <trkpt lat="48.18237" lon="24.25252">
        <ele>1017.9958800246822</ele>
      </trkpt>
      <trkpt lat="48.182491" lon="24.252237">
        <ele>1022.4345797124386</ele>
      </trkpt>
      <trkpt lat="48.182577" lon="24.251958">
        <ele>1025.7799474352505</ele>
      </trkpt>
      <trkpt lat="48.182681" lon="24.251712">
        <ele>1029.7373953853673</ele>
      </trkpt>
      <trkpt lat="48.182763" lon="24.251535">
        <ele>1031.4477044764162</ele>
      </trkpt>
      <trkpt lat="48.182945" lon="24.251438">
        <ele>1035.5671896338645</ele>
      </trkpt>
      <trkpt lat="48.183113" lon="24.2514">
        <ele>1037.1961593130836</ele>
      </trkpt>
      <trkpt lat="48.183285" lon="24.251374">
        <ele>1039.090997028396</ele>
      </trkpt>
      <trkpt lat="48.183482" lon="24.251288">
        <ele>1042.8349379077717</ele>
      </trkpt>
      <trkpt lat="48.183667" lon="24.251186">
        <ele>1048.3440994823025</ele>
      </trkpt>
      <trkpt lat="48.183856" lon="24.251073">
        <ele>1053.1981425177128</ele>
      </trkpt>
      <trkpt lat="48.184074" lon="24.251003">
        <ele>1059.4444156648356</ele>
      </trkpt>
      <trkpt lat="48.184296" lon="24.250998">
        <ele>1064.1815585865988</ele>
      </trkpt>
      <trkpt lat="48.184504" lon="24.251084">
        <ele>1068.2116057756357</ele>
      </trkpt>
      <trkpt lat="48.184661" lon="24.25117">
        <ele>1071.0760294382444</ele>
      </trkpt>
      <trkpt lat="48.184797" lon="24.251261">
        <ele>1073.4148142676468</ele>
      </trkpt>
      <trkpt lat="48.185076" lon="24.251588">
        <ele>1080.6538044421163</ele>
      </trkpt>
      <trkpt lat="48.185076" lon="24.251733">
        <ele>1083.2315428239062</ele>
      </trkpt>
      <trkpt lat="48.184944" lon="24.25184">
        <ele>1085.6386154940774</ele>
      </trkpt>
      <trkpt lat="48.184825" lon="24.251953">
        <ele>1090.2049819702515</ele>
      </trkpt>
      <trkpt lat="48.184779" lon="24.252173">
        <ele>1096.3138959084615</ele>
      </trkpt>
      <trkpt lat="48.184829" lon="24.252548">
        <ele>1103.982113807986</ele>
      </trkpt>
      <trkpt lat="48.184922" lon="24.252817">
        <ele>1108.3928803312592</ele>
      </trkpt>
      <trkpt lat="48.18504" lon="24.253096">
        <ele>1112.9335178472102</ele>
      </trkpt>
      <trkpt lat="48.185119" lon="24.25338">
        <ele>1117.239819897626</ele>
      </trkpt>
      <trkpt lat="48.185069" lon="24.25367">
        <ele>1121.5491583275143</ele>
      </trkpt>
      <trkpt lat="48.184979" lon="24.253954">
        <ele>1125.4844515633972</ele>
      </trkpt>
      <trkpt lat="48.18494" lon="24.254201">
        <ele>1129.681779993768</ele>
      </trkpt>
      <trkpt lat="48.185016" lon="24.254396">
        <ele>1132.4075577162628</ele>
      </trkpt>
      <trkpt lat="48.185167" lon="24.254449">
        <ele>1132.7811962923463</ele>
      </trkpt>
      <trkpt lat="48.185267" lon="24.254643">
        <ele>1137.3623338718269</ele>
      </trkpt>
      <trkpt lat="48.185213" lon="24.255093">
        <ele>1147.1604845328256</ele>
      </trkpt>
      <trkpt lat="48.185167" lon="24.255426">
        <ele>1151.7665393779534</ele>
      </trkpt>
      <trkpt lat="48.185127" lon="24.255683">
        <ele>1154.4756507963082</ele>
      </trkpt>
      <trkpt lat="48.185067" lon="24.256043">
        <ele>1158.0477299782215</ele>
      </trkpt>
      <trkpt lat="48.185052" lon="24.256327">
        <ele>1162.5556141925044</ele>
      </trkpt>
      <trkpt lat="48.185085" lon="24.256772">
        <ele>1169.36490325036</ele>
      </trkpt>
      <trkpt lat="48.185124" lon="24.257132">
        <ele>1173.2116855331114</ele>
      </trkpt>
      <trkpt lat="48.1852" lon="24.257362">
        <ele>1175.7337904406925</ele>
      </trkpt>
      <trkpt lat="48.18531" lon="24.257556">
        <ele>1179.1554615427003</ele>
      </trkpt>
      <trkpt lat="48.185457" lon="24.257759">
        <ele>1181.95103887422</ele>
      </trkpt>
      <trkpt lat="48.185636" lon="24.257792">
        <ele>1185.079038004391</ele>
      </trkpt>
      <trkpt lat="48.185793" lon="24.257717">
        <ele>1187.8225993069354</ele>
      </trkpt>
      <trkpt lat="48.186082" lon="24.257486">
        <ele>1192.7314534356146</ele>
      </trkpt>
      <trkpt lat="48.186261" lon="24.257336">
        <ele>1196.3353814670809</ele>
      </trkpt>
      <trkpt lat="48.186401" lon="24.257357">
        <ele>1199.6842819413869</ele>
      </trkpt>
      <trkpt lat="48.186587" lon="24.257336">
        <ele>1203.624081289596</ele>
      </trkpt>
      <trkpt lat="48.18678" lon="24.257314">
        <ele>1207.8671363347676</ele>
      </trkpt>
      <trkpt lat="48.186987" lon="24.257309">
        <ele>1212.7682981798457</ele>
      </trkpt>
      <trkpt lat="48.187162" lon="24.257293">
        <ele>1217.8412410727597</ele>
      </trkpt>
      <trkpt lat="48.187356" lon="24.25718">
        <ele>1221.798615775985</ele>
      </trkpt>
      <trkpt lat="48.1876" lon="24.257167">
        <ele>1227.9704024922103</ele>
      </trkpt>
      <trkpt lat="48.187829" lon="24.257167">
        <ele>1234.4546954360173</ele>
      </trkpt>
      <trkpt lat="48.18809" lon="24.257183">
        <ele>1242.6439077451942</ele>
      </trkpt>
      <trkpt lat="48.18809" lon="24.257183">
        <ele>1242.6439077451942</ele>
      </trkpt>
      <trkpt lat="48.187829" lon="24.257167">
        <ele>1234.4546954360173</ele>
      </trkpt>
      <trkpt lat="48.1876" lon="24.257167">
        <ele>1227.9704024922103</ele>
      </trkpt>
      <trkpt lat="48.187356" lon="24.25718">
        <ele>1221.798615775985</ele>
      </trkpt>
      <trkpt lat="48.187162" lon="24.257293">
        <ele>1217.8412410727597</ele>
      </trkpt>
      <trkpt lat="48.186987" lon="24.257309">
        <ele>1212.7682981798457</ele>
      </trkpt>
      <trkpt lat="48.18678" lon="24.257314">
        <ele>1207.8671363347676</ele>
      </trkpt>
      <trkpt lat="48.186587" lon="24.257336">
        <ele>1203.624081289596</ele>
      </trkpt>
      <trkpt lat="48.186401" lon="24.257357">
        <ele>1199.6842819413869</ele>
      </trkpt>
      <trkpt lat="48.186261" lon="24.257336">
        <ele>1196.3353814670809</ele>
      </trkpt>
      <trkpt lat="48.186082" lon="24.257486">
        <ele>1192.7314534356146</ele>
      </trkpt>
      <trkpt lat="48.185793" lon="24.257717">
        <ele>1187.8225993069354</ele>
      </trkpt>
      <trkpt lat="48.185636" lon="24.257792">
        <ele>1185.079038004391</ele>
      </trkpt>
      <trkpt lat="48.185457" lon="24.257759">
        <ele>1181.95103887422</ele>
      </trkpt>
      <trkpt lat="48.18531" lon="24.257556">
        <ele>1179.1554615427003</ele>
      </trkpt>
      <trkpt lat="48.1852" lon="24.257362">
        <ele>1175.7337904406925</ele>
      </trkpt>
      <trkpt lat="48.185124" lon="24.257132">
        <ele>1173.2116855331114</ele>
      </trkpt>
      <trkpt lat="48.185085" lon="24.256772">
        <ele>1169.36490325036</ele>
      </trkpt>
      <trkpt lat="48.185052" lon="24.256327">
        <ele>1162.5556141925044</ele>
      </trkpt>
      <trkpt lat="48.185067" lon="24.256043">
        <ele>1158.0477299782215</ele>
      </trkpt>
      <trkpt lat="48.185127" lon="24.255683">
        <ele>1154.4756507963082</ele>
      </trkpt>
      <trkpt lat="48.185167" lon="24.255426">
        <ele>1151.7665393779534</ele>
      </trkpt>
      <trkpt lat="48.185213" lon="24.255093">
        <ele>1147.1604845328256</ele>
      </trkpt>
      <trkpt lat="48.185267" lon="24.254643">
        <ele>1137.3623338718269</ele>
      </trkpt>
      <trkpt lat="48.185167" lon="24.254449">
        <ele>1132.7811962923463</ele>
      </trkpt>
      <trkpt lat="48.185016" lon="24.254396">
        <ele>1132.4075577162628</ele>
      </trkpt>
      <trkpt lat="48.18494" lon="24.254201">
        <ele>1129.681779993768</ele>
      </trkpt>
      <trkpt lat="48.184979" lon="24.253954">
        <ele>1125.4844515633972</ele>
      </trkpt>
      <trkpt lat="48.185069" lon="24.25367">
        <ele>1121.5491583275143</ele>
      </trkpt>
      <trkpt lat="48.185119" lon="24.25338">
        <ele>1117.239819897626</ele>
      </trkpt>
      <trkpt lat="48.18504" lon="24.253096">
        <ele>1112.9335178472102</ele>
      </trkpt>
      <trkpt lat="48.184922" lon="24.252817">
        <ele>1108.3928803312592</ele>
      </trkpt>
      <trkpt lat="48.184829" lon="24.252548">
        <ele>1103.982113807986</ele>
      </trkpt>
      <trkpt lat="48.184779" lon="24.252173">
        <ele>1096.3138959084615</ele>
      </trkpt>
      <trkpt lat="48.184825" lon="24.251953">
        <ele>1090.2049819702515</ele>
      </trkpt>
      <trkpt lat="48.184944" lon="24.25184">
        <ele>1085.6386154940774</ele>
      </trkpt>
      <trkpt lat="48.185076" lon="24.251733">
        <ele>1083.2315428239062</ele>
      </trkpt>
      <trkpt lat="48.185076" lon="24.251588">
        <ele>1080.6538044421163</ele>
      </trkpt>
      <trkpt lat="48.184797" lon="24.251261">
        <ele>1073.4148142676468</ele>
      </trkpt>
      <trkpt lat="48.184661" lon="24.25117">
        <ele>1071.0760294382444</ele>
      </trkpt>
      <trkpt lat="48.184504" lon="24.251084">
        <ele>1068.2116057756357</ele>
      </trkpt>
      <trkpt lat="48.184296" lon="24.250998">
        <ele>1064.1815585865988</ele>
      </trkpt>
      <trkpt lat="48.184074" lon="24.251003">
        <ele>1059.4444156648356</ele>
      </trkpt>
      <trkpt lat="48.183856" lon="24.251073">
        <ele>1053.1981425177128</ele>
      </trkpt>
      <trkpt lat="48.183667" lon="24.251186">
        <ele>1048.3440994823025</ele>
      </trkpt>
      <trkpt lat="48.183482" lon="24.251288">
        <ele>1042.8349379077717</ele>
      </trkpt>
      <trkpt lat="48.183285" lon="24.251374">
        <ele>1039.090997028396</ele>
      </trkpt>
      <trkpt lat="48.183113" lon="24.2514">
        <ele>1037.1961593130836</ele>
      </trkpt>
      <trkpt lat="48.182945" lon="24.251438">
        <ele>1035.5671896338645</ele>
      </trkpt>
      <trkpt lat="48.182763" lon="24.251535">
        <ele>1031.4477044764162</ele>
      </trkpt>
      <trkpt lat="48.182681" lon="24.251712">
        <ele>1029.7373953853673</ele>
      </trkpt>
      <trkpt lat="48.182577" lon="24.251958">
        <ele>1025.7799474352505</ele>
      </trkpt>
      <trkpt lat="48.182491" lon="24.252237">
        <ele>1022.4345797124386</ele>
      </trkpt>
      <trkpt lat="48.18237" lon="24.25252">
        <ele>1017.9958800246822</ele>
      </trkpt>
      <trkpt lat="48.182256" lon="24.25274">
        <ele>1014.3937128579785</ele>
      </trkpt>
      <trkpt lat="48.182141" lon="24.252869">
        <ele>1008.7020043940397</ele>
      </trkpt>
      <trkpt lat="48.18198" lon="24.25303">
        <ele>1001.5746757473678</ele>
      </trkpt>
      <trkpt lat="48.181823" lon="24.253239">
        <ele>997.1044095161469</ele>
      </trkpt>
      <trkpt lat="48.181698" lon="24.253448">
        <ele>995.141961882118</ele>
      </trkpt>
      <trkpt lat="48.18159" lon="24.253663">
        <ele>994.2058502305299</ele>
      </trkpt>
      <trkpt lat="48.181462" lon="24.253915">
        <ele>992.3970963534307</ele>
      </trkpt>
      <trkpt lat="48.181365" lon="24.254178">
        <ele>990.2510167977564</ele>
      </trkpt>
      <trkpt lat="48.181261" lon="24.254457">
        <ele>989.4396545993357</ele>
      </trkpt>
      <trkpt lat="48.181204" lon="24.254778">
        <ele>987.932778854171</ele>
      </trkpt>
      <trkpt lat="48.181176" lon="24.254955">
        <ele>985.9358717829454</ele>
      </trkpt>
      <trkpt lat="48.181108" lon="24.255212">
        <ele>981.0568999004317</ele>
      </trkpt>
      <trkpt lat="48.181036" lon="24.25548">
        <ele>976.0986091547128</ele>
      </trkpt>
      <trkpt lat="48.180943" lon="24.255759">
        <ele>973.6383675192684</ele>
      </trkpt>
      <trkpt lat="48.180861" lon="24.256028">
        <ele>970.5782312521071</ele>
      </trkpt>
      <trkpt lat="48.180807" lon="24.25635">
        <ele>968.5038892308223</ele>
      </trkpt>
      <trkpt lat="48.180732" lon="24.256661">
        <ele>966.146704576928</ele>
      </trkpt>
      <trkpt lat="48.180657" lon="24.25702">
        <ele>962.9947001862888</ele>
      </trkpt>
      <trkpt lat="48.180575" lon="24.257399">
        <ele>956.8702595108437</ele>
      </trkpt>
      <trkpt lat="48.180486" lon="24.257785">
        <ele>948.2485584032838</ele>
      </trkpt>
      <trkpt lat="48.180403" lon="24.258048">
        <ele>937.8773617895029</ele>
      </trkpt>
      <trkpt lat="48.180317" lon="24.258321">
        <ele>931.2113937206603</ele>
      </trkpt>
      <trkpt lat="48.180253" lon="24.2586">
        <ele>926.050135987562</ele>
      </trkpt>
      <trkpt lat="48.180131" lon="24.258895">
        <ele>916.8473470215686</ele>
      </trkpt>
      <trkpt lat="48.180038" lon="24.259158">
        <ele>911.2198956579668</ele>
      </trkpt>
      <trkpt lat="48.179906" lon="24.259416">
        <ele>904.8043767965864</ele>
      </trkpt>
      <trkpt lat="48.179767" lon="24.259663">
        <ele>898.9158358793939</ele>
      </trkpt>
      <trkpt lat="48.179649" lon="24.259829">
        <ele>894.1975441430695</ele>
      </trkpt>
      <trkpt lat="48.179391" lon="24.260158">
        <ele>888.0429838849744</ele>
      </trkpt>
      <trkpt lat="48.179341" lon="24.260297">
        <ele>886.7627843525262</ele>
      </trkpt>
      <trkpt lat="48.179219" lon="24.260565">
        <ele>884.2920535462908</ele>
      </trkpt>
      <trkpt lat="48.179144" lon="24.260737">
        <ele>881.7510332285477</ele>
      </trkpt>
      <trkpt lat="48.179147" lon="24.260909">
        <ele>877.7541624796676</ele>
      </trkpt>
      <trkpt lat="48.17889" lon="24.261112">
        <ele>877.6613489483013</ele>
      </trkpt>
      <trkpt lat="48.178758" lon="24.261424">
        <ele>871.8355664364188</ele>
      </trkpt>
      <trkpt lat="48.178604" lon="24.261751">
        <ele>865.5405591535663</ele>
      </trkpt>
      <trkpt lat="48.178321" lon="24.262116">
        <ele>862.0484380045643</ele>
      </trkpt>
      <trkpt lat="48.178039" lon="24.262893">
        <ele>852.193495827863</ele>
      </trkpt>
      <trkpt lat="48.177892" lon="24.263344">
        <ele>840.5739164073019</ele>
      </trkpt>
      <trkpt lat="48.177713" lon="24.264047">
        <ele>832.2380537319114</ele>
      </trkpt>
      <trkpt lat="48.177548" lon="24.264712">
        <ele>825.8165753006069</ele>
      </trkpt>
      <trkpt lat="48.177427" lon="24.26535">
        <ele>817.1547425633762</ele>
      </trkpt>
      <trkpt lat="48.177345" lon="24.26593">
        <ele>812.601580424337</ele>
      </trkpt>
      <trkpt lat="48.177173" lon="24.266528">
        <ele>811.5194030788263</ele>
      </trkpt>
      <trkpt lat="48.177001" lon="24.266962">
        <ele>807.8091936788114</ele>
      </trkpt>
      <trkpt lat="48.176819" lon="24.267365">
        <ele>802.6916707918281</ele>
      </trkpt>
      <trkpt lat="48.176658" lon="24.267778">
        <ele>794.390695207688</ele>
      </trkpt>
      <trkpt lat="48.176504" lon="24.26825">
        <ele>787.5757253099582</ele>
      </trkpt>
      <trkpt lat="48.176357" lon="24.268539">
        <ele>783.2685140932733</ele>
      </trkpt>
      <trkpt lat="48.176132" lon="24.268835">
        <ele>775.150057736417</ele>
      </trkpt>
      <trkpt lat="48.176021" lon="24.26891">
        <ele>773.3119325323931</ele>
      </trkpt>
      <trkpt lat="48.175785" lon="24.268985">
        <ele>771.7242116020288</ele>
      </trkpt>
      <trkpt lat="48.175545" lon="24.269006">
        <ele>770.6115005065221</ele>
      </trkpt>
      <trkpt lat="48.175334" lon="24.26906">
        <ele>767.9603982537519</ele>
      </trkpt>
      <trkpt lat="48.175102" lon="24.269226">
        <ele>762.7316766571599</ele>
      </trkpt>
      <trkpt lat="48.17488" lon="24.269451">
        <ele>758.102546335624</ele>
      </trkpt>
      <trkpt lat="48.174687" lon="24.269736">
        <ele>754.0155770653296</ele>
      </trkpt>
      <trkpt lat="48.174356" lon="24.269835">
        <ele>748.7863574907891</ele>
      </trkpt>
      <trkpt lat="48.174095" lon="24.269942">
        <ele>744.10516239563</ele>
      </trkpt>
      <trkpt lat="48.173866" lon="24.270152">
        <ele>736.6801166974085</ele>
      </trkpt>
      <trkpt lat="48.173898" lon="24.270559">
        <ele>731.8173523872321</ele>
      </trkpt>
      <trkpt lat="48.174052" lon="24.270951">
        <ele>728.3050023522228</ele>
      </trkpt>
      <trkpt lat="48.174009" lon="24.271471">
        <ele>722.5777308754623</ele>
      </trkpt>
      <trkpt lat="48.174205" lon="24.27175">
        <ele>718.7327111111954</ele>
      </trkpt>
      <trkpt lat="48.17447" lon="24.271836">
        <ele>716.1463716747458</ele>
      </trkpt>
      <trkpt lat="48.174721" lon="24.271992">
        <ele>711.5937024001032</ele>
      </trkpt>
      <trkpt lat="48.174754" lon="24.272376">
        <ele>702.7864759445074</ele>
      </trkpt>
      <trkpt lat="48.174564" lon="24.272795">
        <ele>696.0891588889416</ele>
      </trkpt>
      <trkpt lat="48.174417" lon="24.273202">
        <ele>690.0758297111765</ele>
      </trkpt>
      <trkpt lat="48.174142" lon="24.27346">
        <ele>683.75498043607</ele>
      </trkpt>
      <trkpt lat="48.173856" lon="24.273653">
        <ele>676.7594777982372</ele>
      </trkpt>
      <trkpt lat="48.173645" lon="24.27368">
        <ele>672.3226375684608</ele>
      </trkpt>
      <trkpt lat="48.173419" lon="24.273787">
        <ele>667.3531715534627</ele>
      </trkpt>
      <trkpt lat="48.173319" lon="24.274071">
        <ele>660.928140412839</ele>
      </trkpt>
      <trkpt lat="48.173219" lon="24.274383">
        <ele>656.0873748885317</ele>
      </trkpt>
      <trkpt lat="48.172954" lon="24.274506">
        <ele>652.1249438058585</ele>
      </trkpt>
      <trkpt lat="48.172661" lon="24.274511">
        <ele>649.4439805090536</ele>
      </trkpt>
      <trkpt lat="48.1724" lon="24.274474">
        <ele>647.9318361993975</ele>
      </trkpt>
      <trkpt lat="48.172189" lon="24.274533">
        <ele>645.441460232315</ele>
      </trkpt>
      <trkpt lat="48.171745" lon="24.274544">
        <ele>638.4321789757814</ele>
      </trkpt>
      <trkpt lat="48.171477" lon="24.274576">
        <ele>634.4874644375969</ele>
      </trkpt>
      <trkpt lat="48.171187" lon="24.274587">
        <ele>629.823628513841</ele>
      </trkpt>
      <trkpt lat="48.170919" lon="24.274555">
        <ele>625.3737905917224</ele>
      </trkpt>
      <trkpt lat="48.17074" lon="24.274624">
        <ele>622.2429931291522</ele>
      </trkpt>
      <trkpt lat="48.170396" lon="24.274603">
        <ele>617.6166099023317</ele>
      </trkpt>
      <trkpt lat="48.170103" lon="24.274662">
        <ele>613.2027471393812</ele>
      </trkpt>
      <trkpt lat="48.16986" lon="24.274732">
        <ele>609.8511425323416</ele>
      </trkpt>
      <trkpt lat="48.169591" lon="24.274828">
        <ele>608.1492035134376</ele>
      </trkpt>
      <trkpt lat="48.169348" lon="24.275048">
        <ele>605.3409161587479</ele>
      </trkpt>
      <trkpt lat="48.16896" lon="24.275139">
        <ele>599.24460063228</ele>
      </trkpt>
      <trkpt lat="48.168567" lon="24.27522">
        <ele>593.8753722402681</ele>
      </trkpt>
      <trkpt lat="48.168334" lon="24.275225">
        <ele>591.3204762202314</ele>
      </trkpt>
      <trkpt lat="48.16813" lon="24.275214">
        <ele>589.1724127479829</ele>
      </trkpt>
      <trkpt lat="48.16788" lon="24.275096">
        <ele>587.443825515601</ele>
      </trkpt>
      <trkpt lat="48.167455" lon="24.274906">
        <ele>583.9513404287595</ele>
      </trkpt>
      <trkpt lat="48.167137" lon="24.274868">
        <ele>580.5398088275523</ele>
      </trkpt>
      <trkpt lat="48.166811" lon="24.274836">
        <ele>578.1686751939122</ele>
      </trkpt>
      <trkpt lat="48.166643" lon="24.274653">
        <ele>577.3700012279442</ele>
      </trkpt>
      <trkpt lat="48.166486" lon="24.274401">
        <ele>574.9064510700304</ele>
      </trkpt>
      <trkpt lat="48.166278" lon="24.274761">
        <ele>570.4296762845848</ele>
      </trkpt>
      <trkpt lat="48.166108" lon="24.275243">
        <ele>569.5400220444426</ele>
      </trkpt>
      <trkpt lat="48.166058" lon="24.275656">
        <ele>565.1618176881457</ele>
      </trkpt>
      <trkpt lat="48.165879" lon="24.276279">
        <ele>557.0314945349237</ele>
      </trkpt>
      <trkpt lat="48.165822" lon="24.276606">
        <ele>553.8405801659683</ele>
      </trkpt>
      <trkpt lat="48.165883" lon="24.277014">
        <ele>548.435556606637</ele>
      </trkpt>
      <trkpt lat="48.16599" lon="24.277276">
        <ele>543.9534586412198</ele>
      </trkpt>
      <trkpt lat="48.166091" lon="24.277518">
        <ele>539.2249984003138</ele>
      </trkpt>
      <trkpt lat="48.165282" lon="24.278145">
        <ele>544.4791099801514</ele>
      </trkpt>
      <trkpt lat="48.164739" lon="24.278553">
        <ele>546.8287324942024</ele>
      </trkpt>
      <trkpt lat="48.16408" lon="24.278424">
        <ele>548.6717040113872</ele>
      </trkpt>
      <trkpt lat="48.163522" lon="24.278166">
        <ele>548.1484031999717</ele>
      </trkpt>
      <trkpt lat="48.163336" lon="24.278896">
        <ele>543.6731656786287</ele>
      </trkpt>
      <trkpt lat="48.163407" lon="24.27999">
        <ele>537.8066986666527</ele>
      </trkpt>
      <trkpt lat="48.163765" lon="24.28087">
        <ele>537.0266659674235</ele>
      </trkpt>
      <trkpt lat="48.164052" lon="24.281514">
        <ele>539.5356223999988</ele>
      </trkpt>
    </trkseg>
  </trk>
</gpx>
