<?xml version="1.0" encoding="UTF-8"?>
<gpx version="1.1" creator="phpGPX/1.0RC5" schemaLocation="http://www.topografix.com/GPX/1/1 http://www.topografix.com/GPX/1/1/gpx.xsd http://www.garmin.com/xmlschemas/GpxExtensions/v3 http://www.garmin.com/xmlschemas/GpxExtensionsv3.xsd http://www.garmin.com/xmlschemas/TrackPointExtension/v1 http://www.garmin.com/xmlschemas/TrackPointExtensionv1.xsd http://www.garmin.com/xmlschemas/PowerExtension/v1 http://www.garmin.com/xmlschemas/PowerExtensionv1.xsd http://www.topografix.com/GPX/gpx_style/0/2 http://www.topografix.com/GPX/gpx_style/0/2/gpx_style.xsd" xmlns="http://www.topografix.com/GPX/1/1" xmlns:xsi="http://www.w3.org/2001/XMLSchema-instance" xsi:schemaLocation="http://www.topografix.com/GPX/1/1 http://www.topografix.com/GPX/1/1/gpx.xsd http://www.garmin.com/xmlschemas/GpxExtensions/v3 http://www.garmin.com/xmlschemas/GpxExtensionsv3.xsd http://www.garmin.com/xmlschemas/TrackPointExtension/v1 http://www.garmin.com/xmlschemas/TrackPointExtensionv1.xsd http://www.garmin.com/xmlschemas/PowerExtension/v1 http://www.garmin.com/xmlschemas/PowerExtensionv1.xsd http://www.topografix.com/GPX/gpx_style/0/2 http://www.topografix.com/GPX/gpx_style/0/2/gpx_style.xsd" xmlns:gpxtpx="http://www.garmin.com/xmlschemas/TrackPointExtension/v1" xmlns:gpxx="http://www.garmin.com/xmlschemas/GpxExtensions/v3" xmlns:gpxpx="http://www.garmin.com/xmlschemas/PowerExtension/v1" xmlns:gpx_style="http://www.topografix.com/GPX/gpx_style/0/2">
  <metadata>
    <name>Кваси - полонина Веснарка - полонина Менчул</name>
    <author>
      <name>gpx.studio</name>
      <link href="https://gpx.studio"/>
    </author>
  </metadata>
  <trk>
    <name>Кваси - полонина Веснарка - полонина Менчул</name>
    <trkseg>
      <trkpt lat="48.164769" lon="24.282132">
        <ele>540.5</ele>
      </trkpt>
      <trkpt lat="48.164651" lon="24.281969">
        <ele>540.4343755726863</ele>
      </trkpt>
      <trkpt lat="48.164404" lon="24.281832">
        <ele>540.4618645333685</ele>
      </trkpt>
      <trkpt lat="48.164144" lon="24.281721">
        <ele>540</ele>
      </trkpt>
      <trkpt lat="48.16401" lon="24.282602">
        <ele>542.9466879060925</ele>
      </trkpt>
      <trkpt lat="48.163879" lon="24.283199">
        <ele>546.4659699321492</ele>
      </trkpt>
      <trkpt lat="48.163756" lon="24.283685">
        <ele>554.8757779128124</ele>
      </trkpt>
      <trkpt lat="48.163736" lon="24.284517">
        <ele>564.3190677552263</ele>
      </trkpt>
      <trkpt lat="48.163556" lon="24.284312">
        <ele>564.7766795090893</ele>
      </trkpt>
      <trkpt lat="48.16339" lon="24.284213">
        <ele>568.8803031968419</ele>
      </trkpt>
      <trkpt lat="48.16332" lon="24.284424">
        <ele>573.4169053916121</ele>
      </trkpt>
      <trkpt lat="48.163311" lon="24.284941">
        <ele>579.6310272311093</ele>
      </trkpt>
      <trkpt lat="48.163041" lon="24.285242">
        <ele>589.7730468024454</ele>
      </trkpt>
      <trkpt lat="48.162816" lon="24.285506">
        <ele>602.7441846554063</ele>
      </trkpt>
      <trkpt lat="48.162744" lon="24.285849">
        <ele>608.854176039109</ele>
      </trkpt>
      <trkpt lat="48.162753" lon="24.285926">
        <ele>608.5675424860674</ele>
      </trkpt>
      <trkpt lat="48.162686" lon="24.285928">
        <ele>612.376824056264</ele>
      </trkpt>
      <trkpt lat="48.162447" lon="24.285408">
        <ele>620.147045382715</ele>
      </trkpt>
      <trkpt lat="48.162312" lon="24.285533">
        <ele>625.3254099783173</ele>
      </trkpt>
      <trkpt lat="48.162003" lon="24.285736">
        <ele>634.4752149006817</ele>
      </trkpt>
      <trkpt lat="48.161797" lon="24.285906">
        <ele>641.2994606177688</ele>
      </trkpt>
      <trkpt lat="48.161517" lon="24.286049">
        <ele>648.8070975162555</ele>
      </trkpt>
      <trkpt lat="48.161339" lon="24.286174">
        <ele>652.5977678743075</ele>
      </trkpt>
      <trkpt lat="48.161234" lon="24.286974">
        <ele>668.75859189732</ele>
      </trkpt>
      <trkpt lat="48.161139" lon="24.28752">
        <ele>682.9706698334728</ele>
      </trkpt>
      <trkpt lat="48.161037" lon="24.288232">
        <ele>703.517721146042</ele>
      </trkpt>
      <trkpt lat="48.16092" lon="24.288536">
        <ele>713.1355910536367</ele>
      </trkpt>
      <trkpt lat="48.16079" lon="24.288794">
        <ele>721.2375594243362</ele>
      </trkpt>
      <trkpt lat="48.160621" lon="24.289004">
        <ele>729.1662418811259</ele>
      </trkpt>
      <trkpt lat="48.160527" lon="24.289179">
        <ele>735.255483127432</ele>
      </trkpt>
      <trkpt lat="48.160426" lon="24.289318">
        <ele>740.6995400082087</ele>
      </trkpt>
      <trkpt lat="48.160384" lon="24.289453">
        <ele>744.6026122972254</ele>
      </trkpt>
      <trkpt lat="48.160419" lon="24.289624">
        <ele>747.167267871846</ele>
      </trkpt>
      <trkpt lat="48.160579" lon="24.289917">
        <ele>749.3056835664902</ele>
      </trkpt>
      <trkpt lat="48.160688" lon="24.29017">
        <ele>751.6538931879913</ele>
      </trkpt>
      <trkpt lat="48.160841" lon="24.290493">
        <ele>754.2309914740035</ele>
      </trkpt>
      <trkpt lat="48.160837" lon="24.290913">
        <ele>763.811354896985</ele>
      </trkpt>
      <trkpt lat="48.160718" lon="24.290756">
        <ele>763.2707450604066</ele>
      </trkpt>
      <trkpt lat="48.160548" lon="24.290644">
        <ele>765.2435543716418</ele>
      </trkpt>
      <trkpt lat="48.16019" lon="24.290503">
        <ele>769.7204417302273</ele>
      </trkpt>
      <trkpt lat="48.159918" lon="24.29048">
        <ele>771.6603481419803</ele>
      </trkpt>
      <trkpt lat="48.15974" lon="24.290602">
        <ele>774.1325558326207</ele>
      </trkpt>
      <trkpt lat="48.159535" lon="24.290716">
        <ele>774.3239265531648</ele>
      </trkpt>
      <trkpt lat="48.159359" lon="24.290901">
        <ele>775.5270434878767</ele>
      </trkpt>
      <trkpt lat="48.159195" lon="24.291121">
        <ele>777.8070445903577</ele>
      </trkpt>
      <trkpt lat="48.159016" lon="24.291293">
        <ele>779.2226531633099</ele>
      </trkpt>
      <trkpt lat="48.158844" lon="24.291472">
        <ele>782.8535326969712</ele>
      </trkpt>
      <trkpt lat="48.158535" lon="24.291615">
        <ele>786.0554149543168</ele>
      </trkpt>
      <trkpt lat="48.158307" lon="24.291678">
        <ele>787.2188018872403</ele>
      </trkpt>
      <trkpt lat="48.157997" lon="24.291867">
        <ele>792.6621732291533</ele>
      </trkpt>
      <trkpt lat="48.157654" lon="24.292052">
        <ele>796.4764760636115</ele>
      </trkpt>
      <trkpt lat="48.157435" lon="24.292193">
        <ele>799.2714291529846</ele>
      </trkpt>
      <trkpt lat="48.157115" lon="24.292319">
        <ele>801.7403321670135</ele>
      </trkpt>
      <trkpt lat="48.156936" lon="24.29242">
        <ele>802.9607626303914</ele>
      </trkpt>
      <trkpt lat="48.156761" lon="24.292591">
        <ele>804.3677886447576</ele>
      </trkpt>
      <trkpt lat="48.15661" lon="24.292831">
        <ele>807.3554702399415</ele>
      </trkpt>
      <trkpt lat="48.15649" lon="24.293095">
        <ele>812.3604216842903</ele>
      </trkpt>
      <trkpt lat="48.156345" lon="24.293322">
        <ele>818.1798989642411</ele>
      </trkpt>
      <trkpt lat="48.156097" lon="24.293512">
        <ele>828.8296075479593</ele>
      </trkpt>
      <trkpt lat="48.155962" lon="24.293295">
        <ele>826.9601911976351</ele>
      </trkpt>
      <trkpt lat="48.15578" lon="24.293084">
        <ele>827.8265854392853</ele>
      </trkpt>
      <trkpt lat="48.15556" lon="24.292944">
        <ele>831.5919674095719</ele>
      </trkpt>
      <trkpt lat="48.155263" lon="24.292697">
        <ele>831.8443941816222</ele>
      </trkpt>
      <trkpt lat="48.154966" lon="24.292593">
        <ele>834.7952577518455</ele>
      </trkpt>
      <trkpt lat="48.153825" lon="24.292724">
        <ele>848.280905458203</ele>
      </trkpt>
      <trkpt lat="48.153509" lon="24.292831">
        <ele>852.9863065513274</ele>
      </trkpt>
      <trkpt lat="48.153255" lon="24.292968">
        <ele>856.4298521962482</ele>
      </trkpt>
      <trkpt lat="48.15313" lon="24.293115">
        <ele>859.5744778918813</ele>
      </trkpt>
      <trkpt lat="48.152988" lon="24.293295">
        <ele>862.5828663106658</ele>
      </trkpt>
      <trkpt lat="48.152816" lon="24.293489">
        <ele>864.9748368505388</ele>
      </trkpt>
      <trkpt lat="48.152678" lon="24.293679">
        <ele>866.5768315708265</ele>
      </trkpt>
      <trkpt lat="48.152544" lon="24.293899">
        <ele>868.7254093449192</ele>
      </trkpt>
      <trkpt lat="48.152407" lon="24.294113">
        <ele>869.8859155988943</ele>
      </trkpt>
      <trkpt lat="48.15226" lon="24.294543">
        <ele>872.5854613543488</ele>
      </trkpt>
      <trkpt lat="48.152126" lon="24.294818">
        <ele>874.1185741103254</ele>
      </trkpt>
      <trkpt lat="48.152007" lon="24.295193">
        <ele>874.9409375709811</ele>
      </trkpt>
      <trkpt lat="48.152017" lon="24.295386">
        <ele>876.7557524358999</ele>
      </trkpt>
      <trkpt lat="48.152052" lon="24.295586">
        <ele>878.5888834947255</ele>
      </trkpt>
      <trkpt lat="48.152116" lon="24.29586">
        <ele>881.3408995899979</ele>
      </trkpt>
      <trkpt lat="48.152246" lon="24.296274">
        <ele>884.545533508638</ele>
      </trkpt>
      <trkpt lat="48.152386" lon="24.296543">
        <ele>890.544638053022</ele>
      </trkpt>
      <trkpt lat="48.152414" lon="24.297063">
        <ele>893.4081799578853</ele>
      </trkpt>
      <trkpt lat="48.152464" lon="24.29752">
        <ele>902.8195207190038</ele>
      </trkpt>
      <trkpt lat="48.152335" lon="24.297838">
        <ele>906.5359360656398</ele>
      </trkpt>
      <trkpt lat="48.152252" lon="24.298138">
        <ele>911.7539084555356</ele>
      </trkpt>
      <trkpt lat="48.15224" lon="24.298568">
        <ele>920.3761354426388</ele>
      </trkpt>
      <trkpt lat="48.152344" lon="24.299163">
        <ele>933.3124261796345</ele>
      </trkpt>
      <trkpt lat="48.152378" lon="24.299414">
        <ele>936.6949030414689</ele>
      </trkpt>
      <trkpt lat="48.152348" lon="24.29985">
        <ele>939.9551002191101</ele>
      </trkpt>
      <trkpt lat="48.152163" lon="24.300236">
        <ele>946.7020725282582</ele>
      </trkpt>
      <trkpt lat="48.151849" lon="24.30034">
        <ele>952.4596517675263</ele>
      </trkpt>
      <trkpt lat="48.151643" lon="24.300637">
        <ele>954.6317731055735</ele>
      </trkpt>
      <trkpt lat="48.151583" lon="24.301074">
        <ele>952.7607605602825</ele>
      </trkpt>
      <trkpt lat="48.151634" lon="24.301769">
        <ele>958.2907131264838</ele>
      </trkpt>
      <trkpt lat="48.15172" lon="24.302834">
        <ele>980.0546317674452</ele>
      </trkpt>
      <trkpt lat="48.151582" lon="24.3034">
        <ele>984.5279165534303</ele>
      </trkpt>
      <trkpt lat="48.151428" lon="24.304208">
        <ele>987.4063134086318</ele>
      </trkpt>
      <trkpt lat="48.151305" lon="24.304902">
        <ele>992.2110488709487</ele>
      </trkpt>
      <trkpt lat="48.151204" lon="24.305166">
        <ele>994.1578185049935</ele>
      </trkpt>
      <trkpt lat="48.151116" lon="24.305477">
        <ele>998.2613230589777</ele>
      </trkpt>
      <trkpt lat="48.151007" lon="24.305932">
        <ele>1003.8984314099652</ele>
      </trkpt>
      <trkpt lat="48.150902" lon="24.306228">
        <ele>1006.5633523226716</ele>
      </trkpt>
      <trkpt lat="48.150791" lon="24.306617">
        <ele>1011.537507371977</ele>
      </trkpt>
      <trkpt lat="48.150671" lon="24.307318">
        <ele>1022.2181879026989</ele>
      </trkpt>
      <trkpt lat="48.150621" lon="24.307735">
        <ele>1023.7193804760464</ele>
      </trkpt>
      <trkpt lat="48.150752" lon="24.308094">
        <ele>1027.8848611805588</ele>
      </trkpt>
      <trkpt lat="48.150703" lon="24.308372">
        <ele>1028.5659854100086</ele>
      </trkpt>
      <trkpt lat="48.150754" lon="24.30881">
        <ele>1035.5459593419218</ele>
      </trkpt>
      <trkpt lat="48.150512" lon="24.309898">
        <ele>1048.8411864803957</ele>
      </trkpt>
      <trkpt lat="48.150449" lon="24.3101">
        <ele>1050.094684957061</ele>
      </trkpt>
      <trkpt lat="48.150449" lon="24.310483">
        <ele>1053.681779781321</ele>
      </trkpt>
      <trkpt lat="48.15048" lon="24.310722">
        <ele>1055.832743521095</ele>
      </trkpt>
      <trkpt lat="48.150499" lon="24.310999">
        <ele>1058.1378792966716</ele>
      </trkpt>
      <trkpt lat="48.150457" lon="24.311256">
        <ele>1059.8241912914182</ele>
      </trkpt>
      <trkpt lat="48.150232" lon="24.311886">
        <ele>1066.5016678834993</ele>
      </trkpt>
      <trkpt lat="48.150167" lon="24.312256">
        <ele>1070.3069074141094</ele>
      </trkpt>
      <trkpt lat="48.150169" lon="24.312903">
        <ele>1077.8448517799711</ele>
      </trkpt>
      <trkpt lat="48.150259" lon="24.313998">
        <ele>1098.5811407613555</ele>
      </trkpt>
      <trkpt lat="48.150099" lon="24.314997">
        <ele>1118.5384279007253</ele>
      </trkpt>
      <trkpt lat="48.149942" lon="24.315547">
        <ele>1129.9793664059303</ele>
      </trkpt>
      <trkpt lat="48.149894" lon="24.315939">
        <ele>1138.5631011090184</ele>
      </trkpt>
      <trkpt lat="48.149763" lon="24.316238">
        <ele>1145.14324574871</ele>
      </trkpt>
      <trkpt lat="48.149656" lon="24.316508">
        <ele>1150.2503370366721</ele>
      </trkpt>
      <trkpt lat="48.149507" lon="24.316821">
        <ele>1155.0459817887622</ele>
      </trkpt>
      <trkpt lat="48.149384" lon="24.317227">
        <ele>1159.7441796044113</ele>
      </trkpt>
      <trkpt lat="48.149271" lon="24.317383">
        <ele>1161.4330863898508</ele>
      </trkpt>
      <trkpt lat="48.149141" lon="24.317539">
        <ele>1163.2543346895836</ele>
      </trkpt>
      <trkpt lat="48.149101" lon="24.31773">
        <ele>1166.99568313919</ele>
      </trkpt>
      <trkpt lat="48.148885" lon="24.318222">
        <ele>1172.5181814747518</ele>
      </trkpt>
      <trkpt lat="48.148765" lon="24.318521">
        <ele>1177.8667984372714</ele>
      </trkpt>
      <trkpt lat="48.148606" lon="24.318786">
        <ele>1183.4449748893785</ele>
      </trkpt>
      <trkpt lat="48.148345" lon="24.319014">
        <ele>1185.4559981521452</ele>
      </trkpt>
      <trkpt lat="48.14823" lon="24.31964">
        <ele>1197.8022690261885</ele>
      </trkpt>
      <trkpt lat="48.148098" lon="24.319867">
        <ele>1204.2151480888715</ele>
      </trkpt>
      <trkpt lat="48.147897" lon="24.320031">
        <ele>1208.829398075235</ele>
      </trkpt>
      <trkpt lat="48.14769" lon="24.320143">
        <ele>1210.368553229142</ele>
      </trkpt>
      <trkpt lat="48.147564" lon="24.320339">
        <ele>1214.1531176141225</ele>
      </trkpt>
      <trkpt lat="48.147373" lon="24.320781">
        <ele>1214.3148104561762</ele>
      </trkpt>
      <trkpt lat="48.147717" lon="24.3209">
        <ele>1222.7417197209654</ele>
      </trkpt>
      <trkpt lat="48.147963" lon="24.321048">
        <ele>1231.6190720850068</ele>
      </trkpt>
      <trkpt lat="48.148071" lon="24.321186">
        <ele>1236.3393784060609</ele>
      </trkpt>
      <trkpt lat="48.148193" lon="24.321183">
        <ele>1240.2149661390577</ele>
      </trkpt>
      <trkpt lat="48.148215" lon="24.321468">
        <ele>1240.8972168039763</ele>
      </trkpt>
      <trkpt lat="48.148353" lon="24.321675">
        <ele>1244.3505028154336</ele>
      </trkpt>
      <trkpt lat="48.148441" lon="24.321581">
        <ele>1246.2954219367239</ele>
      </trkpt>
      <trkpt lat="48.148963" lon="24.321838">
        <ele>1255.2079338849994</ele>
      </trkpt>
      <trkpt lat="48.149147" lon="24.322098">
        <ele>1257.8064661244157</ele>
      </trkpt>
      <trkpt lat="48.149298" lon="24.322297">
        <ele>1259.979979833582</ele>
      </trkpt>
      <trkpt lat="48.149475" lon="24.322508">
        <ele>1262.7437722091777</ele>
      </trkpt>
      <trkpt lat="48.149631" lon="24.322705">
        <ele>1265.360731697525</ele>
      </trkpt>
      <trkpt lat="48.149684" lon="24.323538">
        <ele>1267.7732195776866</ele>
      </trkpt>
      <trkpt lat="48.149749" lon="24.323722">
        <ele>1268.887047264687</ele>
      </trkpt>
      <trkpt lat="48.149736" lon="24.323989">
        <ele>1266.2538568467717</ele>
      </trkpt>
      <trkpt lat="48.150023" lon="24.324808">
        <ele>1268.189252507058</ele>
      </trkpt>
      <trkpt lat="48.150096" lon="24.325104">
        <ele>1265.6517001776353</ele>
      </trkpt>
      <trkpt lat="48.150241" lon="24.325249">
        <ele>1267.9218127496015</ele>
      </trkpt>
      <trkpt lat="48.150385" lon="24.325383">
        <ele>1270.026378336183</ele>
      </trkpt>
      <trkpt lat="48.150407" lon="24.325518">
        <ele>1267.476369881304</ele>
      </trkpt>
      <trkpt lat="48.150521" lon="24.325837">
        <ele>1262.4490472114874</ele>
      </trkpt>
      <trkpt lat="48.150636" lon="24.326073">
        <ele>1258.0912493729265</ele>
      </trkpt>
      <trkpt lat="48.150796" lon="24.326277">
        <ele>1255.07926803804</ele>
      </trkpt>
      <trkpt lat="48.150922" lon="24.326526">
        <ele>1250.686829500715</ele>
      </trkpt>
      <trkpt lat="48.151023" lon="24.326939">
        <ele>1246.4936787155475</ele>
      </trkpt>
      <trkpt lat="48.151092" lon="24.327274">
        <ele>1246.6206139287387</ele>
      </trkpt>
      <trkpt lat="48.151039" lon="24.327599">
        <ele>1246.0788266353125</ele>
      </trkpt>
      <trkpt lat="48.150927" lon="24.328141">
        <ele>1245.9131923716177</ele>
      </trkpt>
      <trkpt lat="48.150812" lon="24.328586">
        <ele>1249.7266938905987</ele>
      </trkpt>
      <trkpt lat="48.150703" lon="24.329006">
        <ele>1255.3066421583376</ele>
      </trkpt>
      <trkpt lat="48.150561" lon="24.329546">
        <ele>1263.919524164172</ele>
      </trkpt>
      <trkpt lat="48.150669" lon="24.329953">
        <ele>1271.6893636295572</ele>
      </trkpt>
      <trkpt lat="48.150862" lon="24.330779">
        <ele>1278.8580210981345</ele>
      </trkpt>
      <trkpt lat="48.150855" lon="24.331423">
        <ele>1276.1023402337846</ele>
      </trkpt>
      <trkpt lat="48.150791" lon="24.331959">
        <ele>1276.018328111781</ele>
      </trkpt>
      <trkpt lat="48.150734" lon="24.333114">
        <ele>1270.723983178148</ele>
      </trkpt>
      <trkpt lat="48.150803" lon="24.33408">
        <ele>1267.9116506348003</ele>
      </trkpt>
      <trkpt lat="48.15092" lon="24.334855">
        <ele>1262.723674248322</ele>
      </trkpt>
      <trkpt lat="48.151031" lon="24.335289">
        <ele>1264.4651288153837</ele>
      </trkpt>
      <trkpt lat="48.151144" lon="24.335744">
        <ele>1266.7742857961823</ele>
      </trkpt>
      <trkpt lat="48.151268" lon="24.33609">
        <ele>1270.9017713800422</ele>
      </trkpt>
      <trkpt lat="48.151393" lon="24.336766">
        <ele>1280.0584964437212</ele>
      </trkpt>
      <trkpt lat="48.15143" lon="24.337002">
        <ele>1283.6245461334474</ele>
      </trkpt>
      <trkpt lat="48.15137" lon="24.337132">
        <ele>1284.6662608418844</ele>
      </trkpt>
      <trkpt lat="48.151428" lon="24.337282">
        <ele>1287.3572276694467</ele>
      </trkpt>
      <trkpt lat="48.151457" lon="24.337399">
        <ele>1289.0624142222805</ele>
      </trkpt>
      <trkpt lat="48.151598" lon="24.337766">
        <ele>1293.6825489402981</ele>
      </trkpt>
      <trkpt lat="48.15171" lon="24.338019">
        <ele>1296.1758656802122</ele>
      </trkpt>
      <trkpt lat="48.151819" lon="24.338279">
        <ele>1298.7361210866538</ele>
      </trkpt>
      <trkpt lat="48.151943" lon="24.338533">
        <ele>1299.9585419470677</ele>
      </trkpt>
      <trkpt lat="48.152145" lon="24.338918">
        <ele>1298.9101140554994</ele>
      </trkpt>
      <trkpt lat="48.152171" lon="24.339437">
        <ele>1300.1985628149607</ele>
      </trkpt>
      <trkpt lat="48.152162" lon="24.339912">
        <ele>1296.9389555417886</ele>
      </trkpt>
      <trkpt lat="48.152011" lon="24.340606">
        <ele>1301.3242999643462</ele>
      </trkpt>
      <trkpt lat="48.152056" lon="24.341316">
        <ele>1297.2212910923374</ele>
      </trkpt>
      <trkpt lat="48.152094" lon="24.341985">
        <ele>1297.91053494696</ele>
      </trkpt>
      <trkpt lat="48.15222" lon="24.342488">
        <ele>1293.4516266649016</ele>
      </trkpt>
      <trkpt lat="48.152293" lon="24.343029">
        <ele>1294.9431852803682</ele>
      </trkpt>
      <trkpt lat="48.152596" lon="24.343107">
        <ele>1287.8950144230105</ele>
      </trkpt>
      <trkpt lat="48.152758" lon="24.343083">
        <ele>1287.120970415941</ele>
      </trkpt>
      <trkpt lat="48.152956" lon="24.342997">
        <ele>1287.8226075933792</ele>
      </trkpt>
      <trkpt lat="48.153137" lon="24.342815">
        <ele>1286.2938482868985</ele>
      </trkpt>
      <trkpt lat="48.153331" lon="24.34269">
        <ele>1286.190659735119</ele>
      </trkpt>
      <trkpt lat="48.153481" lon="24.342614">
        <ele>1286.3752192932877</ele>
      </trkpt>
      <trkpt lat="48.153635" lon="24.342471">
        <ele>1284.4829743580194</ele>
      </trkpt>
      <trkpt lat="48.153856" lon="24.342319">
        <ele>1282.8726619259105</ele>
      </trkpt>
      <trkpt lat="48.154021" lon="24.342213">
        <ele>1281.531490154839</ele>
      </trkpt>
      <trkpt lat="48.154198" lon="24.342086">
        <ele>1279.47329185582</ele>
      </trkpt>
      <trkpt lat="48.154408" lon="24.341941">
        <ele>1278.0016306119508</ele>
      </trkpt>
      <trkpt lat="48.154533" lon="24.341848">
        <ele>1277.2049608075758</ele>
      </trkpt>
      <trkpt lat="48.154689" lon="24.341702">
        <ele>1275.251580232638</ele>
      </trkpt>
      <trkpt lat="48.154852" lon="24.341554">
        <ele>1273.3563790820772</ele>
      </trkpt>
      <trkpt lat="48.154983" lon="24.341385">
        <ele>1270.3069390018936</ele>
      </trkpt>
      <trkpt lat="48.155126" lon="24.341251">
        <ele>1269.046041198424</ele>
      </trkpt>
      <trkpt lat="48.155283" lon="24.341074">
        <ele>1267.8012582318624</ele>
      </trkpt>
      <trkpt lat="48.155391" lon="24.3409">
        <ele>1265.5976688020164</ele>
      </trkpt>
      <trkpt lat="48.155517" lon="24.340718">
        <ele>1263.5773231403437</ele>
      </trkpt>
      <trkpt lat="48.155811" lon="24.340436">
        <ele>1261.6031305991346</ele>
      </trkpt>
      <trkpt lat="48.155832" lon="24.340267">
        <ele>1257.7830664237936</ele>
      </trkpt>
      <trkpt lat="48.155947" lon="24.339943">
        <ele>1252.9329307541484</ele>
      </trkpt>
      <trkpt lat="48.156053" lon="24.339537">
        <ele>1247.4165895740914</ele>
      </trkpt>
      <trkpt lat="48.156195" lon="24.339075">
        <ele>1242.7195348074893</ele>
      </trkpt>
      <trkpt lat="48.156326" lon="24.339001">
        <ele>1243.1664292790992</ele>
      </trkpt>
      <trkpt lat="48.156517" lon="24.338911">
        <ele>1241.2392128085353</ele>
      </trkpt>
      <trkpt lat="48.157103" lon="24.338963">
        <ele>1233.613580700825</ele>
      </trkpt>
      <trkpt lat="48.15751" lon="24.338854">
        <ele>1227.4038200890645</ele>
      </trkpt>
      <trkpt lat="48.157727" lon="24.338747">
        <ele>1225.673686098837</ele>
      </trkpt>
    </trkseg>
  </trk>
</gpx>
