<?xml version="1.0" encoding="UTF-8"?>
<gpx version="1.1" creator="phpGPX/1.0RC5" schemaLocation="http://www.topografix.com/GPX/1/1 http://www.topografix.com/GPX/1/1/gpx.xsd http://www.garmin.com/xmlschemas/GpxExtensions/v3 http://www.garmin.com/xmlschemas/GpxExtensionsv3.xsd http://www.garmin.com/xmlschemas/TrackPointExtension/v1 http://www.garmin.com/xmlschemas/TrackPointExtensionv1.xsd http://www.garmin.com/xmlschemas/PowerExtension/v1 http://www.garmin.com/xmlschemas/PowerExtensionv1.xsd http://www.topografix.com/GPX/gpx_style/0/2 http://www.topografix.com/GPX/gpx_style/0/2/gpx_style.xsd" xmlns="http://www.topografix.com/GPX/1/1" xmlns:xsi="http://www.w3.org/2001/XMLSchema-instance" xsi:schemaLocation="http://www.topografix.com/GPX/1/1 http://www.topografix.com/GPX/1/1/gpx.xsd http://www.garmin.com/xmlschemas/GpxExtensions/v3 http://www.garmin.com/xmlschemas/GpxExtensionsv3.xsd http://www.garmin.com/xmlschemas/TrackPointExtension/v1 http://www.garmin.com/xmlschemas/TrackPointExtensionv1.xsd http://www.garmin.com/xmlschemas/PowerExtension/v1 http://www.garmin.com/xmlschemas/PowerExtensionv1.xsd http://www.topografix.com/GPX/gpx_style/0/2 http://www.topografix.com/GPX/gpx_style/0/2/gpx_style.xsd" xmlns:gpxtpx="http://www.garmin.com/xmlschemas/TrackPointExtension/v1" xmlns:gpxx="http://www.garmin.com/xmlschemas/GpxExtensions/v3" xmlns:gpxpx="http://www.garmin.com/xmlschemas/PowerExtension/v1" xmlns:gpx_style="http://www.topografix.com/GPX/gpx_style/0/2">
  <metadata>
    <name>Костел та Рокита з Микуличина</name>
    <author>
      <name>gpx.studio</name>
      <link href="https://gpx.studio"/>
    </author>
  </metadata>
  <trk>
    <name>Костел та Рокита з Микуличина</name>
    <trkseg>
      <trkpt lat="48.406407" lon="24.60402">
        <ele>590.6302076369757</ele>
      </trkpt>
      <trkpt lat="48.406407" lon="24.605136">
        <ele>594.5018730221782</ele>
      </trkpt>
      <trkpt lat="48.406208" lon="24.60681">
        <ele>591.9945548916917</ele>
      </trkpt>
      <trkpt lat="48.40561" lon="24.611144">
        <ele>594.691182378949</ele>
      </trkpt>
      <trkpt lat="48.405325" lon="24.612775">
        <ele>596.4632777686929</ele>
      </trkpt>
      <trkpt lat="48.404413" lon="24.616413">
        <ele>599.5630458434985</ele>
      </trkpt>
      <trkpt lat="48.40353" lon="24.617872">
        <ele>604.0618159339065</ele>
      </trkpt>
      <trkpt lat="48.40259" lon="24.619117">
        <ele>609.1837359757628</ele>
      </trkpt>
      <trkpt lat="48.401507" lon="24.619503">
        <ele>612.5311012936903</ele>
      </trkpt>
      <trkpt lat="48.400624" lon="24.621005">
        <ele>613.8575587401133</ele>
      </trkpt>
      <trkpt lat="48.399627" lon="24.623365">
        <ele>615.0578925504815</ele>
      </trkpt>
      <trkpt lat="48.398943" lon="24.625039">
        <ele>620.1840687143849</ele>
      </trkpt>
      <trkpt lat="48.399" lon="24.627185">
        <ele>622.4123886549432</ele>
      </trkpt>
      <trkpt lat="48.399028" lon="24.62903">
        <ele>625.3122434124816</ele>
      </trkpt>
      <trkpt lat="48.398943" lon="24.630833">
        <ele>625.5004208191845</ele>
      </trkpt>
      <trkpt lat="48.39823" lon="24.632978">
        <ele>633.5200350985481</ele>
      </trkpt>
      <trkpt lat="48.39749" lon="24.634438">
        <ele>634.152636105602</ele>
      </trkpt>
      <trkpt lat="48.396891" lon="24.636197">
        <ele>634.9842118144443</ele>
      </trkpt>
      <trkpt lat="48.396093" lon="24.637442">
        <ele>636.2823077483336</ele>
      </trkpt>
      <trkpt lat="48.394213" lon="24.64006">
        <ele>652.0052638263242</ele>
      </trkpt>
      <trkpt lat="48.39313" lon="24.641218">
        <ele>647.322483676918</ele>
      </trkpt>
      <trkpt lat="48.393244" lon="24.641647">
        <ele>645.4374613910179</ele>
      </trkpt>
      <trkpt lat="48.392759" lon="24.642806">
        <ele>662.0369734769572</ele>
      </trkpt>
      <trkpt lat="48.391847" lon="24.643965">
        <ele>647.2299613743089</ele>
      </trkpt>
      <trkpt lat="48.390536" lon="24.644351">
        <ele>654.3558765583439</ele>
      </trkpt>
      <trkpt lat="48.389425" lon="24.645166">
        <ele>675.253015463174</ele>
      </trkpt>
      <trkpt lat="48.388143" lon="24.645467">
        <ele>679.5913602664509</ele>
      </trkpt>
      <trkpt lat="48.387373" lon="24.645596">
        <ele>686.0367636648566</ele>
      </trkpt>
      <trkpt lat="48.387088" lon="24.646282">
        <ele>688.4359401042341</ele>
      </trkpt>
      <trkpt lat="48.386746" lon="24.647012">
        <ele>702.6238131944364</ele>
      </trkpt>
      <trkpt lat="48.387003" lon="24.648171">
        <ele>717.1553798040653</ele>
      </trkpt>
      <trkpt lat="48.386946" lon="24.649801">
        <ele>732.4029478447046</ele>
      </trkpt>
      <trkpt lat="48.387858" lon="24.651175">
        <ele>755.424867804501</ele>
      </trkpt>
      <trkpt lat="48.3882" lon="24.651432">
        <ele>754.6167823546881</ele>
      </trkpt>
      <trkpt lat="48.388656" lon="24.650917">
        <ele>755.3828285973319</ele>
      </trkpt>
      <trkpt lat="48.389967" lon="24.652419">
        <ele>792.7385819455659</ele>
      </trkpt>
      <trkpt lat="48.39028" lon="24.653192">
        <ele>805.1510646326707</ele>
      </trkpt>
      <trkpt lat="48.389539" lon="24.654522">
        <ele>827.8443042878052</ele>
      </trkpt>
      <trkpt lat="48.389469" lon="24.658398">
        <ele>889.1637772172753</ele>
      </trkpt>
      <trkpt lat="48.389526" lon="24.660373">
        <ele>912.9896690427557</ele>
      </trkpt>
      <trkpt lat="48.388985" lon="24.662175">
        <ele>934.1139416784205</ele>
      </trkpt>
      <trkpt lat="48.388386" lon="24.662905">
        <ele>943.0532173806685</ele>
      </trkpt>
      <trkpt lat="48.388443" lon="24.663548">
        <ele>952.2875924448363</ele>
      </trkpt>
      <trkpt lat="48.388472" lon="24.665737">
        <ele>971.9755793783115</ele>
      </trkpt>
      <trkpt lat="48.388757" lon="24.667325">
        <ele>979.8200511907805</ele>
      </trkpt>
      <trkpt lat="48.389327" lon="24.669299">
        <ele>990.575894494888</ele>
      </trkpt>
      <trkpt lat="48.389555" lon="24.670973">
        <ele>997.5236524431966</ele>
      </trkpt>
      <trkpt lat="48.389498" lon="24.672904">
        <ele>1008.0867513594335</ele>
      </trkpt>
      <trkpt lat="48.389555" lon="24.674234">
        <ele>1016.1176755811666</ele>
      </trkpt>
      <trkpt lat="48.389526" lon="24.674878">
        <ele>1009.9838377978529</ele>
      </trkpt>
      <trkpt lat="48.388985" lon="24.676809">
        <ele>1001.4039346529171</ele>
      </trkpt>
      <trkpt lat="48.389355" lon="24.678776">
        <ele>987.8672105434791</ele>
      </trkpt>
      <trkpt lat="48.38991" lon="24.680183">
        <ele>994.3816075070076</ele>
      </trkpt>
      <trkpt lat="48.390807" lon="24.682693">
        <ele>1028.0982329138349</ele>
      </trkpt>
      <trkpt lat="48.391092" lon="24.683573">
        <ele>1029.831164397873</ele>
      </trkpt>
      <trkpt lat="48.391677" lon="24.684238">
        <ele>1030.7444364346916</ele>
      </trkpt>
      <trkpt lat="48.392911" lon="24.68495">
        <ele>1048.447836250922</ele>
      </trkpt>
      <trkpt lat="48.393538" lon="24.685057">
        <ele>1056.5184057531055</ele>
      </trkpt>
      <trkpt lat="48.395447" lon="24.686281">
        <ele>1068.7776431735838</ele>
      </trkpt>
      <trkpt lat="48.39606" lon="24.687053">
        <ele>1075.2104830150638</ele>
      </trkpt>
      <trkpt lat="48.396886" lon="24.690229">
        <ele>1041.6899495356377</ele>
      </trkpt>
      <trkpt lat="48.397727" lon="24.692611">
        <ele>1019.4185488651397</ele>
      </trkpt>
      <trkpt lat="48.398923" lon="24.693704">
        <ele>1030.5768567129635</ele>
      </trkpt>
      <trkpt lat="48.399777" lon="24.695034">
        <ele>1034.2584858145383</ele>
      </trkpt>
      <trkpt lat="48.400504" lon="24.696815">
        <ele>1031.762172765797</ele>
      </trkpt>
      <trkpt lat="48.401459" lon="24.700527">
        <ele>1022.3075799101632</ele>
      </trkpt>
      <trkpt lat="48.400988" lon="24.702265">
        <ele>1019.0383736988992</ele>
      </trkpt>
      <trkpt lat="48.400703" lon="24.703167">
        <ele>1023.7027690355899</ele>
      </trkpt>
      <trkpt lat="48.400732" lon="24.703553">
        <ele>1024.8440851799678</ele>
      </trkpt>
      <trkpt lat="48.400889" lon="24.704089">
        <ele>1027.8526619629267</ele>
      </trkpt>
      <trkpt lat="48.401473" lon="24.704518">
        <ele>1026.571368801102</ele>
      </trkpt>
      <trkpt lat="48.402363" lon="24.705227">
        <ele>1015.8990973052718</ele>
      </trkpt>
      <trkpt lat="48.40294" lon="24.706321">
        <ele>1023.2588110458596</ele>
      </trkpt>
      <trkpt lat="48.404251" lon="24.708467">
        <ele>1048.03342419595</ele>
      </trkpt>
      <trkpt lat="48.405134" lon="24.711106">
        <ele>1059.2147764703261</ele>
      </trkpt>
      <trkpt lat="48.405262" lon="24.711943">
        <ele>1060.5532842777766</ele>
      </trkpt>
      <trkpt lat="48.405077" lon="24.712844">
        <ele>1059.4427846297106</ele>
      </trkpt>
      <trkpt lat="48.404792" lon="24.713702">
        <ele>1056.5373010248877</ele>
      </trkpt>
      <trkpt lat="48.404536" lon="24.714625">
        <ele>1054.4375494072074</ele>
      </trkpt>
      <trkpt lat="48.405006" lon="24.714539">
        <ele>1062.5364446922308</ele>
      </trkpt>
      <trkpt lat="48.405632" lon="24.714582">
        <ele>1071.6879558125795</ele>
      </trkpt>
      <trkpt lat="48.406245" lon="24.714883">
        <ele>1070.1481636057372</ele>
      </trkpt>
      <trkpt lat="48.407555" lon="24.71544">
        <ele>1059.9872329061486</ele>
      </trkpt>
      <trkpt lat="48.408737" lon="24.715977">
        <ele>1055.3811402889557</ele>
      </trkpt>
      <trkpt lat="48.409307" lon="24.715955">
        <ele>1060.883835388231</ele>
      </trkpt>
      <trkpt lat="48.411344" lon="24.716749">
        <ele>1083.325495212622</ele>
      </trkpt>
      <trkpt lat="48.413126" lon="24.716621">
        <ele>1103.6843681348846</ele>
      </trkpt>
      <trkpt lat="48.413567" lon="24.715848">
        <ele>1101.7686488320267</ele>
      </trkpt>
      <trkpt lat="48.415234" lon="24.713767">
        <ele>1065.589602493332</ele>
      </trkpt>
      <trkpt lat="48.417185" lon="24.711921">
        <ele>1043.6643909986499</ele>
      </trkpt>
      <trkpt lat="48.417911" lon="24.708896">
        <ele>1055.8544993452583</ele>
      </trkpt>
      <trkpt lat="48.417911" lon="24.706643">
        <ele>1060.191802359419</ele>
      </trkpt>
      <trkpt lat="48.418096" lon="24.705892">
        <ele>1062.033880807634</ele>
      </trkpt>
      <trkpt lat="48.419136" lon="24.704454">
        <ele>1065.2119201613823</ele>
      </trkpt>
      <trkpt lat="48.419748" lon="24.702802">
        <ele>1082.1304402813462</ele>
      </trkpt>
      <trkpt lat="48.420531" lon="24.700549">
        <ele>1103.7105071889234</ele>
      </trkpt>
      <trkpt lat="48.421457" lon="24.699369">
        <ele>1100.4518746358822</ele>
      </trkpt>
      <trkpt lat="48.420076" lon="24.698575">
        <ele>1093.1615442249617</ele>
      </trkpt>
      <trkpt lat="48.419136" lon="24.69748">
        <ele>1063.9792206061186</ele>
      </trkpt>
      <trkpt lat="48.418338" lon="24.696429">
        <ele>1054.3225934724323</ele>
      </trkpt>
      <trkpt lat="48.417726" lon="24.695828">
        <ele>1048.5</ele>
      </trkpt>
      <trkpt lat="48.417341" lon="24.694948">
        <ele>1043.1954032182111</ele>
      </trkpt>
      <trkpt lat="48.416758" lon="24.693554">
        <ele>1027.9409590740283</ele>
      </trkpt>
      <trkpt lat="48.416615" lon="24.692695">
        <ele>1024.8177663118113</ele>
      </trkpt>
      <trkpt lat="48.416302" lon="24.691558">
        <ele>1030.4517145525904</ele>
      </trkpt>
      <trkpt lat="48.416043" lon="24.688765">
        <ele>1013.4546428583562</ele>
      </trkpt>
      <trkpt lat="48.416114" lon="24.687842">
        <ele>1000.4563154256903</ele>
      </trkpt>
      <trkpt lat="48.415801" lon="24.685911">
        <ele>984.371170896804</ele>
      </trkpt>
      <trkpt lat="48.415402" lon="24.683186">
        <ele>954.6292129962324</ele>
      </trkpt>
      <trkpt lat="48.414591" lon="24.680332">
        <ele>964.8940223922255</ele>
      </trkpt>
      <trkpt lat="48.413736" lon="24.677629">
        <ele>970.3097906213734</ele>
      </trkpt>
      <trkpt lat="48.41301" lon="24.676642">
        <ele>977.1876340347808</ele>
      </trkpt>
      <trkpt lat="48.412431" lon="24.674044">
        <ele>982.4932554676226</ele>
      </trkpt>
      <trkpt lat="48.412274" lon="24.673165">
        <ele>988.1920389681541</ele>
      </trkpt>
      <trkpt lat="48.411634" lon="24.671341">
        <ele>986.0030705178506</ele>
      </trkpt>
      <trkpt lat="48.411149" lon="24.67074">
        <ele>976.3598119700328</ele>
      </trkpt>
      <trkpt lat="48.410693" lon="24.670096">
        <ele>974.0833668557192</ele>
      </trkpt>
      <trkpt lat="48.40954" lon="24.669538">
        <ele>972.7453818497015</ele>
      </trkpt>
      <trkpt lat="48.408685" lon="24.668809">
        <ele>966.1309063856024</ele>
      </trkpt>
      <trkpt lat="48.408229" lon="24.667822">
        <ele>966.8005713847499</ele>
      </trkpt>
      <trkpt lat="48.407489" lon="24.667178">
        <ele>961.3233199249953</ele>
      </trkpt>
      <trkpt lat="48.407019" lon="24.66426">
        <ele>952.6794955089392</ele>
      </trkpt>
      <trkpt lat="48.406349" lon="24.662822">
        <ele>946.649204115944</ele>
      </trkpt>
      <trkpt lat="48.406021" lon="24.662135">
        <ele>950.491985950707</ele>
      </trkpt>
      <trkpt lat="48.405309" lon="24.66044">
        <ele>952.2600389431701</ele>
      </trkpt>
      <trkpt lat="48.404611" lon="24.659088">
        <ele>994.2807316669189</ele>
      </trkpt>
      <trkpt lat="48.403885" lon="24.658895">
        <ele>1015.0201452280822</ele>
      </trkpt>
      <trkpt lat="48.403272" lon="24.658423">
        <ele>1035.3662282468065</ele>
      </trkpt>
      <trkpt lat="48.402788" lon="24.658016">
        <ele>1041.7411006340353</ele>
      </trkpt>
      <trkpt lat="48.402873" lon="24.656192">
        <ele>1007.6756860722564</ele>
      </trkpt>
      <trkpt lat="48.402674" lon="24.653273">
        <ele>943.8086871324922</ele>
      </trkpt>
      <trkpt lat="48.402446" lon="24.650741">
        <ele>893.4104547558818</ele>
      </trkpt>
      <trkpt lat="48.402261" lon="24.649025">
        <ele>858.9052254524431</ele>
      </trkpt>
      <trkpt lat="48.401905" lon="24.648038">
        <ele>836.1900344347231</ele>
      </trkpt>
      <trkpt lat="48.401819" lon="24.646192">
        <ele>803.8466942844099</ele>
      </trkpt>
      <trkpt lat="48.401791" lon="24.64424">
        <ele>778.3395041261075</ele>
      </trkpt>
      <trkpt lat="48.402346" lon="24.643253">
        <ele>754.1316108880565</ele>
      </trkpt>
      <trkpt lat="48.402303" lon="24.641472">
        <ele>735.0348386368714</ele>
      </trkpt>
      <trkpt lat="48.401563" lon="24.640206">
        <ele>725.6648825967627</ele>
      </trkpt>
      <trkpt lat="48.40115" lon="24.639433">
        <ele>717.1037413369631</ele>
      </trkpt>
      <trkpt lat="48.400523" lon="24.638489">
        <ele>703.4151435844626</ele>
      </trkpt>
      <trkpt lat="48.400537" lon="24.638124">
        <ele>699.9259169409634</ele>
      </trkpt>
      <trkpt lat="48.401121" lon="24.637588">
        <ele>694.9298440435086</ele>
      </trkpt>
      <trkpt lat="48.401506" lon="24.637609">
        <ele>690.8125391986351</ele>
      </trkpt>
      <trkpt lat="48.401748" lon="24.637867">
        <ele>690.7922338227337</ele>
      </trkpt>
      <trkpt lat="48.40199" lon="24.637781">
        <ele>685.6964141385989</ele>
      </trkpt>
      <trkpt lat="48.401919" lon="24.637352">
        <ele>681.7554507054583</ele>
      </trkpt>
      <trkpt lat="48.401677" lon="24.636815">
        <ele>675.973834617218</ele>
      </trkpt>
      <trkpt lat="48.401406" lon="24.635828">
        <ele>666.1746732935837</ele>
      </trkpt>
      <trkpt lat="48.401064" lon="24.634777">
        <ele>660.018504553003</ele>
      </trkpt>
      <trkpt lat="48.400793" lon="24.633961">
        <ele>653.5825246782814</ele>
      </trkpt>
      <trkpt lat="48.400252" lon="24.633425">
        <ele>646.9804320917503</ele>
      </trkpt>
      <trkpt lat="48.400523" lon="24.630528">
        <ele>626.1415377841331</ele>
      </trkpt>
      <trkpt lat="48.400508" lon="24.629799">
        <ele>623.2367070133914</ele>
      </trkpt>
      <trkpt lat="48.400808" lon="24.628812">
        <ele>620.2229789132599</ele>
      </trkpt>
      <trkpt lat="48.401278" lon="24.628318">
        <ele>616</ele>
      </trkpt>
      <trkpt lat="48.401534" lon="24.627567">
        <ele>618.1845703760946</ele>
      </trkpt>
      <trkpt lat="48.402061" lon="24.627267">
        <ele>620.0136610515182</ele>
      </trkpt>
      <trkpt lat="48.402318" lon="24.626795">
        <ele>621.7734858484271</ele>
      </trkpt>
      <trkpt lat="48.402774" lon="24.626752">
        <ele>623.9252987430664</ele>
      </trkpt>
      <trkpt lat="48.403842" lon="24.625443">
        <ele>620.6028842667583</ele>
      </trkpt>
      <trkpt lat="48.404326" lon="24.624821">
        <ele>619.8265764889074</ele>
      </trkpt>
      <trkpt lat="48.404896" lon="24.624584">
        <ele>623.1371380155906</ele>
      </trkpt>
      <trkpt lat="48.405409" lon="24.623082">
        <ele>621.7165255795376</ele>
      </trkpt>
      <trkpt lat="48.405808" lon="24.620744">
        <ele>614.4853149596382</ele>
      </trkpt>
      <trkpt lat="48.405665" lon="24.619542">
        <ele>607.8295456690195</ele>
      </trkpt>
      <trkpt lat="48.406164" lon="24.617954">
        <ele>604.7786235664971</ele>
      </trkpt>
      <trkpt lat="48.406534" lon="24.616409">
        <ele>600.0485963096783</ele>
      </trkpt>
      <trkpt lat="48.406363" lon="24.614907">
        <ele>598</ele>
      </trkpt>
      <trkpt lat="48.406862" lon="24.612397">
        <ele>597.0100195244174</ele>
      </trkpt>
      <trkpt lat="48.407147" lon="24.610915">
        <ele>595.2142474181019</ele>
      </trkpt>
      <trkpt lat="48.407104" lon="24.609564">
        <ele>593.0479191354827</ele>
      </trkpt>
      <trkpt lat="48.407474" lon="24.607525">
        <ele>591.6114844444674</ele>
      </trkpt>
      <trkpt lat="48.407816" lon="24.606044">
        <ele>590.5</ele>
      </trkpt>
      <trkpt lat="48.407581" lon="24.604811">
        <ele>590.6185247784597</ele>
      </trkpt>
      <trkpt lat="48.407574" lon="24.604221">
        <ele>591.0856831897078</ele>
      </trkpt>
    </trkseg>
  </trk>
</gpx>
