<?xml version="1.0" encoding="UTF-8"?>
<gpx version="1.1" creator="phpGPX/1.0RC5" schemaLocation="http://www.topografix.com/GPX/1/1 http://www.topografix.com/GPX/1/1/gpx.xsd http://www.garmin.com/xmlschemas/GpxExtensions/v3 http://www.garmin.com/xmlschemas/GpxExtensionsv3.xsd http://www.garmin.com/xmlschemas/TrackPointExtension/v1 http://www.garmin.com/xmlschemas/TrackPointExtensionv1.xsd http://www.garmin.com/xmlschemas/PowerExtension/v1 http://www.garmin.com/xmlschemas/PowerExtensionv1.xsd http://www.topografix.com/GPX/gpx_style/0/2 http://www.topografix.com/GPX/gpx_style/0/2/gpx_style.xsd" xmlns="http://www.topografix.com/GPX/1/1" xmlns:xsi="http://www.w3.org/2001/XMLSchema-instance" xsi:schemaLocation="http://www.topografix.com/GPX/1/1 http://www.topografix.com/GPX/1/1/gpx.xsd http://www.garmin.com/xmlschemas/GpxExtensions/v3 http://www.garmin.com/xmlschemas/GpxExtensionsv3.xsd http://www.garmin.com/xmlschemas/TrackPointExtension/v1 http://www.garmin.com/xmlschemas/TrackPointExtensionv1.xsd http://www.garmin.com/xmlschemas/PowerExtension/v1 http://www.garmin.com/xmlschemas/PowerExtensionv1.xsd http://www.topografix.com/GPX/gpx_style/0/2 http://www.topografix.com/GPX/gpx_style/0/2/gpx_style.xsd" xmlns:gpxtpx="http://www.garmin.com/xmlschemas/TrackPointExtension/v1" xmlns:gpxx="http://www.garmin.com/xmlschemas/GpxExtensions/v3" xmlns:gpxpx="http://www.garmin.com/xmlschemas/PowerExtension/v1" xmlns:gpx_style="http://www.topografix.com/GPX/gpx_style/0/2">
  <metadata>
    <name>Лисина Космацька та Ротило, з Космача</name>
    <author>
      <name>gpx.studio</name>
      <link href="https://gpx.studio"/>
    </author>
  </metadata>
  <trk>
    <name>Лисина Космацька та Ротило, з Космача</name>
    <trkseg>
      <trkpt lat="48.331529" lon="24.814243">
        <ele>623.8672784415955</ele>
      </trkpt>
      <trkpt lat="48.331814" lon="24.81302">
        <ele>619.3181084445678</ele>
      </trkpt>
      <trkpt lat="48.332157" lon="24.812055">
        <ele>615.5</ele>
      </trkpt>
      <trkpt lat="48.332428" lon="24.811776">
        <ele>614.5</ele>
      </trkpt>
      <trkpt lat="48.332756" lon="24.811239">
        <ele>614.4798799750355</ele>
      </trkpt>
      <trkpt lat="48.333683" lon="24.810917">
        <ele>612.5336227555526</ele>
      </trkpt>
      <trkpt lat="48.333655" lon="24.809802">
        <ele>612.3098130893011</ele>
      </trkpt>
      <trkpt lat="48.33354" lon="24.808407">
        <ele>615.7963224690174</ele>
      </trkpt>
      <trkpt lat="48.333669" lon="24.806948">
        <ele>617.9667497385362</ele>
      </trkpt>
      <trkpt lat="48.333997" lon="24.806089">
        <ele>618.6425670251025</ele>
      </trkpt>
      <trkpt lat="48.334154" lon="24.805939">
        <ele>617.4299658282985</ele>
      </trkpt>
      <trkpt lat="48.334239" lon="24.805596">
        <ele>618.3426964053651</ele>
      </trkpt>
      <trkpt lat="48.334482" lon="24.80463">
        <ele>624.0646715456959</ele>
      </trkpt>
      <trkpt lat="48.335052" lon="24.803922">
        <ele>639.1754395515891</ele>
      </trkpt>
      <trkpt lat="48.335041" lon="24.803211">
        <ele>642.2392081901198</ele>
      </trkpt>
      <trkpt lat="48.335013" lon="24.802095">
        <ele>645.5</ele>
      </trkpt>
      <trkpt lat="48.335597" lon="24.800272">
        <ele>648.9570962270956</ele>
      </trkpt>
      <trkpt lat="48.335868" lon="24.79907">
        <ele>649.54802962848</ele>
      </trkpt>
      <trkpt lat="48.336296" lon="24.798598">
        <ele>652.3115366661331</ele>
      </trkpt>
      <trkpt lat="48.336482" lon="24.79804">
        <ele>655.2108718295092</ele>
      </trkpt>
      <trkpt lat="48.336653" lon="24.796516">
        <ele>660.7587797073647</ele>
      </trkpt>
      <trkpt lat="48.336838" lon="24.796023">
        <ele>660.7174625185456</ele>
      </trkpt>
      <trkpt lat="48.337081" lon="24.794478">
        <ele>675.2474368605306</ele>
      </trkpt>
      <trkpt lat="48.337438" lon="24.793555">
        <ele>687.434355296968</ele>
      </trkpt>
      <trkpt lat="48.337438" lon="24.791978">
        <ele>696.7604259555228</ele>
      </trkpt>
      <trkpt lat="48.33738" lon="24.790905">
        <ele>708.4716698250268</ele>
      </trkpt>
      <trkpt lat="48.337388" lon="24.789704">
        <ele>726.187980880533</ele>
      </trkpt>
      <trkpt lat="48.337138" lon="24.78877">
        <ele>736.9013247893095</ele>
      </trkpt>
      <trkpt lat="48.33706" lon="24.788041">
        <ele>742.6005649953149</ele>
      </trkpt>
      <trkpt lat="48.337309" lon="24.786839">
        <ele>755.6872488027439</ele>
      </trkpt>
      <trkpt lat="48.337566" lon="24.785369">
        <ele>768.6239102581749</ele>
      </trkpt>
      <trkpt lat="48.337587" lon="24.784661">
        <ele>772.7704450604001</ele>
      </trkpt>
      <trkpt lat="48.338115" lon="24.783159">
        <ele>779.6995183811778</ele>
      </trkpt>
      <trkpt lat="48.338379" lon="24.782279">
        <ele>780.7611960889772</ele>
      </trkpt>
      <trkpt lat="48.338493" lon="24.781217">
        <ele>782.6174781540086</ele>
      </trkpt>
      <trkpt lat="48.338029" lon="24.777215">
        <ele>795.2220064754083</ele>
      </trkpt>
      <trkpt lat="48.337823" lon="24.776572">
        <ele>795.7502078149441</ele>
      </trkpt>
      <trkpt lat="48.337509" lon="24.774319">
        <ele>807.9399982747855</ele>
      </trkpt>
      <trkpt lat="48.337245" lon="24.77287">
        <ele>819.7880110422848</ele>
      </trkpt>
      <trkpt lat="48.336582" lon="24.770875">
        <ele>828.6379937547829</ele>
      </trkpt>
      <trkpt lat="48.335826" lon="24.769941">
        <ele>840.7753880403542</ele>
      </trkpt>
      <trkpt lat="48.335753" lon="24.768784">
        <ele>849.5266863589277</ele>
      </trkpt>
      <trkpt lat="48.335867" lon="24.768205">
        <ele>847.2904051926962</ele>
      </trkpt>
      <trkpt lat="48.335796" lon="24.766831">
        <ele>862.164453913969</ele>
      </trkpt>
      <trkpt lat="48.335739" lon="24.76608">
        <ele>868.0646229995084</ele>
      </trkpt>
      <trkpt lat="48.335197" lon="24.765587">
        <ele>885.6102733949326</ele>
      </trkpt>
      <trkpt lat="48.334883" lon="24.76475">
        <ele>884.9406503206083</ele>
      </trkpt>
      <trkpt lat="48.334883" lon="24.763463">
        <ele>881.08926163396</ele>
      </trkpt>
      <trkpt lat="48.333913" lon="24.763999">
        <ele>909.5883915154476</ele>
      </trkpt>
      <trkpt lat="48.333642" lon="24.766381">
        <ele>920.2164175666403</ele>
      </trkpt>
      <trkpt lat="48.332772" lon="24.765244">
        <ele>936.377806366434</ele>
      </trkpt>
      <trkpt lat="48.331737" lon="24.763763">
        <ele>969.280003310842</ele>
      </trkpt>
      <trkpt lat="48.33101" lon="24.76284">
        <ele>989.0056889706581</ele>
      </trkpt>
      <trkpt lat="48.330396" lon="24.760952">
        <ele>1032.2935857968585</ele>
      </trkpt>
      <trkpt lat="48.330154" lon="24.759579">
        <ele>1053.6426626073662</ele>
      </trkpt>
      <trkpt lat="48.329812" lon="24.757969">
        <ele>1081.3555913147065</ele>
      </trkpt>
      <trkpt lat="48.329669" lon="24.757025">
        <ele>1105.342682303113</ele>
      </trkpt>
      <trkpt lat="48.329626" lon="24.756167">
        <ele>1119.4805160956173</ele>
      </trkpt>
      <trkpt lat="48.329469" lon="24.755673">
        <ele>1117.8567725740927</ele>
      </trkpt>
      <trkpt lat="48.329526" lon="24.755266">
        <ele>1115.6662632530788</ele>
      </trkpt>
      <trkpt lat="48.3281" lon="24.75636">
        <ele>1125.3672532893515</ele>
      </trkpt>
      <trkpt lat="48.325831" lon="24.756124">
        <ele>1146.2925412452314</ele>
      </trkpt>
      <trkpt lat="48.324761" lon="24.755051">
        <ele>1154.9924313166002</ele>
      </trkpt>
      <trkpt lat="48.324119" lon="24.752283">
        <ele>1150.6885159431222</ele>
      </trkpt>
      <trkpt lat="48.323762" lon="24.751532">
        <ele>1156.9615637073568</ele>
      </trkpt>
      <trkpt lat="48.323406" lon="24.751124">
        <ele>1160.3310554658528</ele>
      </trkpt>
      <trkpt lat="48.322878" lon="24.750566">
        <ele>1157.7672377338022</ele>
      </trkpt>
      <trkpt lat="48.322179" lon="24.75018">
        <ele>1153.4061139622238</ele>
      </trkpt>
      <trkpt lat="48.321494" lon="24.74915">
        <ele>1133.1760088543888</ele>
      </trkpt>
      <trkpt lat="48.320852" lon="24.747948">
        <ele>1114.7208549800703</ele>
      </trkpt>
      <trkpt lat="48.320224" lon="24.747047">
        <ele>1112.8564962654516</ele>
      </trkpt>
      <trkpt lat="48.319682" lon="24.746682">
        <ele>1124.1139937933297</ele>
      </trkpt>
      <trkpt lat="48.319011" lon="24.746361">
        <ele>1129.6666057148389</ele>
      </trkpt>
      <trkpt lat="48.31844" lon="24.746296">
        <ele>1134.584043921409</ele>
      </trkpt>
      <trkpt lat="48.317827" lon="24.746253">
        <ele>1139.0235570150953</ele>
      </trkpt>
      <trkpt lat="48.317113" lon="24.746296">
        <ele>1149.6223829254939</ele>
      </trkpt>
      <trkpt lat="48.317037" lon="24.746292">
        <ele>1150.953320599976</ele>
      </trkpt>
      <trkpt lat="48.316854" lon="24.746084">
        <ele>1154.5036077235704</ele>
      </trkpt>
      <trkpt lat="48.316605" lon="24.745966">
        <ele>1158.7835876218614</ele>
      </trkpt>
      <trkpt lat="48.316048" lon="24.745473">
        <ele>1163.6774324527942</ele>
      </trkpt>
      <trkpt lat="48.315206" lon="24.744806">
        <ele>1171.498440224328</ele>
      </trkpt>
      <trkpt lat="48.314767" lon="24.744183">
        <ele>1176.2928456821296</ele>
      </trkpt>
      <trkpt lat="48.31415" lon="24.743417">
        <ele>1190.7375008655297</ele>
      </trkpt>
      <trkpt lat="48.313473" lon="24.742473">
        <ele>1214.4002674836665</ele>
      </trkpt>
      <trkpt lat="48.31285" lon="24.741554">
        <ele>1229.202745355547</ele>
      </trkpt>
      <trkpt lat="48.312414" lon="24.740921">
        <ele>1240.5544145721722</ele>
      </trkpt>
      <trkpt lat="48.312025" lon="24.740261">
        <ele>1250.1867709155308</ele>
      </trkpt>
      <trkpt lat="48.311779" lon="24.739838">
        <ele>1254.967091131257</ele>
      </trkpt>
      <trkpt lat="48.311341" lon="24.739447">
        <ele>1257.4805579153935</ele>
      </trkpt>
      <trkpt lat="48.311009" lon="24.739082">
        <ele>1261.1160579120042</ele>
      </trkpt>
      <trkpt lat="48.310699" lon="24.738771">
        <ele>1265.1434435487026</ele>
      </trkpt>
      <trkpt lat="48.310381" lon="24.73868">
        <ele>1267.9287446788512</ele>
      </trkpt>
      <trkpt lat="48.309396" lon="24.738072">
        <ele>1281.8340914872242</ele>
      </trkpt>
      <trkpt lat="48.308697" lon="24.737664">
        <ele>1295.0907235253535</ele>
      </trkpt>
      <trkpt lat="48.308112" lon="24.736967">
        <ele>1306.2624548510648</ele>
      </trkpt>
      <trkpt lat="48.307805" lon="24.736533">
        <ele>1312.7158633071813</ele>
      </trkpt>
      <trkpt lat="48.307469" lon="24.735926">
        <ele>1315.857302970623</ele>
      </trkpt>
      <trkpt lat="48.30694" lon="24.735517">
        <ele>1319.473129874561</ele>
      </trkpt>
      <trkpt lat="48.306548" lon="24.735431">
        <ele>1320.9029290627223</ele>
      </trkpt>
      <trkpt lat="48.305906" lon="24.73497">
        <ele>1319.2323325183245</ele>
      </trkpt>
      <trkpt lat="48.305513" lon="24.734959">
        <ele>1318.93154682539</ele>
      </trkpt>
      <trkpt lat="48.305114" lon="24.734745">
        <ele>1315.009819663067</ele>
      </trkpt>
      <trkpt lat="48.304635" lon="24.734702">
        <ele>1318.0779908223324</ele>
      </trkpt>
      <trkpt lat="48.304364" lon="24.734401">
        <ele>1324.0540851307578</ele>
      </trkpt>
      <trkpt lat="48.304214" lon="24.733994">
        <ele>1334.4857902250792</ele>
      </trkpt>
      <trkpt lat="48.303929" lon="24.733833">
        <ele>1348.6408678254918</ele>
      </trkpt>
      <trkpt lat="48.303594" lon="24.733404">
        <ele>1368.5286912434674</ele>
      </trkpt>
      <trkpt lat="48.303165" lon="24.733007">
        <ele>1389.6305642012924</ele>
      </trkpt>
      <trkpt lat="48.302701" lon="24.732674">
        <ele>1412.502492104192</ele>
      </trkpt>
      <trkpt lat="48.302402" lon="24.732395">
        <ele>1430.358091522391</ele>
      </trkpt>
      <trkpt lat="48.301901" lon="24.732477">
        <ele>1443.3643606283003</ele>
      </trkpt>
      <trkpt lat="48.301441" lon="24.732359">
        <ele>1454.528379327734</ele>
      </trkpt>
      <trkpt lat="48.301048" lon="24.732391">
        <ele>1454.2363016413292</ele>
      </trkpt>
      <trkpt lat="48.300663" lon="24.732498">
        <ele>1450.8252368594483</ele>
      </trkpt>
      <trkpt lat="48.300152" lon="24.732758">
        <ele>1446.6812334147241</ele>
      </trkpt>
      <trkpt lat="48.299792" lon="24.733032">
        <ele>1445.28500603964</ele>
      </trkpt>
      <trkpt lat="48.299399" lon="24.733219">
        <ele>1444.97013949205</ele>
      </trkpt>
      <trkpt lat="48.29881" lon="24.733364">
        <ele>1445</ele>
      </trkpt>
      <trkpt lat="48.29855" lon="24.733354">
        <ele>1445</ele>
      </trkpt>
      <trkpt lat="48.298253" lon="24.733364">
        <ele>1445.5507544385202</ele>
      </trkpt>
      <trkpt lat="48.297897" lon="24.733252">
        <ele>1446.4125982751518</ele>
      </trkpt>
      <trkpt lat="48.2976" lon="24.733112">
        <ele>1447.4874829099367</ele>
      </trkpt>
      <trkpt lat="48.29744" lon="24.732973">
        <ele>1447.7315885290293</ele>
      </trkpt>
      <trkpt lat="48.296906" lon="24.732938">
        <ele>1437.180750237978</ele>
      </trkpt>
      <trkpt lat="48.296714" lon="24.733013">
        <ele>1432.4654380421853</ele>
      </trkpt>
      <trkpt lat="48.29646" lon="24.733029">
        <ele>1426.218701265636</ele>
      </trkpt>
      <trkpt lat="48.295953" lon="24.733163">
        <ele>1415.258788869367</ele>
      </trkpt>
      <trkpt lat="48.295224" lon="24.733399">
        <ele>1407.589475951106</ele>
      </trkpt>
      <trkpt lat="48.294543" lon="24.733619">
        <ele>1410.9039082635886</ele>
      </trkpt>
      <trkpt lat="48.293972" lon="24.73363">
        <ele>1409.0406623828442</ele>
      </trkpt>
      <trkpt lat="48.293729" lon="24.733975">
        <ele>1411.427132890683</ele>
      </trkpt>
      <trkpt lat="48.293515" lon="24.734173">
        <ele>1410.7421949109994</ele>
      </trkpt>
      <trkpt lat="48.293408" lon="24.734388">
        <ele>1411.1917074734088</ele>
      </trkpt>
      <trkpt lat="48.293087" lon="24.734581">
        <ele>1406.6944018706272</ele>
      </trkpt>
      <trkpt lat="48.292755" lon="24.735096">
        <ele>1406.8362233688895</ele>
      </trkpt>
      <trkpt lat="48.292263" lon="24.735704">
        <ele>1408.4274974709267</ele>
      </trkpt>
      <trkpt lat="48.291999" lon="24.736288">
        <ele>1413.1607852919142</ele>
      </trkpt>
      <trkpt lat="48.291388" lon="24.737147">
        <ele>1413.034612816302</ele>
      </trkpt>
      <trkpt lat="48.291256" lon="24.73757">
        <ele>1412.019097668486</ele>
      </trkpt>
      <trkpt lat="48.29076" lon="24.738402">
        <ele>1412.023559108106</ele>
      </trkpt>
      <trkpt lat="48.290505" lon="24.73843">
        <ele>1411.9077372425236</ele>
      </trkpt>
      <trkpt lat="48.290298" lon="24.738612">
        <ele>1411.4759356746022</ele>
      </trkpt>
      <trkpt lat="48.289624" lon="24.739626">
        <ele>1410.9659314270461</ele>
      </trkpt>
      <trkpt lat="48.288974" lon="24.739873">
        <ele>1411.7427161515332</ele>
      </trkpt>
      <trkpt lat="48.288628" lon="24.7402">
        <ele>1410.4445688888663</ele>
      </trkpt>
      <trkpt lat="48.288142" lon="24.7402">
        <ele>1406.8271450669272</ele>
      </trkpt>
      <trkpt lat="48.287607" lon="24.739942">
        <ele>1404.4472141553415</ele>
      </trkpt>
      <trkpt lat="48.287082" lon="24.739604">
        <ele>1398.8814391562792</ele>
      </trkpt>
      <trkpt lat="48.286682" lon="24.739411">
        <ele>1393.817614974454</ele>
      </trkpt>
      <trkpt lat="48.286522" lon="24.7391">
        <ele>1392.144324244815</ele>
      </trkpt>
      <trkpt lat="48.286393" lon="24.739014">
        <ele>1390.02994162729</ele>
      </trkpt>
      <trkpt lat="48.286304" lon="24.738912">
        <ele>1388.0432641817968</ele>
      </trkpt>
      <trkpt lat="48.286061" lon="24.738832">
        <ele>1383.6703278688244</ele>
      </trkpt>
      <trkpt lat="48.285894" lon="24.738896">
        <ele>1381.2123643814703</ele>
      </trkpt>
      <trkpt lat="48.285558" lon="24.738945">
        <ele>1376.6573471410663</ele>
      </trkpt>
      <trkpt lat="48.285347" lon="24.738939">
        <ele>1373.9751808126455</ele>
      </trkpt>
      <trkpt lat="48.284432" lon="24.738593">
        <ele>1379.4794928138144</ele>
      </trkpt>
      <trkpt lat="48.284258" lon="24.73833">
        <ele>1382.5671906094067</ele>
      </trkpt>
      <trkpt lat="48.283829" lon="24.738089">
        <ele>1383.288662670995</ele>
      </trkpt>
      <trkpt lat="48.283276" lon="24.737938">
        <ele>1378.400635733502</ele>
      </trkpt>
      <trkpt lat="48.28299" lon="24.737727">
        <ele>1379.5734374112217</ele>
      </trkpt>
      <trkpt lat="48.28288" lon="24.737582">
        <ele>1379.6980450083502</ele>
      </trkpt>
      <trkpt lat="48.282769" lon="24.737523">
        <ele>1380.9540454121307</ele>
      </trkpt>
      <trkpt lat="48.282483" lon="24.736692">
        <ele>1375.795435563603</ele>
      </trkpt>
      <trkpt lat="48.282219" lon="24.736166">
        <ele>1366.307812023675</ele>
      </trkpt>
      <trkpt lat="48.281957" lon="24.735983">
        <ele>1358.173778469824</ele>
      </trkpt>
      <trkpt lat="48.281628" lon="24.735902">
        <ele>1347.9829306872477</ele>
      </trkpt>
      <trkpt lat="48.281232" lon="24.735886">
        <ele>1341.2132660319141</ele>
      </trkpt>
      <trkpt lat="48.280757" lon="24.735918">
        <ele>1334.0708643613223</ele>
      </trkpt>
      <trkpt lat="48.280372" lon="24.73587">
        <ele>1328.9986169805402</ele>
      </trkpt>
      <trkpt lat="48.280247" lon="24.735789">
        <ele>1327.6105770965223</ele>
      </trkpt>
      <trkpt lat="48.280101" lon="24.735398">
        <ele>1328.325288537698</ele>
      </trkpt>
      <trkpt lat="48.279776" lon="24.735124">
        <ele>1328.712572089891</ele>
      </trkpt>
      <trkpt lat="48.279537" lon="24.735081">
        <ele>1329.4204462519847</ele>
      </trkpt>
      <trkpt lat="48.279097" lon="24.734979">
        <ele>1332.6643364680672</ele>
      </trkpt>
      <trkpt lat="48.27868" lon="24.734907">
        <ele>1339.7226572818645</ele>
      </trkpt>
      <trkpt lat="48.278251" lon="24.73473">
        <ele>1353.029457597062</ele>
      </trkpt>
      <trkpt lat="48.277948" lon="24.734607">
        <ele>1357.197504181684</ele>
      </trkpt>
      <trkpt lat="48.277505" lon="24.734618">
        <ele>1354.5235518659465</ele>
      </trkpt>
      <trkpt lat="48.277084" lon="24.734726">
        <ele>1351.3934490508389</ele>
      </trkpt>
      <trkpt lat="48.276438" lon="24.735096">
        <ele>1339.1791287645465</ele>
      </trkpt>
      <trkpt lat="48.275671" lon="24.735486">
        <ele>1320.7181246696273</ele>
      </trkpt>
      <trkpt lat="48.27506" lon="24.735764">
        <ele>1309.8100742528914</ele>
      </trkpt>
      <trkpt lat="48.274464" lon="24.735845">
        <ele>1302.6694617882745</ele>
      </trkpt>
      <trkpt lat="48.274046" lon="24.735722">
        <ele>1298.934164002072</ele>
      </trkpt>
      <trkpt lat="48.274358" lon="24.735556">
        <ele>1301.1937689516926</ele>
      </trkpt>
      <trkpt lat="48.273173" lon="24.736007">
        <ele>1295.9428528055453</ele>
      </trkpt>
      <trkpt lat="48.271928" lon="24.736112">
        <ele>1296.544913349091</ele>
      </trkpt>
      <trkpt lat="48.271542" lon="24.738001">
        <ele>1292.1659388067014</ele>
      </trkpt>
      <trkpt lat="48.271185" lon="24.738816">
        <ele>1292.8170199172257</ele>
      </trkpt>
      <trkpt lat="48.270799" lon="24.739567">
        <ele>1292.3603211650689</ele>
      </trkpt>
      <trkpt lat="48.2702" lon="24.740018">
        <ele>1292.5437206156541</ele>
      </trkpt>
      <trkpt lat="48.268761" lon="24.740115">
        <ele>1299.5074418933361</ele>
      </trkpt>
      <trkpt lat="48.266447" lon="24.740565">
        <ele>1293.8607081612356</ele>
      </trkpt>
      <trkpt lat="48.26559" lon="24.739922">
        <ele>1289.938238821433</ele>
      </trkpt>
      <trkpt lat="48.265276" lon="24.74005">
        <ele>1286.4157444572775</ele>
      </trkpt>
      <trkpt lat="48.26369" lon="24.739474">
        <ele>1285.3903587084505</ele>
      </trkpt>
      <trkpt lat="48.262462" lon="24.738831">
        <ele>1290.6799689515212</ele>
      </trkpt>
      <trkpt lat="48.261605" lon="24.737608">
        <ele>1305.2555933879476</ele>
      </trkpt>
      <trkpt lat="48.261276" lon="24.737393">
        <ele>1319.4977977893354</ele>
      </trkpt>
      <trkpt lat="48.261176" lon="24.737028">
        <ele>1329.2889294304032</ele>
      </trkpt>
      <trkpt lat="48.260991" lon="24.736835">
        <ele>1336.1842759114538</ele>
      </trkpt>
      <trkpt lat="48.260962" lon="24.73632">
        <ele>1343.4852147072088</ele>
      </trkpt>
      <trkpt lat="48.259791" lon="24.735226">
        <ele>1375.582430972675</ele>
      </trkpt>
      <trkpt lat="48.258134" lon="24.734174">
        <ele>1375.6470718992641</ele>
      </trkpt>
      <trkpt lat="48.257519" lon="24.733295">
        <ele>1386.9869485336822</ele>
      </trkpt>
      <trkpt lat="48.256233" lon="24.733767">
        <ele>1393.5837794322288</ele>
      </trkpt>
      <trkpt lat="48.254776" lon="24.73544">
        <ele>1390.4759036445257</ele>
      </trkpt>
      <trkpt lat="48.254005" lon="24.736835">
        <ele>1404.019990570789</ele>
      </trkpt>
      <trkpt lat="48.252933" lon="24.739238">
        <ele>1400.0093705403851</ele>
      </trkpt>
      <trkpt lat="48.252278" lon="24.74079">
        <ele>1380.5014250009158</ele>
      </trkpt>
      <trkpt lat="48.251592" lon="24.742013">
        <ele>1378.0085290668067</ele>
      </trkpt>
      <trkpt lat="48.251413" lon="24.742936">
        <ele>1387.2544403896713</ele>
      </trkpt>
      <trkpt lat="48.251063" lon="24.743944">
        <ele>1403.3330950867385</ele>
      </trkpt>
      <trkpt lat="48.250849" lon="24.744803">
        <ele>1414.057011287543</ele>
      </trkpt>
      <trkpt lat="48.250485" lon="24.745618">
        <ele>1423.4394403880842</ele>
      </trkpt>
      <trkpt lat="48.250063" lon="24.745993">
        <ele>1423.6019225021848</ele>
      </trkpt>
      <trkpt lat="48.249056" lon="24.74609">
        <ele>1437.550165137652</ele>
      </trkpt>
      <trkpt lat="48.248172" lon="24.746476">
        <ele>1427.5859560001409</ele>
      </trkpt>
      <trkpt lat="48.246643" lon="24.747056">
        <ele>1410.072342915958</ele>
      </trkpt>
      <trkpt lat="48.246143" lon="24.74756">
        <ele>1413.103792304988</ele>
      </trkpt>
      <trkpt lat="48.245415" lon="24.747785">
        <ele>1418.0599564325987</ele>
      </trkpt>
      <trkpt lat="48.244948" lon="24.747633">
        <ele>1426.0032835749462</ele>
      </trkpt>
      <trkpt lat="48.24359" lon="24.747396">
        <ele>1447.0929531094152</ele>
      </trkpt>
      <trkpt lat="48.242976" lon="24.747675">
        <ele>1457.4469337192131</ele>
      </trkpt>
      <trkpt lat="48.241975" lon="24.747869">
        <ele>1471.7250198112451</ele>
      </trkpt>
      <trkpt lat="48.241975" lon="24.747869">
        <ele>1471.7250198112451</ele>
      </trkpt>
      <trkpt lat="48.242976" lon="24.747675">
        <ele>1457.4469337192131</ele>
      </trkpt>
      <trkpt lat="48.24359" lon="24.747396">
        <ele>1447.0929531094152</ele>
      </trkpt>
      <trkpt lat="48.244948" lon="24.747633">
        <ele>1426.0032835749462</ele>
      </trkpt>
      <trkpt lat="48.245415" lon="24.747785">
        <ele>1418.0599564325987</ele>
      </trkpt>
      <trkpt lat="48.246143" lon="24.74756">
        <ele>1413.103792304988</ele>
      </trkpt>
      <trkpt lat="48.246643" lon="24.747056">
        <ele>1410.072342915958</ele>
      </trkpt>
      <trkpt lat="48.248172" lon="24.746476">
        <ele>1427.5859560001409</ele>
      </trkpt>
      <trkpt lat="48.249056" lon="24.74609">
        <ele>1437.550165137652</ele>
      </trkpt>
      <trkpt lat="48.250063" lon="24.745993">
        <ele>1423.6019225021848</ele>
      </trkpt>
      <trkpt lat="48.250485" lon="24.745618">
        <ele>1423.4394403880842</ele>
      </trkpt>
      <trkpt lat="48.250849" lon="24.744803">
        <ele>1414.057011287543</ele>
      </trkpt>
      <trkpt lat="48.251063" lon="24.743944">
        <ele>1403.3330950867385</ele>
      </trkpt>
      <trkpt lat="48.251413" lon="24.742936">
        <ele>1387.2544403896713</ele>
      </trkpt>
      <trkpt lat="48.251592" lon="24.742013">
        <ele>1378.0085290668067</ele>
      </trkpt>
      <trkpt lat="48.252278" lon="24.74079">
        <ele>1380.5014250009158</ele>
      </trkpt>
      <trkpt lat="48.252933" lon="24.739238">
        <ele>1400.0093705403851</ele>
      </trkpt>
      <trkpt lat="48.254005" lon="24.736835">
        <ele>1404.019990570789</ele>
      </trkpt>
      <trkpt lat="48.254776" lon="24.73544">
        <ele>1390.4759036445257</ele>
      </trkpt>
      <trkpt lat="48.256233" lon="24.733767">
        <ele>1393.5837794322288</ele>
      </trkpt>
      <trkpt lat="48.257519" lon="24.733295">
        <ele>1386.9869485336822</ele>
      </trkpt>
      <trkpt lat="48.258134" lon="24.734174">
        <ele>1375.6470718992641</ele>
      </trkpt>
      <trkpt lat="48.259791" lon="24.735226">
        <ele>1375.582430972675</ele>
      </trkpt>
      <trkpt lat="48.260962" lon="24.73632">
        <ele>1343.4852147072088</ele>
      </trkpt>
      <trkpt lat="48.260991" lon="24.736835">
        <ele>1336.1842759114538</ele>
      </trkpt>
      <trkpt lat="48.261176" lon="24.737028">
        <ele>1329.2889294304032</ele>
      </trkpt>
      <trkpt lat="48.261276" lon="24.737393">
        <ele>1319.4977977893354</ele>
      </trkpt>
      <trkpt lat="48.261605" lon="24.737608">
        <ele>1305.2555933879476</ele>
      </trkpt>
      <trkpt lat="48.262462" lon="24.738831">
        <ele>1290.6799689515212</ele>
      </trkpt>
      <trkpt lat="48.26369" lon="24.739474">
        <ele>1285.3903587084505</ele>
      </trkpt>
      <trkpt lat="48.265298" lon="24.74008">
        <ele>1286.4423851375468</ele>
      </trkpt>
      <trkpt lat="48.265798" lon="24.740703">
        <ele>1283.7081752262309</ele>
      </trkpt>
      <trkpt lat="48.26607" lon="24.741175">
        <ele>1278.0959353097714</ele>
      </trkpt>
      <trkpt lat="48.266355" lon="24.741432">
        <ele>1277.4614658338874</ele>
      </trkpt>
      <trkpt lat="48.26637" lon="24.741711">
        <ele>1272.0459891559374</ele>
      </trkpt>
      <trkpt lat="48.265927" lon="24.741732">
        <ele>1263.14946826105</ele>
      </trkpt>
      <trkpt lat="48.265213" lon="24.741518">
        <ele>1254.4319433880503</ele>
      </trkpt>
      <trkpt lat="48.264555" lon="24.741432">
        <ele>1248.2387890839066</ele>
      </trkpt>
      <trkpt lat="48.263727" lon="24.741818">
        <ele>1238.3544184891507</ele>
      </trkpt>
      <trkpt lat="48.263256" lon="24.742183">
        <ele>1229.7656636642919</ele>
      </trkpt>
      <trkpt lat="48.262998" lon="24.742205">
        <ele>1228.2764879276674</ele>
      </trkpt>
      <trkpt lat="48.262727" lon="24.74214">
        <ele>1227.994870703551</ele>
      </trkpt>
      <trkpt lat="48.262241" lon="24.742462">
        <ele>1218.9608715709628</ele>
      </trkpt>
      <trkpt lat="48.261799" lon="24.742484">
        <ele>1213.0137202215265</ele>
      </trkpt>
      <trkpt lat="48.261402" lon="24.741947">
        <ele>1211.146558295765</ele>
      </trkpt>
      <trkpt lat="48.261374" lon="24.741684">
        <ele>1213.0086709418101</ele>
      </trkpt>
      <trkpt lat="48.261301" lon="24.741545">
        <ele>1211.6411895980127</ele>
      </trkpt>
      <trkpt lat="48.261186" lon="24.741523">
        <ele>1208.1044183624822</ele>
      </trkpt>
      <trkpt lat="48.261144" lon="24.741754">
        <ele>1203.7648850036785</ele>
      </trkpt>
      <trkpt lat="48.261154" lon="24.741996">
        <ele>1201.040412578759</ele>
      </trkpt>
      <trkpt lat="48.26119" lon="24.742414">
        <ele>1195.6728707239963</ele>
      </trkpt>
      <trkpt lat="48.261372" lon="24.743068">
        <ele>1187.372484121006</ele>
      </trkpt>
      <trkpt lat="48.261558" lon="24.743229">
        <ele>1187.333823185938</ele>
      </trkpt>
      <trkpt lat="48.261736" lon="24.743326">
        <ele>1188.7561989165474</ele>
      </trkpt>
      <trkpt lat="48.261779" lon="24.743444">
        <ele>1187.2129249295685</ele>
      </trkpt>
      <trkpt lat="48.26179" lon="24.743836">
        <ele>1181.3443965630706</ele>
      </trkpt>
      <trkpt lat="48.261936" lon="24.744163">
        <ele>1178.1465498661937</ele>
      </trkpt>
      <trkpt lat="48.262119" lon="24.74419">
        <ele>1178.439036928976</ele>
      </trkpt>
      <trkpt lat="48.262276" lon="24.744297">
        <ele>1175.6356721047193</ele>
      </trkpt>
      <trkpt lat="48.262333" lon="24.74442">
        <ele>1172.5751261556898</ele>
      </trkpt>
      <trkpt lat="48.26229" lon="24.744522">
        <ele>1170.3211470500682</ele>
      </trkpt>
      <trkpt lat="48.262176" lon="24.74457">
        <ele>1169.70144608384</ele>
      </trkpt>
      <trkpt lat="48.261972" lon="24.744603">
        <ele>1168.9734865630744</ele>
      </trkpt>
      <trkpt lat="48.261754" lon="24.744549">
        <ele>1167.981436389964</ele>
      </trkpt>
      <trkpt lat="48.261529" lon="24.744399">
        <ele>1166.6341275211846</ele>
      </trkpt>
      <trkpt lat="48.261401" lon="24.744222">
        <ele>1165.7965545391128</ele>
      </trkpt>
      <trkpt lat="48.261311" lon="24.743868">
        <ele>1166.7351782132173</ele>
      </trkpt>
      <trkpt lat="48.261197" lon="24.743798">
        <ele>1165.105912999237</ele>
      </trkpt>
      <trkpt lat="48.26114" lon="24.743975">
        <ele>1162.3352573968007</ele>
      </trkpt>
      <trkpt lat="48.26114" lon="24.744742">
        <ele>1154.6356886766728</ele>
      </trkpt>
      <trkpt lat="48.261287" lon="24.745182">
        <ele>1147.8124382522656</ele>
      </trkpt>
      <trkpt lat="48.26163" lon="24.745487">
        <ele>1142.2714093745453</ele>
      </trkpt>
      <trkpt lat="48.261844" lon="24.745627">
        <ele>1139.7863580043004</ele>
      </trkpt>
      <trkpt lat="48.26213" lon="24.745927">
        <ele>1134.1141481844193</ele>
      </trkpt>
      <trkpt lat="48.262401" lon="24.746013">
        <ele>1131.6056527405162</ele>
      </trkpt>
      <trkpt lat="48.262483" lon="24.746094">
        <ele>1129.1235132231377</ele>
      </trkpt>
      <trkpt lat="48.26243" lon="24.746233">
        <ele>1125.711601630086</ele>
      </trkpt>
      <trkpt lat="48.262108" lon="24.746281">
        <ele>1124.549767917022</ele>
      </trkpt>
      <trkpt lat="48.261951" lon="24.74619">
        <ele>1125.103744320106</ele>
      </trkpt>
      <trkpt lat="48.26173" lon="24.74611">
        <ele>1123.800118539133</ele>
      </trkpt>
      <trkpt lat="48.261587" lon="24.745965">
        <ele>1126.1303944549873</ele>
      </trkpt>
      <trkpt lat="48.261458" lon="24.745976">
        <ele>1125.2135551942047</ele>
      </trkpt>
      <trkpt lat="48.26143" lon="24.746147">
        <ele>1119.6122400921304</ele>
      </trkpt>
      <trkpt lat="48.261573" lon="24.74633">
        <ele>1115.6534162510334</ele>
      </trkpt>
      <trkpt lat="48.262162" lon="24.74677">
        <ele>1112.8005570750213</ele>
      </trkpt>
      <trkpt lat="48.262476" lon="24.746877">
        <ele>1111.8248933813302</ele>
      </trkpt>
      <trkpt lat="48.262494" lon="24.747113">
        <ele>1109.1540492329514</ele>
      </trkpt>
      <trkpt lat="48.262408" lon="24.747247">
        <ele>1107.2233568614383</ele>
      </trkpt>
      <trkpt lat="48.262205" lon="24.74729">
        <ele>1104.98100271367</ele>
      </trkpt>
      <trkpt lat="48.26148" lon="24.747172">
        <ele>1098.685735110892</ele>
      </trkpt>
      <trkpt lat="48.261044" lon="24.746882">
        <ele>1101.1156458195842</ele>
      </trkpt>
      <trkpt lat="48.260776" lon="24.746625">
        <ele>1099.0668877243356</ele>
      </trkpt>
      <trkpt lat="48.26063" lon="24.746635">
        <ele>1095.4235641947016</ele>
      </trkpt>
      <trkpt lat="48.260562" lon="24.746796">
        <ele>1090.5404354959812</ele>
      </trkpt>
      <trkpt lat="48.260823" lon="24.747424">
        <ele>1085.878135396022</ele>
      </trkpt>
      <trkpt lat="48.260904" lon="24.747863">
        <ele>1080.6409323790847</ele>
      </trkpt>
      <trkpt lat="48.260987" lon="24.748137">
        <ele>1079.4237753761834</ele>
      </trkpt>
      <trkpt lat="48.261179" lon="24.748394">
        <ele>1077.9607855032664</ele>
      </trkpt>
      <trkpt lat="48.261204" lon="24.748743">
        <ele>1072.812275224113</ele>
      </trkpt>
      <trkpt lat="48.261194" lon="24.749017">
        <ele>1073.2685890387097</ele>
      </trkpt>
      <trkpt lat="48.261494" lon="24.749585">
        <ele>1073.5534883365535</ele>
      </trkpt>
      <trkpt lat="48.26169" lon="24.749768">
        <ele>1068.3794493967423</ele>
      </trkpt>
      <trkpt lat="48.261836" lon="24.749961">
        <ele>1064.360223000134</ele>
      </trkpt>
      <trkpt lat="48.262036" lon="24.750438">
        <ele>1059.6822665499935</ele>
      </trkpt>
      <trkpt lat="48.262383" lon="24.750948">
        <ele>1053.8143838580856</ele>
      </trkpt>
      <trkpt lat="48.262602" lon="24.751056">
        <ele>1051.517488654728</ele>
      </trkpt>
      <trkpt lat="48.262667" lon="24.751715">
        <ele>1049.6921039781762</ele>
      </trkpt>
      <trkpt lat="48.262809" lon="24.751833">
        <ele>1048.1793144737057</ele>
      </trkpt>
      <trkpt lat="48.263099" lon="24.751968">
        <ele>1046.7676449809762</ele>
      </trkpt>
      <trkpt lat="48.263288" lon="24.752193">
        <ele>1046.828749456357</ele>
      </trkpt>
      <trkpt lat="48.263327" lon="24.752429">
        <ele>1045.817856175647</ele>
      </trkpt>
      <trkpt lat="48.263327" lon="24.752697">
        <ele>1044.5571955608327</ele>
      </trkpt>
      <trkpt lat="48.263527" lon="24.753346">
        <ele>1045.3882883147046</ele>
      </trkpt>
      <trkpt lat="48.263638" lon="24.753582">
        <ele>1046.829999775293</ele>
      </trkpt>
      <trkpt lat="48.263827" lon="24.753936">
        <ele>1053.0568655977258</ele>
      </trkpt>
      <trkpt lat="48.263963" lon="24.754763">
        <ele>1049.3971167624943</ele>
      </trkpt>
      <trkpt lat="48.264066" lon="24.75516">
        <ele>1048.1772563547377</ele>
      </trkpt>
      <trkpt lat="48.264313" lon="24.755536">
        <ele>1052.0497303466545</ele>
      </trkpt>
      <trkpt lat="48.264413" lon="24.755788">
        <ele>1049.0562157229288</ele>
      </trkpt>
      <trkpt lat="48.264684" lon="24.75626">
        <ele>1049.4998644181178</ele>
      </trkpt>
      <trkpt lat="48.264823" lon="24.756533">
        <ele>1049.9729800306513</ele>
      </trkpt>
      <trkpt lat="48.26528" lon="24.757054">
        <ele>1051.9163272851147</ele>
      </trkpt>
      <trkpt lat="48.265495" lon="24.757429">
        <ele>1051.90470814961</ele>
      </trkpt>
      <trkpt lat="48.265702" lon="24.757515">
        <ele>1050.6560144860268</ele>
      </trkpt>
      <trkpt lat="48.266094" lon="24.757408">
        <ele>1050.5298510958473</ele>
      </trkpt>
      <trkpt lat="48.267673" lon="24.757611">
        <ele>1041.660162787768</ele>
      </trkpt>
      <trkpt lat="48.26843" lon="24.757976">
        <ele>1026.8503779550083</ele>
      </trkpt>
      <trkpt lat="48.268708" lon="24.758116">
        <ele>1023.7637326838924</ele>
      </trkpt>
      <trkpt lat="48.27" lon="24.758366">
        <ele>1021.4025018353905</ele>
      </trkpt>
      <trkpt lat="48.270878" lon="24.758355">
        <ele>1012.447124770435</ele>
      </trkpt>
      <trkpt lat="48.271521" lon="24.758452">
        <ele>999.6847328345684</ele>
      </trkpt>
      <trkpt lat="48.271899" lon="24.758323">
        <ele>999.075054222485</ele>
      </trkpt>
      <trkpt lat="48.27242" lon="24.758838">
        <ele>984.2143902274547</ele>
      </trkpt>
      <trkpt lat="48.273778" lon="24.758634">
        <ele>976.536843684933</ele>
      </trkpt>
      <trkpt lat="48.275099" lon="24.758752">
        <ele>962.0353904954391</ele>
      </trkpt>
      <trkpt lat="48.275928" lon="24.759052">
        <ele>945.4764963237103</ele>
      </trkpt>
      <trkpt lat="48.276178" lon="24.759117">
        <ele>946.2138424394154</ele>
      </trkpt>
      <trkpt lat="48.27662" lon="24.759385">
        <ele>944.4019649640541</ele>
      </trkpt>
      <trkpt lat="48.27707" lon="24.759825">
        <ele>941.3648987517226</ele>
      </trkpt>
      <trkpt lat="48.277277" lon="24.759921">
        <ele>940.1978416196866</ele>
      </trkpt>
      <trkpt lat="48.277499" lon="24.759921">
        <ele>934.883518143078</ele>
      </trkpt>
      <trkpt lat="48.277663" lon="24.759524">
        <ele>933.5324905020873</ele>
      </trkpt>
      <trkpt lat="48.277684" lon="24.760233">
        <ele>925.1953746685307</ele>
      </trkpt>
      <trkpt lat="48.27767" lon="24.761273">
        <ele>905.3272362392845</ele>
      </trkpt>
      <trkpt lat="48.277691" lon="24.761863">
        <ele>894.5790485332254</ele>
      </trkpt>
      <trkpt lat="48.277756" lon="24.762292">
        <ele>888.7556366725578</ele>
      </trkpt>
      <trkpt lat="48.277941" lon="24.762539">
        <ele>888.0266504095969</ele>
      </trkpt>
      <trkpt lat="48.278177" lon="24.762668">
        <ele>886.8647665430668</ele>
      </trkpt>
      <trkpt lat="48.278255" lon="24.762754">
        <ele>885.035175227757</ele>
      </trkpt>
      <trkpt lat="48.278241" lon="24.763043">
        <ele>881.48541323666</ele>
      </trkpt>
      <trkpt lat="48.278191" lon="24.763333">
        <ele>878.9795088601531</ele>
      </trkpt>
      <trkpt lat="48.278191" lon="24.763526">
        <ele>878.7850405935897</ele>
      </trkpt>
      <trkpt lat="48.278255" lon="24.763816">
        <ele>881.9964848478012</ele>
      </trkpt>
      <trkpt lat="48.278836" lon="24.763837">
        <ele>869.9614370680646</ele>
      </trkpt>
      <trkpt lat="48.279343" lon="24.763762">
        <ele>868.2590547553496</ele>
      </trkpt>
      <trkpt lat="48.279686" lon="24.764137">
        <ele>868.545522353958</ele>
      </trkpt>
      <trkpt lat="48.280243" lon="24.764802">
        <ele>865.6700841965478</ele>
      </trkpt>
      <trkpt lat="48.280942" lon="24.765124">
        <ele>857.1309414221905</ele>
      </trkpt>
      <trkpt lat="48.282049" lon="24.765028">
        <ele>847.0230453174906</ele>
      </trkpt>
      <trkpt lat="48.282934" lon="24.765564">
        <ele>845.4795944971335</ele>
      </trkpt>
      <trkpt lat="48.283576" lon="24.766787">
        <ele>843.9363468939634</ele>
      </trkpt>
      <trkpt lat="48.28474" lon="24.767002">
        <ele>827.2837540444465</ele>
      </trkpt>
      <trkpt lat="48.285491" lon="24.76735">
        <ele>825.8905749886349</ele>
      </trkpt>
      <trkpt lat="48.286314" lon="24.767227">
        <ele>818.7486662692713</ele>
      </trkpt>
      <trkpt lat="48.286878" lon="24.767431">
        <ele>814.4819304294651</ele>
      </trkpt>
      <trkpt lat="48.28767" lon="24.767602">
        <ele>810.4976840535448</ele>
      </trkpt>
      <trkpt lat="48.287927" lon="24.767999">
        <ele>807.847124974316</ele>
      </trkpt>
      <trkpt lat="48.28842" lon="24.76816">
        <ele>803.5142641068702</ele>
      </trkpt>
      <trkpt lat="48.289041" lon="24.768482">
        <ele>802.1979292472824</ele>
      </trkpt>
      <trkpt lat="48.289412" lon="24.768665">
        <ele>803.0495244323865</ele>
      </trkpt>
      <trkpt lat="48.289719" lon="24.769051">
        <ele>798.2529110207106</ele>
      </trkpt>
      <trkpt lat="48.289998" lon="24.769619">
        <ele>800.3807859827157</ele>
      </trkpt>
      <trkpt lat="48.290255" lon="24.769941">
        <ele>796.8464559121057</ele>
      </trkpt>
      <trkpt lat="48.290709" lon="24.770138">
        <ele>789.7515379245826</ele>
      </trkpt>
      <trkpt lat="48.291187" lon="24.771168">
        <ele>782.4934064643458</ele>
      </trkpt>
      <trkpt lat="48.291744" lon="24.771479">
        <ele>788.1757560889238</ele>
      </trkpt>
      <trkpt lat="48.292222" lon="24.772048">
        <ele>786.8610908444971</ele>
      </trkpt>
      <trkpt lat="48.292565" lon="24.772251">
        <ele>786.8893607073312</ele>
      </trkpt>
      <trkpt lat="48.29385" lon="24.77253">
        <ele>781.7459611581322</ele>
      </trkpt>
      <trkpt lat="48.294528" lon="24.772799">
        <ele>777.4638417243368</ele>
      </trkpt>
      <trkpt lat="48.295034" lon="24.773013">
        <ele>771.2741144459579</ele>
      </trkpt>
      <trkpt lat="48.295426" lon="24.773484">
        <ele>766.4443497343455</ele>
      </trkpt>
      <trkpt lat="48.295576" lon="24.773602">
        <ele>765.1002327869646</ele>
      </trkpt>
      <trkpt lat="48.296026" lon="24.773656">
        <ele>763.6537558090428</ele>
      </trkpt>
      <trkpt lat="48.296325" lon="24.773291">
        <ele>759.1927482268073</ele>
      </trkpt>
      <trkpt lat="48.296618" lon="24.772851">
        <ele>764.7034817198418</ele>
      </trkpt>
      <trkpt lat="48.296996" lon="24.772851">
        <ele>762.4438133409137</ele>
      </trkpt>
      <trkpt lat="48.297482" lon="24.773473">
        <ele>757.6197283556685</ele>
      </trkpt>
      <trkpt lat="48.29806" lon="24.773741">
        <ele>757.5846873545088</ele>
      </trkpt>
      <trkpt lat="48.298638" lon="24.773602">
        <ele>750.8065482063103</ele>
      </trkpt>
      <trkpt lat="48.299011" lon="24.773691">
        <ele>748.9480052849352</ele>
      </trkpt>
      <trkpt lat="48.299275" lon="24.773819">
        <ele>748.0621261327638</ele>
      </trkpt>
      <trkpt lat="48.299361" lon="24.774195">
        <ele>746.6338620083407</ele>
      </trkpt>
      <trkpt lat="48.299575" lon="24.775">
        <ele>742.5552437392068</ele>
      </trkpt>
      <trkpt lat="48.299934" lon="24.775229">
        <ele>741.8246278794513</ele>
      </trkpt>
      <trkpt lat="48.300191" lon="24.775283">
        <ele>741.8438332449878</ele>
      </trkpt>
      <trkpt lat="48.300512" lon="24.775058">
        <ele>741.4272250646027</ele>
      </trkpt>
      <trkpt lat="48.300676" lon="24.774618">
        <ele>748.5874361392343</ele>
      </trkpt>
      <trkpt lat="48.301054" lon="24.774639">
        <ele>752.6878322316334</ele>
      </trkpt>
      <trkpt lat="48.301696" lon="24.775562">
        <ele>738.2806922953966</ele>
      </trkpt>
      <trkpt lat="48.302339" lon="24.776334">
        <ele>732.1801568746557</ele>
      </trkpt>
      <trkpt lat="48.302967" lon="24.777386">
        <ele>729.4392024658155</ele>
      </trkpt>
      <trkpt lat="48.303231" lon="24.778308">
        <ele>724.5821716392038</ele>
      </trkpt>
      <trkpt lat="48.303488" lon="24.778603">
        <ele>725.1847479024324</ele>
      </trkpt>
      <trkpt lat="48.303727" lon="24.778807">
        <ele>724.1107388570358</ele>
      </trkpt>
      <trkpt lat="48.303994" lon="24.778946">
        <ele>722.4679853645689</ele>
      </trkpt>
      <trkpt lat="48.304244" lon="24.779021">
        <ele>720.4582278320977</ele>
      </trkpt>
      <trkpt lat="48.30535" lon="24.780019">
        <ele>717.0077052616924</ele>
      </trkpt>
      <trkpt lat="48.306399" lon="24.780985">
        <ele>713.0465131131932</ele>
      </trkpt>
      <trkpt lat="48.306892" lon="24.781424">
        <ele>712.625810145284</ele>
      </trkpt>
      <trkpt lat="48.307056" lon="24.781768">
        <ele>710.8502693122556</ele>
      </trkpt>
      <trkpt lat="48.307855" lon="24.781832">
        <ele>705.2354585775174</ele>
      </trkpt>
      <trkpt lat="48.308205" lon="24.78165">
        <ele>702.4164398267117</ele>
      </trkpt>
      <trkpt lat="48.308662" lon="24.781682">
        <ele>700.6288803864436</ele>
      </trkpt>
      <trkpt lat="48.308933" lon="24.781972">
        <ele>700.9576014366291</ele>
      </trkpt>
      <trkpt lat="48.309214" lon="24.782583">
        <ele>698</ele>
      </trkpt>
      <trkpt lat="48.309643" lon="24.784042">
        <ele>698.5982981771231</ele>
      </trkpt>
      <trkpt lat="48.310064" lon="24.784988">
        <ele>698.7947302744724</ele>
      </trkpt>
      <trkpt lat="48.31062" lon="24.785868">
        <ele>694.3629380761413</ele>
      </trkpt>
      <trkpt lat="48.311576" lon="24.787477">
        <ele>687.3607134026188</ele>
      </trkpt>
      <trkpt lat="48.312732" lon="24.788721">
        <ele>682.6944994432038</ele>
      </trkpt>
      <trkpt lat="48.314338" lon="24.79086">
        <ele>680.3655483778566</ele>
      </trkpt>
      <trkpt lat="48.314452" lon="24.791268">
        <ele>679.7613139200257</ele>
      </trkpt>
      <trkpt lat="48.314566" lon="24.791482">
        <ele>678.2247530665481</ele>
      </trkpt>
      <trkpt lat="48.314909" lon="24.791654">
        <ele>674.5230247168663</ele>
      </trkpt>
      <trkpt lat="48.315151" lon="24.792201">
        <ele>672.0028481020403</ele>
      </trkpt>
      <trkpt lat="48.315301" lon="24.792276">
        <ele>671.4563298589094</ele>
      </trkpt>
      <trkpt lat="48.315601" lon="24.79262">
        <ele>671.2932470374773</ele>
      </trkpt>
      <trkpt lat="48.315869" lon="24.793147">
        <ele>673.0279692145996</ele>
      </trkpt>
      <trkpt lat="48.316312" lon="24.793426">
        <ele>675.1024214240778</ele>
      </trkpt>
      <trkpt lat="48.316569" lon="24.793533">
        <ele>676.0194890991552</ele>
      </trkpt>
      <trkpt lat="48.317147" lon="24.794069">
        <ele>676.4054545057911</ele>
      </trkpt>
      <trkpt lat="48.317439" lon="24.794713">
        <ele>677.1238971617469</ele>
      </trkpt>
      <trkpt lat="48.317689" lon="24.795367">
        <ele>677.7473761033145</ele>
      </trkpt>
      <trkpt lat="48.317931" lon="24.796022">
        <ele>676.9438440396916</ele>
      </trkpt>
      <trkpt lat="48.317853" lon="24.796966">
        <ele>679.6861634300037</ele>
      </trkpt>
      <trkpt lat="48.317703" lon="24.79761">
        <ele>679.2258239999646</ele>
      </trkpt>
      <trkpt lat="48.317746" lon="24.798264">
        <ele>678.5</ele>
      </trkpt>
      <trkpt lat="48.318698" lon="24.799731">
        <ele>674.0859754221747</ele>
      </trkpt>
      <trkpt lat="48.318933" lon="24.800386">
        <ele>673</ele>
      </trkpt>
      <trkpt lat="48.320039" lon="24.801094">
        <ele>670.0779384889174</ele>
      </trkpt>
      <trkpt lat="48.320674" lon="24.801587">
        <ele>667.5902526329087</ele>
      </trkpt>
      <trkpt lat="48.321273" lon="24.801791">
        <ele>665.8037666815654</ele>
      </trkpt>
      <trkpt lat="48.322172" lon="24.802767">
        <ele>661.8314340528735</ele>
      </trkpt>
      <trkpt lat="48.322994" lon="24.803996">
        <ele>656.1502222850442</ele>
      </trkpt>
      <trkpt lat="48.324264" lon="24.806474">
        <ele>650.6570195284439</ele>
      </trkpt>
      <trkpt lat="48.32502" lon="24.80744">
        <ele>647.9391483648214</ele>
      </trkpt>
      <trkpt lat="48.325677" lon="24.808459">
        <ele>645.458909413866</ele>
      </trkpt>
      <trkpt lat="48.325933" lon="24.809296">
        <ele>644.0035333479755</ele>
      </trkpt>
      <trkpt lat="48.32619" lon="24.809714">
        <ele>642.2198582625715</ele>
      </trkpt>
      <trkpt lat="48.326604" lon="24.810669">
        <ele>637.9416188994696</ele>
      </trkpt>
      <trkpt lat="48.327702" lon="24.811602">
        <ele>635.471170133329</ele>
      </trkpt>
      <trkpt lat="48.328444" lon="24.812386">
        <ele>632.6876046222169</ele>
      </trkpt>
      <trkpt lat="48.328765" lon="24.813083">
        <ele>630.6574449777836</ele>
      </trkpt>
    </trkseg>
  </trk>
</gpx>
