<?xml version="1.0" encoding="UTF-8"?>
<gpx version="1.1" creator="phpGPX/1.0RC5" schemaLocation="http://www.topografix.com/GPX/1/1 http://www.topografix.com/GPX/1/1/gpx.xsd http://www.garmin.com/xmlschemas/GpxExtensions/v3 http://www.garmin.com/xmlschemas/GpxExtensionsv3.xsd http://www.garmin.com/xmlschemas/TrackPointExtension/v1 http://www.garmin.com/xmlschemas/TrackPointExtensionv1.xsd http://www.garmin.com/xmlschemas/PowerExtension/v1 http://www.garmin.com/xmlschemas/PowerExtensionv1.xsd http://www.topografix.com/GPX/gpx_style/0/2 http://www.topografix.com/GPX/gpx_style/0/2/gpx_style.xsd" xmlns="http://www.topografix.com/GPX/1/1" xmlns:xsi="http://www.w3.org/2001/XMLSchema-instance" xsi:schemaLocation="http://www.topografix.com/GPX/1/1 http://www.topografix.com/GPX/1/1/gpx.xsd http://www.garmin.com/xmlschemas/GpxExtensions/v3 http://www.garmin.com/xmlschemas/GpxExtensionsv3.xsd http://www.garmin.com/xmlschemas/TrackPointExtension/v1 http://www.garmin.com/xmlschemas/TrackPointExtensionv1.xsd http://www.garmin.com/xmlschemas/PowerExtension/v1 http://www.garmin.com/xmlschemas/PowerExtensionv1.xsd http://www.topografix.com/GPX/gpx_style/0/2 http://www.topografix.com/GPX/gpx_style/0/2/gpx_style.xsd" xmlns:gpxtpx="http://www.garmin.com/xmlschemas/TrackPointExtension/v1" xmlns:gpxx="http://www.garmin.com/xmlschemas/GpxExtensions/v3" xmlns:gpxpx="http://www.garmin.com/xmlschemas/PowerExtension/v1" xmlns:gpx_style="http://www.topografix.com/GPX/gpx_style/0/2">
  <metadata>
    <name>Озеро Синевир з смт Міжгір&apos;я</name>
    <author>
      <name>gpx.studio</name>
      <link href="https://gpx.studio"/>
    </author>
  </metadata>
  <trk>
    <name>Озеро Синевир з смт Міжгір&apos;я</name>
    <trkseg>
      <trkpt lat="48.526162" lon="23.499805">
        <ele>436.3568675555289</ele>
      </trkpt>
      <trkpt lat="48.526201" lon="23.500717">
        <ele>436.5</ele>
      </trkpt>
      <trkpt lat="48.526262" lon="23.501726">
        <ele>437.2244135954696</ele>
      </trkpt>
      <trkpt lat="48.526333" lon="23.502209">
        <ele>440.929639664304</ele>
      </trkpt>
      <trkpt lat="48.526184" lon="23.502409">
        <ele>441.7244763970002</ele>
      </trkpt>
      <trkpt lat="48.526146" lon="23.502471">
        <ele>442.09407689736696</ele>
      </trkpt>
      <trkpt lat="48.52629" lon="23.502978">
        <ele>448.0514633356361</ele>
      </trkpt>
      <trkpt lat="48.526523" lon="23.503791">
        <ele>454.7433070355328</ele>
      </trkpt>
      <trkpt lat="48.526313" lon="23.504024">
        <ele>453.989902404197</ele>
      </trkpt>
      <trkpt lat="48.525784" lon="23.504496">
        <ele>451.43072147175826</ele>
      </trkpt>
      <trkpt lat="48.525734" lon="23.504646">
        <ele>452.3791208071634</ele>
      </trkpt>
      <trkpt lat="48.526218" lon="23.506132">
        <ele>463.7298578703154</ele>
      </trkpt>
      <trkpt lat="48.526207" lon="23.506862">
        <ele>469.6981347555993</ele>
      </trkpt>
      <trkpt lat="48.526448" lon="23.508793">
        <ele>484.96773973328527</ele>
      </trkpt>
      <trkpt lat="48.526615" lon="23.509469">
        <ele>491.62975850955763</ele>
      </trkpt>
      <trkpt lat="48.526658" lon="23.509925">
        <ele>496.76688340294635</ele>
      </trkpt>
      <trkpt lat="48.526631" lon="23.510419">
        <ele>502.489055508282</ele>
      </trkpt>
      <trkpt lat="48.526591" lon="23.510918">
        <ele>507.71132520927904</ele>
      </trkpt>
      <trkpt lat="48.526464" lon="23.511336">
        <ele>513.0594472929952</ele>
      </trkpt>
      <trkpt lat="48.526258" lon="23.511706">
        <ele>518.2581321814409</ele>
      </trkpt>
      <trkpt lat="48.526169" lon="23.511926">
        <ele>521.6789688558201</ele>
      </trkpt>
      <trkpt lat="48.526119" lon="23.512216">
        <ele>526.1223008314846</ele>
      </trkpt>
      <trkpt lat="48.526154" lon="23.512355">
        <ele>528.1903613602044</ele>
      </trkpt>
      <trkpt lat="48.526311" lon="23.51242">
        <ele>528.821898666909</ele>
      </trkpt>
      <trkpt lat="48.526474" lon="23.512581">
        <ele>530.9457835433161</ele>
      </trkpt>
      <trkpt lat="48.526424" lon="23.513005">
        <ele>538.1461334561891</ele>
      </trkpt>
      <trkpt lat="48.526297" lon="23.513439">
        <ele>546.2928173938496</ele>
      </trkpt>
      <trkpt lat="48.526474" lon="23.513992">
        <ele>552.6199742020108</ele>
      </trkpt>
      <trkpt lat="48.526545" lon="23.514614">
        <ele>560.4693390432654</ele>
      </trkpt>
      <trkpt lat="48.526659" lon="23.515043">
        <ele>562.5802594971615</ele>
      </trkpt>
      <trkpt lat="48.526673" lon="23.515778">
        <ele>567.1104293132666</ele>
      </trkpt>
      <trkpt lat="48.526847" lon="23.517226">
        <ele>565.7744522792694</ele>
      </trkpt>
      <trkpt lat="48.526098" lon="23.517902">
        <ele>567.564773552469</ele>
      </trkpt>
      <trkpt lat="48.525551" lon="23.518889">
        <ele>569.2938202325612</ele>
      </trkpt>
      <trkpt lat="48.525561" lon="23.519683">
        <ele>569.678714395357</ele>
      </trkpt>
      <trkpt lat="48.525785" lon="23.520466">
        <ele>570.6364140703226</ele>
      </trkpt>
      <trkpt lat="48.525821" lon="23.521185">
        <ele>565.8968355467077</ele>
      </trkpt>
      <trkpt lat="48.525881" lon="23.5217">
        <ele>563.0594450080436</ele>
      </trkpt>
      <trkpt lat="48.526055" lon="23.522376">
        <ele>561.191677033581</ele>
      </trkpt>
      <trkpt lat="48.526595" lon="23.523218">
        <ele>557.4439522615035</ele>
      </trkpt>
      <trkpt lat="48.527096" lon="23.523803">
        <ele>562.1734659149942</ele>
      </trkpt>
      <trkpt lat="48.527442" lon="23.523978">
        <ele>566.6579001612292</ele>
      </trkpt>
      <trkpt lat="48.527812" lon="23.523994">
        <ele>574.2909474918235</ele>
      </trkpt>
      <trkpt lat="48.528018" lon="23.524128">
        <ele>580.6093230061258</ele>
      </trkpt>
      <trkpt lat="48.528167" lon="23.52438">
        <ele>588.431846839143</ele>
      </trkpt>
      <trkpt lat="48.528067" lon="23.525147">
        <ele>597.432475893256</ele>
      </trkpt>
      <trkpt lat="48.528064" lon="23.52534">
        <ele>600.5747945726616</ele>
      </trkpt>
      <trkpt lat="48.527982" lon="23.525684">
        <ele>602.4942412911914</ele>
      </trkpt>
      <trkpt lat="48.528042" lon="23.526896">
        <ele>614.0683503050846</ele>
      </trkpt>
      <trkpt lat="48.528156" lon="23.527342">
        <ele>619.9418616715955</ele>
      </trkpt>
      <trkpt lat="48.528064" lon="23.52805">
        <ele>624.1863885099443</ele>
      </trkpt>
      <trkpt lat="48.528194" lon="23.528817">
        <ele>619.871416827894</ele>
      </trkpt>
      <trkpt lat="48.528137" lon="23.529997">
        <ele>616.3384563458076</ele>
      </trkpt>
      <trkpt lat="48.528251" lon="23.531285">
        <ele>628.3459209495197</ele>
      </trkpt>
      <trkpt lat="48.528435" lon="23.532186">
        <ele>642.4343459547862</ele>
      </trkpt>
      <trkpt lat="48.527725" lon="23.535426">
        <ele>672.7753252230624</ele>
      </trkpt>
      <trkpt lat="48.528336" lon="23.536048">
        <ele>675.5974382293359</ele>
      </trkpt>
      <trkpt lat="48.528606" lon="23.537529">
        <ele>676.374039340775</ele>
      </trkpt>
      <trkpt lat="48.528449" lon="23.539031">
        <ele>695.0962073095725</ele>
      </trkpt>
      <trkpt lat="48.528307" lon="23.539803">
        <ele>699.5070689850822</ele>
      </trkpt>
      <trkpt lat="48.528918" lon="23.540297">
        <ele>689.3659150621705</ele>
      </trkpt>
      <trkpt lat="48.529203" lon="23.541005">
        <ele>679.307902812252</ele>
      </trkpt>
      <trkpt lat="48.530439" lon="23.542421">
        <ele>688.2409995141111</ele>
      </trkpt>
      <trkpt lat="48.530539" lon="23.543028">
        <ele>693.4570923507742</ele>
      </trkpt>
      <trkpt lat="48.530454" lon="23.543972">
        <ele>700.2219522463097</ele>
      </trkpt>
      <trkpt lat="48.530667" lon="23.544809">
        <ele>713.6264792488689</ele>
      </trkpt>
      <trkpt lat="48.530369" lon="23.545688">
        <ele>714.5077238483709</ele>
      </trkpt>
      <trkpt lat="48.530525" lon="23.546675">
        <ele>729.290626079693</ele>
      </trkpt>
      <trkpt lat="48.530909" lon="23.547427">
        <ele>746.0913812589133</ele>
      </trkpt>
      <trkpt lat="48.530767" lon="23.548693">
        <ele>755.3786252364605</ele>
      </trkpt>
      <trkpt lat="48.530752" lon="23.549486">
        <ele>764.0479000641694</ele>
      </trkpt>
      <trkpt lat="48.530355" lon="23.550474">
        <ele>760.6278639142527</ele>
      </trkpt>
      <trkpt lat="48.530738" lon="23.551053">
        <ele>757.904267484555</ele>
      </trkpt>
      <trkpt lat="48.53034" lon="23.554143">
        <ele>746.6406884453547</ele>
      </trkpt>
      <trkpt lat="48.530042" lon="23.55558">
        <ele>749.1512981057564</ele>
      </trkpt>
      <trkpt lat="48.529672" lon="23.557168">
        <ele>777.8314940248383</ele>
      </trkpt>
      <trkpt lat="48.52936" lon="23.558048">
        <ele>787.3842899994925</ele>
      </trkpt>
      <trkpt lat="48.529545" lon="23.559007">
        <ele>790.9526373329435</ele>
      </trkpt>
      <trkpt lat="48.530383" lon="23.560252">
        <ele>795.5511775428895</ele>
      </trkpt>
      <trkpt lat="48.531022" lon="23.560746">
        <ele>801.7785033972468</ele>
      </trkpt>
      <trkpt lat="48.531108" lon="23.563578">
        <ele>802.9286268360447</ele>
      </trkpt>
      <trkpt lat="48.530355" lon="23.565466">
        <ele>798.2843391307398</ele>
      </trkpt>
      <trkpt lat="48.530255" lon="23.566518">
        <ele>793.7185788716862</ele>
      </trkpt>
      <trkpt lat="48.530809" lon="23.570895">
        <ele>786.7696522260085</ele>
      </trkpt>
      <trkpt lat="48.531221" lon="23.574779">
        <ele>829.9799645824825</ele>
      </trkpt>
      <trkpt lat="48.531747" lon="23.575938">
        <ele>820.4610787693659</ele>
      </trkpt>
      <trkpt lat="48.532273" lon="23.578255">
        <ele>837.0541765345776</ele>
      </trkpt>
      <trkpt lat="48.531989" lon="23.580208">
        <ele>834.3107954243897</ele>
      </trkpt>
      <trkpt lat="48.53206" lon="23.582611">
        <ele>840.6003400683286</ele>
      </trkpt>
      <trkpt lat="48.531747" lon="23.585357">
        <ele>874.5888372636265</ele>
      </trkpt>
      <trkpt lat="48.531733" lon="23.588233">
        <ele>865.0972478630657</ele>
      </trkpt>
      <trkpt lat="48.532021" lon="23.589938">
        <ele>869.7497878198628</ele>
      </trkpt>
      <trkpt lat="48.532731" lon="23.591461">
        <ele>882.1083034732613</ele>
      </trkpt>
      <trkpt lat="48.532987" lon="23.592427">
        <ele>876.5682763682784</ele>
      </trkpt>
      <trkpt lat="48.533172" lon="23.593306">
        <ele>876.0932680267613</ele>
      </trkpt>
      <trkpt lat="48.533342" lon="23.594229">
        <ele>881.2651791705035</ele>
      </trkpt>
      <trkpt lat="48.533897" lon="23.594615">
        <ele>894.9397517996258</ele>
      </trkpt>
      <trkpt lat="48.534437" lon="23.595044">
        <ele>906.7877601252541</ele>
      </trkpt>
      <trkpt lat="48.534536" lon="23.596139">
        <ele>917.1926404180465</ele>
      </trkpt>
      <trkpt lat="48.534479" lon="23.596997">
        <ele>926.187922809273</ele>
      </trkpt>
      <trkpt lat="48.535669" lon="23.597765">
        <ele>909.0361784993249</ele>
      </trkpt>
      <trkpt lat="48.536805" lon="23.59828">
        <ele>909.6409495350188</ele>
      </trkpt>
      <trkpt lat="48.538851" lon="23.598216">
        <ele>893.058272509661</ele>
      </trkpt>
      <trkpt lat="48.539157" lon="23.598741">
        <ele>891.4954650942236</ele>
      </trkpt>
      <trkpt lat="48.539661" lon="23.599009">
        <ele>893.5069301496505</ele>
      </trkpt>
      <trkpt lat="48.540641" lon="23.598752">
        <ele>892.3301491918974</ele>
      </trkpt>
      <trkpt lat="48.541787" lon="23.599383">
        <ele>891.4440313231898</ele>
      </trkpt>
      <trkpt lat="48.544401" lon="23.597966">
        <ele>889.5514758988484</ele>
      </trkpt>
      <trkpt lat="48.545964" lon="23.598138">
        <ele>909.0097477388334</ele>
      </trkpt>
      <trkpt lat="48.546361" lon="23.600155">
        <ele>967.2826544180386</ele>
      </trkpt>
      <trkpt lat="48.546134" lon="23.602043">
        <ele>1004.783281294915</ele>
      </trkpt>
      <trkpt lat="48.54639" lon="23.603331">
        <ele>1001.0490862088799</ele>
      </trkpt>
      <trkpt lat="48.547725" lon="23.604318">
        <ele>1056.938279791265</ele>
      </trkpt>
      <trkpt lat="48.546958" lon="23.606421">
        <ele>1113.3694805332925</ele>
      </trkpt>
      <trkpt lat="48.546958" lon="23.608481">
        <ele>1134.4421491191524</ele>
      </trkpt>
      <trkpt lat="48.547242" lon="23.610068">
        <ele>1178.41394345637</ele>
      </trkpt>
      <trkpt lat="48.548094" lon="23.611613">
        <ele>1193.2967119385414</ele>
      </trkpt>
      <trkpt lat="48.548975" lon="23.612944">
        <ele>1205.8778043512864</ele>
      </trkpt>
      <trkpt lat="48.549884" lon="23.615347">
        <ele>1191.616501092758</ele>
      </trkpt>
      <trkpt lat="48.550594" lon="23.615261">
        <ele>1188.4103060057387</ele>
      </trkpt>
      <trkpt lat="48.552952" lon="23.615776">
        <ele>1249.2558647466358</ele>
      </trkpt>
      <trkpt lat="48.554401" lon="23.615733">
        <ele>1267.478764636016</ele>
      </trkpt>
      <trkpt lat="48.555594" lon="23.615218">
        <ele>1271.6985029540297</ele>
      </trkpt>
      <trkpt lat="48.556702" lon="23.615047">
        <ele>1268.3967529778602</ele>
      </trkpt>
      <trkpt lat="48.558883" lon="23.617244">
        <ele>1257.5110044257617</ele>
      </trkpt>
      <trkpt lat="48.559395" lon="23.613639">
        <ele>1307.96780961061</ele>
      </trkpt>
      <trkpt lat="48.560275" lon="23.612266">
        <ele>1322.073565650081</ele>
      </trkpt>
      <trkpt lat="48.560673" lon="23.613939">
        <ele>1354.147570660757</ele>
      </trkpt>
      <trkpt lat="48.560985" lon="23.615699">
        <ele>1386.178308527742</ele>
      </trkpt>
      <trkpt lat="48.561553" lon="23.617544">
        <ele>1398.2293629357173</ele>
      </trkpt>
      <trkpt lat="48.562547" lon="23.620977">
        <ele>1460.4057466353988</ele>
      </trkpt>
      <trkpt lat="48.562831" lon="23.623037">
        <ele>1502.235477418525</ele>
      </trkpt>
      <trkpt lat="48.563939" lon="23.623681">
        <ele>1519.5539395440137</ele>
      </trkpt>
      <trkpt lat="48.56516" lon="23.62381">
        <ele>1509.1660196691519</ele>
      </trkpt>
      <trkpt lat="48.566902" lon="23.623911">
        <ele>1448.4597513141343</ele>
      </trkpt>
      <trkpt lat="48.570224" lon="23.620649">
        <ele>1486.793624345446</ele>
      </trkpt>
      <trkpt lat="48.571843" lon="23.619533">
        <ele>1497.3966877736912</ele>
      </trkpt>
      <trkpt lat="48.572666" lon="23.620392">
        <ele>1450.419172030668</ele>
      </trkpt>
      <trkpt lat="48.574739" lon="23.623825">
        <ele>1382.844967512181</ele>
      </trkpt>
      <trkpt lat="48.575661" lon="23.624945">
        <ele>1350.2167007251992</ele>
      </trkpt>
      <trkpt lat="48.578216" lon="23.62443">
        <ele>1364.9025808566914</ele>
      </trkpt>
      <trkpt lat="48.580516" lon="23.625803">
        <ele>1328.0672700352734</ele>
      </trkpt>
      <trkpt lat="48.581936" lon="23.626146">
        <ele>1331.3595428904048</ele>
      </trkpt>
      <trkpt lat="48.58574" lon="23.638592">
        <ele>1130.8238925940818</ele>
      </trkpt>
      <trkpt lat="48.586677" lon="23.640695">
        <ele>1053.6961336698191</ele>
      </trkpt>
      <trkpt lat="48.588323" lon="23.640737">
        <ele>1081.7988483962386</ele>
      </trkpt>
      <trkpt lat="48.590566" lon="23.647604">
        <ele>1222.1227431187</ele>
      </trkpt>
      <trkpt lat="48.590963" lon="23.651295">
        <ele>1310.2337277351303</ele>
      </trkpt>
      <trkpt lat="48.591218" lon="23.659706">
        <ele>1438.448995569488</ele>
      </trkpt>
      <trkpt lat="48.594426" lon="23.663826">
        <ele>1426.292122464753</ele>
      </trkpt>
      <trkpt lat="48.596015" lon="23.663483">
        <ele>1415.7040242926641</ele>
      </trkpt>
      <trkpt lat="48.597151" lon="23.663611">
        <ele>1419.1933401939066</ele>
      </trkpt>
      <trkpt lat="48.598371" lon="23.662624">
        <ele>1406.4024197731774</ele>
      </trkpt>
      <trkpt lat="48.601085" lon="23.662621">
        <ele>1421.1266926647852</ele>
      </trkpt>
      <trkpt lat="48.604746" lon="23.662063">
        <ele>1438.391384682036</ele>
      </trkpt>
      <trkpt lat="48.607272" lon="23.663394">
        <ele>1462.2338504963554</ele>
      </trkpt>
      <trkpt lat="48.609627" lon="23.663737">
        <ele>1491.5693307439797</ele>
      </trkpt>
      <trkpt lat="48.612209" lon="23.662536">
        <ele>1472.2415025227735</ele>
      </trkpt>
      <trkpt lat="48.61289" lon="23.663437">
        <ele>1423.7300361502332</ele>
      </trkpt>
      <trkpt lat="48.613315" lon="23.664381">
        <ele>1380.7895140247467</ele>
      </trkpt>
      <trkpt lat="48.612039" lon="23.66717">
        <ele>1306.0226374233089</ele>
      </trkpt>
      <trkpt lat="48.611783" lon="23.668157">
        <ele>1273.2423680986974</ele>
      </trkpt>
      <trkpt lat="48.612095" lon="23.668587">
        <ele>1245.1645856968441</ele>
      </trkpt>
      <trkpt lat="48.611812" lon="23.670432">
        <ele>1196.1273220275345</ele>
      </trkpt>
      <trkpt lat="48.612521" lon="23.673822">
        <ele>1125.487254556152</ele>
      </trkpt>
      <trkpt lat="48.613145" lon="23.675668">
        <ele>1091.0516312994087</ele>
      </trkpt>
      <trkpt lat="48.613656" lon="23.677513">
        <ele>1079.843614419025</ele>
      </trkpt>
      <trkpt lat="48.61462" lon="23.6785">
        <ele>1066.4387530668755</ele>
      </trkpt>
      <trkpt lat="48.615585" lon="23.679745">
        <ele>1042.4038969356577</ele>
      </trkpt>
      <trkpt lat="48.616067" lon="23.681504">
        <ele>998.632929613506</ele>
      </trkpt>
      <trkpt lat="48.61638" lon="23.68189">
        <ele>985.6461039601487</ele>
      </trkpt>
      <trkpt lat="48.616153" lon="23.682048">
        <ele>984.249595733243</ele>
      </trkpt>
      <trkpt lat="48.615543" lon="23.681812">
        <ele>985.7768520525415</ele>
      </trkpt>
      <trkpt lat="48.614862" lon="23.68179">
        <ele>987.2584413057192</ele>
      </trkpt>
      <trkpt lat="48.615216" lon="23.682563">
        <ele>1004.8873400979672</ele>
      </trkpt>
      <trkpt lat="48.615613" lon="23.683271">
        <ele>1000.3000645057765</ele>
      </trkpt>
      <trkpt lat="48.615812" lon="23.684086">
        <ele>999.8484474474099</ele>
      </trkpt>
      <trkpt lat="48.615954" lon="23.685052">
        <ele>1005.4999969820773</ele>
      </trkpt>
      <trkpt lat="48.616479" lon="23.686232">
        <ele>1005.6631560841379</ele>
      </trkpt>
    </trkseg>
  </trk>
</gpx>
