<?xml version="1.0" encoding="UTF-8"?>
<gpx version="1.1" creator="phpGPX/1.0RC5" schemaLocation="http://www.topografix.com/GPX/1/1 http://www.topografix.com/GPX/1/1/gpx.xsd http://www.garmin.com/xmlschemas/GpxExtensions/v3 http://www.garmin.com/xmlschemas/GpxExtensionsv3.xsd http://www.garmin.com/xmlschemas/TrackPointExtension/v1 http://www.garmin.com/xmlschemas/TrackPointExtensionv1.xsd http://www.garmin.com/xmlschemas/PowerExtension/v1 http://www.garmin.com/xmlschemas/PowerExtensionv1.xsd http://www.topografix.com/GPX/gpx_style/0/2 http://www.topografix.com/GPX/gpx_style/0/2/gpx_style.xsd" xmlns="http://www.topografix.com/GPX/1/1" xmlns:xsi="http://www.w3.org/2001/XMLSchema-instance" xsi:schemaLocation="http://www.topografix.com/GPX/1/1 http://www.topografix.com/GPX/1/1/gpx.xsd http://www.garmin.com/xmlschemas/GpxExtensions/v3 http://www.garmin.com/xmlschemas/GpxExtensionsv3.xsd http://www.garmin.com/xmlschemas/TrackPointExtension/v1 http://www.garmin.com/xmlschemas/TrackPointExtensionv1.xsd http://www.garmin.com/xmlschemas/PowerExtension/v1 http://www.garmin.com/xmlschemas/PowerExtensionv1.xsd http://www.topografix.com/GPX/gpx_style/0/2 http://www.topografix.com/GPX/gpx_style/0/2/gpx_style.xsd" xmlns:gpxtpx="http://www.garmin.com/xmlschemas/TrackPointExtension/v1" xmlns:gpxx="http://www.garmin.com/xmlschemas/GpxExtensions/v3" xmlns:gpxpx="http://www.garmin.com/xmlschemas/PowerExtension/v1" xmlns:gpx_style="http://www.topografix.com/GPX/gpx_style/0/2">
  <metadata>
    <name>Петрос з с Лазещина</name>
    <author>
      <name>gpx.studio</name>
      <link href="https://gpx.studio"/>
    </author>
  </metadata>
  <trk>
    <name>Петрос з с Лазещина</name>
    <trkseg>
      <trkpt lat="48.272417" lon="24.414365">
        <ele>718.5</ele>
      </trkpt>
      <trkpt lat="48.27116" lon="24.416468">
        <ele>721.9043919813059</ele>
      </trkpt>
      <trkpt lat="48.268703" lon="24.418485">
        <ele>724.9141354768071</ele>
      </trkpt>
      <trkpt lat="48.267989" lon="24.421575">
        <ele>723.5521914382399</ele>
      </trkpt>
      <trkpt lat="48.266504" lon="24.422562">
        <ele>725.2646015998907</ele>
      </trkpt>
      <trkpt lat="48.26339" lon="24.42312">
        <ele>731.5162816546591</ele>
      </trkpt>
      <trkpt lat="48.261793" lon="24.423892">
        <ele>733.4409685066203</ele>
      </trkpt>
      <trkpt lat="48.258507" lon="24.423677">
        <ele>735.0070966767884</ele>
      </trkpt>
      <trkpt lat="48.256307" lon="24.422819">
        <ele>737.6512021331582</ele>
      </trkpt>
      <trkpt lat="48.255278" lon="24.423248">
        <ele>738.612646998909</ele>
      </trkpt>
      <trkpt lat="48.253078" lon="24.42372">
        <ele>736.6702704848143</ele>
      </trkpt>
      <trkpt lat="48.252075" lon="24.426419">
        <ele>736.5796173598774</ele>
      </trkpt>
      <trkpt lat="48.251104" lon="24.426333">
        <ele>737.1484671999933</ele>
      </trkpt>
      <trkpt lat="48.250246" lon="24.425475">
        <ele>739.2951466667</ele>
      </trkpt>
      <trkpt lat="48.247274" lon="24.427148">
        <ele>742.8977002517973</ele>
      </trkpt>
      <trkpt lat="48.245534" lon="24.426805">
        <ele>743.3970976419024</ele>
      </trkpt>
      <trkpt lat="48.242419" lon="24.42908">
        <ele>748.2811921984544</ele>
      </trkpt>
      <trkpt lat="48.240047" lon="24.43041">
        <ele>752.0319379139654</ele>
      </trkpt>
      <trkpt lat="48.238246" lon="24.433715">
        <ele>759.3968434739688</ele>
      </trkpt>
      <trkpt lat="48.238084" lon="24.436098">
        <ele>765.0167450399604</ele>
      </trkpt>
      <trkpt lat="48.236741" lon="24.436827">
        <ele>766.9161506966141</ele>
      </trkpt>
      <trkpt lat="48.23657" lon="24.438845">
        <ele>770.660378965538</ele>
      </trkpt>
      <trkpt lat="48.234654" lon="24.443351">
        <ele>781.4368049595851</ele>
      </trkpt>
      <trkpt lat="48.232167" lon="24.446269">
        <ele>786.6703019640509</ele>
      </trkpt>
      <trkpt lat="48.230052" lon="24.4485">
        <ele>786.9343356938581</ele>
      </trkpt>
      <trkpt lat="48.228394" lon="24.451505">
        <ele>798.9874846178765</ele>
      </trkpt>
      <trkpt lat="48.22705" lon="24.452277">
        <ele>804.2319617812173</ele>
      </trkpt>
      <trkpt lat="48.226164" lon="24.45541">
        <ele>820.3462224821823</ele>
      </trkpt>
      <trkpt lat="48.224534" lon="24.457599">
        <ele>821.4212635163111</ele>
      </trkpt>
      <trkpt lat="48.223335" lon="24.45927">
        <ele>824.3301919763328</ele>
      </trkpt>
      <trkpt lat="48.222963" lon="24.461974">
        <ele>825.6017894437537</ele>
      </trkpt>
      <trkpt lat="48.223764" lon="24.463819">
        <ele>824.0973886915401</ele>
      </trkpt>
      <trkpt lat="48.223421" lon="24.465879">
        <ele>822.630791666219</ele>
      </trkpt>
      <trkpt lat="48.221819" lon="24.467081">
        <ele>831.9443758383538</ele>
      </trkpt>
      <trkpt lat="48.222105" lon="24.468712">
        <ele>835.826169956644</ele>
      </trkpt>
      <trkpt lat="48.219932" lon="24.4709">
        <ele>842.8944873583371</ele>
      </trkpt>
      <trkpt lat="48.21936" lon="24.472402">
        <ele>871.701201599631</ele>
      </trkpt>
      <trkpt lat="48.218074" lon="24.472574">
        <ele>856.2292437329888</ele>
      </trkpt>
      <trkpt lat="48.215872" lon="24.473561">
        <ele>862.4705912328791</ele>
      </trkpt>
      <trkpt lat="48.21387" lon="24.475449">
        <ele>861.5119884004816</ele>
      </trkpt>
      <trkpt lat="48.21204" lon="24.47811">
        <ele>869.014699874077</ele>
      </trkpt>
      <trkpt lat="48.210951" lon="24.479068">
        <ele>868.6236716265557</ele>
      </trkpt>
      <trkpt lat="48.210853" lon="24.478996">
        <ele>869.4698812639303</ele>
      </trkpt>
      <trkpt lat="48.209709" lon="24.476808">
        <ele>879.1089074130657</ele>
      </trkpt>
      <trkpt lat="48.207564" lon="24.47449">
        <ele>885.449420998461</ele>
      </trkpt>
      <trkpt lat="48.205991" lon="24.472602">
        <ele>891.7820132446941</ele>
      </trkpt>
      <trkpt lat="48.204933" lon="24.470413">
        <ele>913.6361534527908</ele>
      </trkpt>
      <trkpt lat="48.203875" lon="24.469769">
        <ele>914.1516869054442</ele>
      </trkpt>
      <trkpt lat="48.202988" lon="24.468053">
        <ele>906.9550455568852</ele>
      </trkpt>
      <trkpt lat="48.202387" lon="24.465821">
        <ele>918.2214365803807</ele>
      </trkpt>
      <trkpt lat="48.2011" lon="24.46389">
        <ele>923.2929128773976</ele>
      </trkpt>
      <trkpt lat="48.200843" lon="24.462045">
        <ele>933.8138810659809</ele>
      </trkpt>
      <trkpt lat="48.199441" lon="24.460543">
        <ele>940.0012867106404</ele>
      </trkpt>
      <trkpt lat="48.198211" lon="24.458611">
        <ele>969.1729982601055</ele>
      </trkpt>
      <trkpt lat="48.196781" lon="24.457968">
        <ele>982.3350729609556</ele>
      </trkpt>
      <trkpt lat="48.196724" lon="24.457024">
        <ele>1001.2600317020976</ele>
      </trkpt>
      <trkpt lat="48.195236" lon="24.456079">
        <ele>1025.4343165142768</ele>
      </trkpt>
      <trkpt lat="48.194435" lon="24.456852">
        <ele>1035.8235864177016</ele>
      </trkpt>
      <trkpt lat="48.192805" lon="24.454277">
        <ele>1045.5432384679775</ele>
      </trkpt>
      <trkpt lat="48.191231" lon="24.453891">
        <ele>1054.7738743924644</ele>
      </trkpt>
      <trkpt lat="48.189314" lon="24.452045">
        <ele>1070.0679382819117</ele>
      </trkpt>
      <trkpt lat="48.189085" lon="24.452346">
        <ele>1072.1198869333602</ele>
      </trkpt>
      <trkpt lat="48.188341" lon="24.451917">
        <ele>1077.2798141106032</ele>
      </trkpt>
      <trkpt lat="48.188256" lon="24.453247">
        <ele>1081.957448290043</ele>
      </trkpt>
      <trkpt lat="48.188027" lon="24.454234">
        <ele>1088.202019622236</ele>
      </trkpt>
      <trkpt lat="48.18651" lon="24.452646">
        <ele>1115.1639962431832</ele>
      </trkpt>
      <trkpt lat="48.185223" lon="24.451831">
        <ele>1147.4407040892763</ele>
      </trkpt>
      <trkpt lat="48.183535" lon="24.451917">
        <ele>1167.8588549722917</ele>
      </trkpt>
      <trkpt lat="48.181539" lon="24.450919">
        <ele>1197.8623410582074</ele>
      </trkpt>
      <trkpt lat="48.183449" lon="24.4505">
        <ele>1209.298844444682</ele>
      </trkpt>
      <trkpt lat="48.181192" lon="24.449631">
        <ele>1231.8512929985523</ele>
      </trkpt>
      <trkpt lat="48.180566" lon="24.44902">
        <ele>1241.0423217779025</ele>
      </trkpt>
      <trkpt lat="48.180981" lon="24.448795">
        <ele>1248.6080821399098</ele>
      </trkpt>
      <trkpt lat="48.182905" lon="24.449213">
        <ele>1245.7210433533185</ele>
      </trkpt>
      <trkpt lat="48.180444" lon="24.446981">
        <ele>1295.6288047501002</ele>
      </trkpt>
      <trkpt lat="48.177829" lon="24.443688">
        <ele>1318.4655159631711</ele>
      </trkpt>
      <trkpt lat="48.177336" lon="24.442819">
        <ele>1319.6800975626377</ele>
      </trkpt>
      <trkpt lat="48.17569" lon="24.441553">
        <ele>1369.5041414960392</ele>
      </trkpt>
      <trkpt lat="48.174681" lon="24.440394">
        <ele>1401.4175030168967</ele>
      </trkpt>
      <trkpt lat="48.174395" lon="24.438656">
        <ele>1408.4968001253437</ele>
      </trkpt>
      <trkpt lat="48.173923" lon="24.440501">
        <ele>1421.7148321502864</ele>
      </trkpt>
      <trkpt lat="48.173746" lon="24.440833">
        <ele>1420.9157298111822</ele>
      </trkpt>
      <trkpt lat="48.173539" lon="24.440543">
        <ele>1428.9787867139094</ele>
      </trkpt>
      <trkpt lat="48.173646" lon="24.439964">
        <ele>1432.3109472766519</ele>
      </trkpt>
      <trkpt lat="48.173374" lon="24.439642">
        <ele>1438.0085820271634</ele>
      </trkpt>
      <trkpt lat="48.173188" lon="24.440082">
        <ele>1442.0040191007429</ele>
      </trkpt>
      <trkpt lat="48.172745" lon="24.440565">
        <ele>1447.135571690509</ele>
      </trkpt>
      <trkpt lat="48.172544" lon="24.440436">
        <ele>1450.562070876106</ele>
      </trkpt>
      <trkpt lat="48.172602" lon="24.438912">
        <ele>1460.6901159591507</ele>
      </trkpt>
      <trkpt lat="48.171836" lon="24.437872">
        <ele>1470.2266484296333</ele>
      </trkpt>
      <trkpt lat="48.171514" lon="24.436971">
        <ele>1473.132402922185</ele>
      </trkpt>
      <trkpt lat="48.171403" lon="24.437005">
        <ele>1476.8110639339143</ele>
      </trkpt>
      <trkpt lat="48.171467" lon="24.439387">
        <ele>1482.6121741620025</ele>
      </trkpt>
      <trkpt lat="48.171159" lon="24.439838">
        <ele>1486.549864820474</ele>
      </trkpt>
      <trkpt lat="48.171124" lon="24.438861">
        <ele>1491.4709235879127</ele>
      </trkpt>
      <trkpt lat="48.17088" lon="24.438496">
        <ele>1498.204562260653</ele>
      </trkpt>
      <trkpt lat="48.170859" lon="24.437949">
        <ele>1497.253326396749</ele>
      </trkpt>
      <trkpt lat="48.170394" lon="24.437413">
        <ele>1504.414464222966</ele>
      </trkpt>
      <trkpt lat="48.170573" lon="24.438529">
        <ele>1507.686334319762</ele>
      </trkpt>
      <trkpt lat="48.170294" lon="24.439419">
        <ele>1511.3190118580824</ele>
      </trkpt>
      <trkpt lat="48.170151" lon="24.439473">
        <ele>1514.4698321452597</ele>
      </trkpt>
      <trkpt lat="48.170194" lon="24.438958">
        <ele>1517.0495336433546</ele>
      </trkpt>
      <trkpt lat="48.169814" lon="24.437971">
        <ele>1524.9059646594042</ele>
      </trkpt>
      <trkpt lat="48.169364" lon="24.437188">
        <ele>1530.966821796028</ele>
      </trkpt>
      <trkpt lat="48.168634" lon="24.436769">
        <ele>1539.7873087278708</ele>
      </trkpt>
      <trkpt lat="48.168276" lon="24.436469">
        <ele>1539.2495452445</ele>
      </trkpt>
      <trkpt lat="48.168182" lon="24.436641">
        <ele>1540.2833504524897</ele>
      </trkpt>
      <trkpt lat="48.168161" lon="24.436255">
        <ele>1538.032367837171</ele>
      </trkpt>
      <trkpt lat="48.168089" lon="24.435675">
        <ele>1539.4068702177162</ele>
      </trkpt>
      <trkpt lat="48.168089" lon="24.435289">
        <ele>1541.8743741906947</ele>
      </trkpt>
      <trkpt lat="48.168125" lon="24.435107">
        <ele>1543.276501069311</ele>
      </trkpt>
      <trkpt lat="48.168119" lon="24.434983">
        <ele>1544.6950024040416</ele>
      </trkpt>
      <trkpt lat="48.168143" lon="24.4349">
        <ele>1546.1518136259176</ele>
      </trkpt>
      <trkpt lat="48.168186" lon="24.434755">
        <ele>1548.6905791182662</ele>
      </trkpt>
      <trkpt lat="48.168291" lon="24.434576">
        <ele>1552.347710652859</ele>
      </trkpt>
      <trkpt lat="48.168307" lon="24.434348">
        <ele>1556.4890465102412</ele>
      </trkpt>
      <trkpt lat="48.168191" lon="24.434216">
        <ele>1558.4161112606628</ele>
      </trkpt>
      <trkpt lat="48.167975" lon="24.434044">
        <ele>1558.2293410747004</ele>
      </trkpt>
      <trkpt lat="48.167826" lon="24.433776">
        <ele>1558.0275723566497</ele>
      </trkpt>
      <trkpt lat="48.167767" lon="24.433674">
        <ele>1557.6244426355574</ele>
      </trkpt>
      <trkpt lat="48.167721" lon="24.433618">
        <ele>1557.4914011762467</ele>
      </trkpt>
      <trkpt lat="48.167526" lon="24.433237">
        <ele>1558.2160346539258</ele>
      </trkpt>
      <trkpt lat="48.167511" lon="24.433004">
        <ele>1560.7162427411834</ele>
      </trkpt>
      <trkpt lat="48.167542" lon="24.432765">
        <ele>1564.8973653330468</ele>
      </trkpt>
      <trkpt lat="48.167502" lon="24.432486">
        <ele>1570.0457082863434</ele>
      </trkpt>
      <trkpt lat="48.167583" lon="24.432274">
        <ele>1574.0366994399055</ele>
      </trkpt>
      <trkpt lat="48.167597" lon="24.431933">
        <ele>1577.6745699555613</ele>
      </trkpt>
      <trkpt lat="48.16761" lon="24.431829">
        <ele>1578.184520583676</ele>
      </trkpt>
      <trkpt lat="48.167644" lon="24.431684">
        <ele>1578.8690638644039</ele>
      </trkpt>
      <trkpt lat="48.167647" lon="24.431609">
        <ele>1579.100618764176</ele>
      </trkpt>
      <trkpt lat="48.167665" lon="24.431392">
        <ele>1579.811286489945</ele>
      </trkpt>
      <trkpt lat="48.16769" lon="24.431303">
        <ele>1580.5316881119506</ele>
      </trkpt>
      <trkpt lat="48.167719" lon="24.431054">
        <ele>1583.6493087784743</ele>
      </trkpt>
      <trkpt lat="48.167737" lon="24.430847">
        <ele>1587.003216623158</ele>
      </trkpt>
      <trkpt lat="48.167865" lon="24.430308">
        <ele>1599.4377975324585</ele>
      </trkpt>
      <trkpt lat="48.167935" lon="24.429989">
        <ele>1608.0737903419372</ele>
      </trkpt>
      <trkpt lat="48.167992" lon="24.429809">
        <ele>1612.0173676584382</ele>
      </trkpt>
      <trkpt lat="48.168053" lon="24.429629">
        <ele>1616.5797043255932</ele>
      </trkpt>
      <trkpt lat="48.168093" lon="24.42949">
        <ele>1620.4013619063082</ele>
      </trkpt>
      <trkpt lat="48.168125" lon="24.429364">
        <ele>1624.042345790578</ele>
      </trkpt>
      <trkpt lat="48.168218" lon="24.429128">
        <ele>1632.4420601011057</ele>
      </trkpt>
      <trkpt lat="48.168311" lon="24.428897">
        <ele>1640.618665935241</ele>
      </trkpt>
      <trkpt lat="48.168327" lon="24.428755">
        <ele>1644.2763119526207</ele>
      </trkpt>
      <trkpt lat="48.168332" lon="24.428599">
        <ele>1648.0159652441507</ele>
      </trkpt>
      <trkpt lat="48.168309" lon="24.428425">
        <ele>1650.9388065651897</ele>
      </trkpt>
      <trkpt lat="48.168427" lon="24.428162">
        <ele>1661.7485633945314</ele>
      </trkpt>
      <trkpt lat="48.168599" lon="24.428237">
        <ele>1668.1506012681639</ele>
      </trkpt>
      <trkpt lat="48.168567" lon="24.428025">
        <ele>1672.7630702145457</ele>
      </trkpt>
      <trkpt lat="48.16866" lon="24.427983">
        <ele>1679.1101277594369</ele>
      </trkpt>
      <trkpt lat="48.168871" lon="24.42791">
        <ele>1693.234675894656</ele>
      </trkpt>
      <trkpt lat="48.169028" lon="24.427639">
        <ele>1710.101344920283</ele>
      </trkpt>
      <trkpt lat="48.169416" lon="24.427633">
        <ele>1730.0724860638147</ele>
      </trkpt>
      <trkpt lat="48.169674" lon="24.427545">
        <ele>1743.2182343965596</ele>
      </trkpt>
      <trkpt lat="48.169438" lon="24.426666">
        <ele>1766.4266929713226</ele>
      </trkpt>
      <trkpt lat="48.169416" lon="24.426604">
        <ele>1767.6994974147196</ele>
      </trkpt>
      <trkpt lat="48.169416" lon="24.426481">
        <ele>1772.5870735889766</ele>
      </trkpt>
      <trkpt lat="48.169382" lon="24.426234">
        <ele>1780.9805382990744</ele>
      </trkpt>
      <trkpt lat="48.169381" lon="24.426212">
        <ele>1781.828902094618</ele>
      </trkpt>
      <trkpt lat="48.169407" lon="24.426049">
        <ele>1789.2558006002798</ele>
      </trkpt>
      <trkpt lat="48.169406" lon="24.425874">
        <ele>1795.8282255162526</ele>
      </trkpt>
      <trkpt lat="48.16947" lon="24.42563">
        <ele>1806.9685573435854</ele>
      </trkpt>
      <trkpt lat="48.169583" lon="24.425536">
        <ele>1815.2231281708996</ele>
      </trkpt>
      <trkpt lat="48.169858" lon="24.425542">
        <ele>1829.3507692302226</ele>
      </trkpt>
      <trkpt lat="48.170026" lon="24.425695">
        <ele>1835.7696230962174</ele>
      </trkpt>
      <trkpt lat="48.170205" lon="24.425654">
        <ele>1846.8924766922175</ele>
      </trkpt>
      <trkpt lat="48.17026" lon="24.42559">
        <ele>1851.7980293724797</ele>
      </trkpt>
      <trkpt lat="48.170355" lon="24.425681">
        <ele>1854.8910389837429</ele>
      </trkpt>
      <trkpt lat="48.170584" lon="24.425397">
        <ele>1876.202952525684</ele>
      </trkpt>
      <trkpt lat="48.170674" lon="24.425499">
        <ele>1877.6825097036228</ele>
      </trkpt>
      <trkpt lat="48.170711" lon="24.42519">
        <ele>1887.2612204089603</ele>
      </trkpt>
      <trkpt lat="48.170783" lon="24.425354">
        <ele>1887.0933234651582</ele>
      </trkpt>
      <trkpt lat="48.17091" lon="24.425201">
        <ele>1894.714495015507</ele>
      </trkpt>
      <trkpt lat="48.17094" lon="24.424946">
        <ele>1900.1884393109253</ele>
      </trkpt>
      <trkpt lat="48.171023" lon="24.424906">
        <ele>1903.4032604856066</ele>
      </trkpt>
      <trkpt lat="48.171092" lon="24.424877">
        <ele>1905.3895035669104</ele>
      </trkpt>
      <trkpt lat="48.171107" lon="24.424614">
        <ele>1912.3698055976101</ele>
      </trkpt>
      <trkpt lat="48.171159" lon="24.424517">
        <ele>1916.3486609983083</ele>
      </trkpt>
      <trkpt lat="48.171203" lon="24.424442">
        <ele>1919.7257900474517</ele>
      </trkpt>
      <trkpt lat="48.171253" lon="24.424378">
        <ele>1923.0010887138255</ele>
      </trkpt>
      <trkpt lat="48.171327" lon="24.424195">
        <ele>1930.7885600151628</ele>
      </trkpt>
      <trkpt lat="48.171375" lon="24.424072">
        <ele>1935.7709259105336</ele>
      </trkpt>
      <trkpt lat="48.17133" lon="24.423747">
        <ele>1944.2330883582827</ele>
      </trkpt>
      <trkpt lat="48.171479" lon="24.423522">
        <ele>1955.0459550818823</ele>
      </trkpt>
      <trkpt lat="48.171525" lon="24.423267">
        <ele>1963.0310268980127</ele>
      </trkpt>
      <trkpt lat="48.171432" lon="24.422554">
        <ele>1979.9474470991272</ele>
      </trkpt>
      <trkpt lat="48.171522" lon="24.42235">
        <ele>1988.6930548744276</ele>
      </trkpt>
      <trkpt lat="48.171679" lon="24.42232">
        <ele>1994.1074722907508</ele>
      </trkpt>
      <trkpt lat="48.171783" lon="24.421926">
        <ele>2005.308681477967</ele>
      </trkpt>
      <trkpt lat="48.171872" lon="24.421926">
        <ele>2006.708741576411</ele>
      </trkpt>
      <trkpt lat="48.171903" lon="24.421639">
        <ele>2011.7322367988527</ele>
      </trkpt>
      <trkpt lat="48.172014" lon="24.421518">
        <ele>2014.0472010377475</ele>
      </trkpt>
    </trkseg>
  </trk>
</gpx>
