<?xml version="1.0" encoding="UTF-8"?>
<gpx version="1.1" creator="phpGPX/1.0RC5" schemaLocation="http://www.topografix.com/GPX/1/1 http://www.topografix.com/GPX/1/1/gpx.xsd http://www.garmin.com/xmlschemas/GpxExtensions/v3 http://www.garmin.com/xmlschemas/GpxExtensionsv3.xsd http://www.garmin.com/xmlschemas/TrackPointExtension/v1 http://www.garmin.com/xmlschemas/TrackPointExtensionv1.xsd http://www.garmin.com/xmlschemas/PowerExtension/v1 http://www.garmin.com/xmlschemas/PowerExtensionv1.xsd http://www.topografix.com/GPX/gpx_style/0/2 http://www.topografix.com/GPX/gpx_style/0/2/gpx_style.xsd" xmlns="http://www.topografix.com/GPX/1/1" xmlns:xsi="http://www.w3.org/2001/XMLSchema-instance" xsi:schemaLocation="http://www.topografix.com/GPX/1/1 http://www.topografix.com/GPX/1/1/gpx.xsd http://www.garmin.com/xmlschemas/GpxExtensions/v3 http://www.garmin.com/xmlschemas/GpxExtensionsv3.xsd http://www.garmin.com/xmlschemas/TrackPointExtension/v1 http://www.garmin.com/xmlschemas/TrackPointExtensionv1.xsd http://www.garmin.com/xmlschemas/PowerExtension/v1 http://www.garmin.com/xmlschemas/PowerExtensionv1.xsd http://www.topografix.com/GPX/gpx_style/0/2 http://www.topografix.com/GPX/gpx_style/0/2/gpx_style.xsd" xmlns:gpxtpx="http://www.garmin.com/xmlschemas/TrackPointExtension/v1" xmlns:gpxx="http://www.garmin.com/xmlschemas/GpxExtensions/v3" xmlns:gpxpx="http://www.garmin.com/xmlschemas/PowerExtension/v1" xmlns:gpx_style="http://www.topografix.com/GPX/gpx_style/0/2">
  <metadata>
    <name>Петрос з с Кваси</name>
    <author>
      <name>gpx.studio</name>
      <link href="https://gpx.studio"/>
    </author>
  </metadata>
  <trk>
    <name>Петрос з с Кваси</name>
    <trkseg>
      <trkpt lat="48.163942" lon="24.281191">
        <ele>538.7345815056469</ele>
      </trkpt>
      <trkpt lat="48.164032" lon="24.281384">
        <ele>539.4775083761766</ele>
      </trkpt>
      <trkpt lat="48.164096" lon="24.281598">
        <ele>539.7802901333198</ele>
      </trkpt>
      <trkpt lat="48.164128" lon="24.281641">
        <ele>539.9055367110996</ele>
      </trkpt>
      <trkpt lat="48.164214" lon="24.281722">
        <ele>540</ele>
      </trkpt>
      <trkpt lat="48.164329" lon="24.281824">
        <ele>540.2892332525639</ele>
      </trkpt>
      <trkpt lat="48.16445" lon="24.281834">
        <ele>540.467689955607</ele>
      </trkpt>
      <trkpt lat="48.164626" lon="24.281963">
        <ele>540.4603168891488</ele>
      </trkpt>
      <trkpt lat="48.164722" lon="24.28207">
        <ele>540.5</ele>
      </trkpt>
      <trkpt lat="48.164801" lon="24.282199">
        <ele>540.5</ele>
      </trkpt>
      <trkpt lat="48.164887" lon="24.28236">
        <ele>540.2335017570877</ele>
      </trkpt>
      <trkpt lat="48.164958" lon="24.282419">
        <ele>540.171625955496</ele>
      </trkpt>
      <trkpt lat="48.16503" lon="24.282843">
        <ele>542.5377981651321</ele>
      </trkpt>
      <trkpt lat="48.165073" lon="24.282982">
        <ele>545.0754605843222</ele>
      </trkpt>
      <trkpt lat="48.165116" lon="24.283047">
        <ele>546.8073065769314</ele>
      </trkpt>
      <trkpt lat="48.165166" lon="24.28309">
        <ele>548.7113847438848</ele>
      </trkpt>
      <trkpt lat="48.165288" lon="24.283133">
        <ele>551.5483241167385</ele>
      </trkpt>
      <trkpt lat="48.165406" lon="24.283213">
        <ele>554.9091033767909</ele>
      </trkpt>
      <trkpt lat="48.165445" lon="24.283277">
        <ele>557.0444544350623</ele>
      </trkpt>
      <trkpt lat="48.165445" lon="24.283395">
        <ele>560.3245950276342</ele>
      </trkpt>
      <trkpt lat="48.165402" lon="24.28353">
        <ele>563.2893044005368</ele>
      </trkpt>
      <trkpt lat="48.165338" lon="24.283712">
        <ele>567.2380945021287</ele>
      </trkpt>
      <trkpt lat="48.165327" lon="24.28391">
        <ele>570.2549144916206</ele>
      </trkpt>
      <trkpt lat="48.165302" lon="24.284045">
        <ele>572.0530169240433</ele>
      </trkpt>
      <trkpt lat="48.165327" lon="24.284216">
        <ele>573.9705300063576</ele>
      </trkpt>
      <trkpt lat="48.16537" lon="24.284581">
        <ele>576.4455414636004</ele>
      </trkpt>
      <trkpt lat="48.165363" lon="24.284742">
        <ele>577.3757077334449</ele>
      </trkpt>
      <trkpt lat="48.165352" lon="24.284844">
        <ele>578.0142040107537</ele>
      </trkpt>
      <trkpt lat="48.165316" lon="24.284989">
        <ele>578.6384655953705</ele>
      </trkpt>
      <trkpt lat="48.16527" lon="24.285064">
        <ele>578.7056885274087</ele>
      </trkpt>
      <trkpt lat="48.165119" lon="24.285203">
        <ele>578.656938170127</ele>
      </trkpt>
      <trkpt lat="48.164847" lon="24.285439">
        <ele>579.3761933572823</ele>
      </trkpt>
      <trkpt lat="48.164783" lon="24.285568">
        <ele>579.843753244495</ele>
      </trkpt>
      <trkpt lat="48.164819" lon="24.285804">
        <ele>581.0623061333317</ele>
      </trkpt>
      <trkpt lat="48.16479" lon="24.28604">
        <ele>582.2185528888367</ele>
      </trkpt>
      <trkpt lat="48.16459" lon="24.28648">
        <ele>584.5309117650886</ele>
      </trkpt>
      <trkpt lat="48.164332" lon="24.287145">
        <ele>590.0167694957244</ele>
      </trkpt>
      <trkpt lat="48.164347" lon="24.287274">
        <ele>590.629549468169</ele>
      </trkpt>
      <trkpt lat="48.164296" lon="24.287446">
        <ele>590.6851113892626</ele>
      </trkpt>
      <trkpt lat="48.164182" lon="24.287692">
        <ele>590.14310447188</ele>
      </trkpt>
      <trkpt lat="48.16411" lon="24.288003">
        <ele>592.1820151398424</ele>
      </trkpt>
      <trkpt lat="48.164103" lon="24.288518">
        <ele>595.5144566529517</ele>
      </trkpt>
      <trkpt lat="48.16416" lon="24.288862">
        <ele>600.0281302826479</ele>
      </trkpt>
      <trkpt lat="48.164082" lon="24.289044">
        <ele>601.8302941017905</ele>
      </trkpt>
      <trkpt lat="48.163896" lon="24.289731">
        <ele>611.0106611241354</ele>
      </trkpt>
      <trkpt lat="48.163917" lon="24.289988">
        <ele>615.5247103439178</ele>
      </trkpt>
      <trkpt lat="48.163946" lon="24.290257">
        <ele>618.631840445334</ele>
      </trkpt>
      <trkpt lat="48.16396" lon="24.290557">
        <ele>620.4126369719864</ele>
      </trkpt>
      <trkpt lat="48.164067" lon="24.290782">
        <ele>623.068244918338</ele>
      </trkpt>
      <trkpt lat="48.16416" lon="24.290922">
        <ele>624.7136442384217</ele>
      </trkpt>
      <trkpt lat="48.164282" lon="24.291136">
        <ele>626.9516693520225</ele>
      </trkpt>
      <trkpt lat="48.164497" lon="24.291276">
        <ele>631.2864716920885</ele>
      </trkpt>
      <trkpt lat="48.164676" lon="24.291426">
        <ele>635.6317792282207</ele>
      </trkpt>
      <trkpt lat="48.164919" lon="24.291501">
        <ele>641.2809405946173</ele>
      </trkpt>
      <trkpt lat="48.165205" lon="24.291683">
        <ele>648.2411267629359</ele>
      </trkpt>
      <trkpt lat="48.165406" lon="24.291662">
        <ele>654.171888216748</ele>
      </trkpt>
      <trkpt lat="48.16557" lon="24.291673">
        <ele>660.7457470329246</ele>
      </trkpt>
      <trkpt lat="48.165821" lon="24.291651">
        <ele>668.9040380466743</ele>
      </trkpt>
      <trkpt lat="48.165971" lon="24.291576">
        <ele>672.0617852995172</ele>
      </trkpt>
      <trkpt lat="48.166207" lon="24.29163">
        <ele>678.626238424331</ele>
      </trkpt>
      <trkpt lat="48.166372" lon="24.291544">
        <ele>680.759570926328</ele>
      </trkpt>
      <trkpt lat="48.166508" lon="24.291437">
        <ele>684.163945021572</ele>
      </trkpt>
      <trkpt lat="48.166615" lon="24.291104">
        <ele>689.1362362832925</ele>
      </trkpt>
      <trkpt lat="48.166651" lon="24.290793">
        <ele>694.7357176638325</ele>
      </trkpt>
      <trkpt lat="48.166751" lon="24.290407">
        <ele>705.0762004226779</ele>
      </trkpt>
      <trkpt lat="48.166873" lon="24.290214">
        <ele>711.593715240495</ele>
      </trkpt>
      <trkpt lat="48.167009" lon="24.289795">
        <ele>715.266277416018</ele>
      </trkpt>
      <trkpt lat="48.167116" lon="24.289623">
        <ele>716.5013001349289</ele>
      </trkpt>
      <trkpt lat="48.167323" lon="24.289613">
        <ele>718.4110059233192</ele>
      </trkpt>
      <trkpt lat="48.16756" lon="24.289806">
        <ele>722.1079696630259</ele>
      </trkpt>
      <trkpt lat="48.167738" lon="24.290031">
        <ele>726.6499745303299</ele>
      </trkpt>
      <trkpt lat="48.167989" lon="24.290396">
        <ele>731.625843959453</ele>
      </trkpt>
      <trkpt lat="48.168239" lon="24.2906">
        <ele>732.9044906012714</ele>
      </trkpt>
      <trkpt lat="48.168475" lon="24.290729">
        <ele>733.2200261087036</ele>
      </trkpt>
      <trkpt lat="48.168676" lon="24.291147">
        <ele>733.6847532878427</ele>
      </trkpt>
      <trkpt lat="48.168976" lon="24.291973">
        <ele>739.493992397645</ele>
      </trkpt>
      <trkpt lat="48.16922" lon="24.292595">
        <ele>752.054747115501</ele>
      </trkpt>
      <trkpt lat="48.169205" lon="24.292928">
        <ele>759.1867009604383</ele>
      </trkpt>
      <trkpt lat="48.169169" lon="24.293303">
        <ele>764.9083779264746</ele>
      </trkpt>
      <trkpt lat="48.169298" lon="24.293582">
        <ele>774.8694224511593</ele>
      </trkpt>
      <trkpt lat="48.169284" lon="24.293883">
        <ele>776.6854154271468</ele>
      </trkpt>
      <trkpt lat="48.169305" lon="24.294226">
        <ele>779.9109239622485</ele>
      </trkpt>
      <trkpt lat="48.169341" lon="24.294655">
        <ele>783.3308230889961</ele>
      </trkpt>
      <trkpt lat="48.169406" lon="24.294999">
        <ele>785.8855813566241</ele>
      </trkpt>
      <trkpt lat="48.169506" lon="24.295331">
        <ele>784.8582399504608</ele>
      </trkpt>
      <trkpt lat="48.169656" lon="24.295557">
        <ele>783.6797565399902</ele>
      </trkpt>
      <trkpt lat="48.169749" lon="24.295911">
        <ele>783.528248990071</ele>
      </trkpt>
      <trkpt lat="48.169821" lon="24.29634">
        <ele>787.8570295439567</ele>
      </trkpt>
      <trkpt lat="48.169806" lon="24.296715">
        <ele>792.6104873334407</ele>
      </trkpt>
      <trkpt lat="48.169756" lon="24.29722">
        <ele>799.6730090071516</ele>
      </trkpt>
      <trkpt lat="48.169735" lon="24.297799">
        <ele>810.7803073160726</ele>
      </trkpt>
      <trkpt lat="48.169771" lon="24.298346">
        <ele>815.2538093553159</ele>
      </trkpt>
      <trkpt lat="48.169892" lon="24.298646">
        <ele>816.9966765469871</ele>
      </trkpt>
      <trkpt lat="48.170085" lon="24.299011">
        <ele>818.9025236276535</ele>
      </trkpt>
      <trkpt lat="48.170221" lon="24.299344">
        <ele>821.2782231915919</ele>
      </trkpt>
      <trkpt lat="48.170336" lon="24.299698">
        <ele>827.3822487899115</ele>
      </trkpt>
      <trkpt lat="48.170436" lon="24.30047">
        <ele>840.744925965797</ele>
      </trkpt>
      <trkpt lat="48.170479" lon="24.301125">
        <ele>845.4764383926254</ele>
      </trkpt>
      <trkpt lat="48.170508" lon="24.301661">
        <ele>851.1141409881773</ele>
      </trkpt>
      <trkpt lat="48.170372" lon="24.302047">
        <ele>854.7783231184585</ele>
      </trkpt>
      <trkpt lat="48.170329" lon="24.302466">
        <ele>861.5482982308788</ele>
      </trkpt>
      <trkpt lat="48.170257" lon="24.302906">
        <ele>864.1344909456359</ele>
      </trkpt>
      <trkpt lat="48.170329" lon="24.303324">
        <ele>868.9800566018677</ele>
      </trkpt>
      <trkpt lat="48.17025" lon="24.30385">
        <ele>874.8144133656751</ele>
      </trkpt>
      <trkpt lat="48.170236" lon="24.304086">
        <ele>877.7790163404711</ele>
      </trkpt>
      <trkpt lat="48.170271" lon="24.304472">
        <ele>880.0967967187</ele>
      </trkpt>
      <trkpt lat="48.170372" lon="24.304944">
        <ele>891.8154598695021</ele>
      </trkpt>
      <trkpt lat="48.170457" lon="24.305202">
        <ele>897.6218347335898</ele>
      </trkpt>
      <trkpt lat="48.170386" lon="24.305449">
        <ele>900.2198701599335</ele>
      </trkpt>
      <trkpt lat="48.169957" lon="24.306264">
        <ele>911.2087097952285</ele>
      </trkpt>
      <trkpt lat="48.169864" lon="24.306403">
        <ele>915.5846201525419</ele>
      </trkpt>
      <trkpt lat="48.169885" lon="24.306511">
        <ele>916.2531936991145</ele>
      </trkpt>
      <trkpt lat="48.169978" lon="24.306908">
        <ele>916.0062855160357</ele>
      </trkpt>
      <trkpt lat="48.170021" lon="24.30724">
        <ele>924.1500653996482</ele>
      </trkpt>
      <trkpt lat="48.170014" lon="24.307498">
        <ele>931.1851973742084</ele>
      </trkpt>
      <trkpt lat="48.169992" lon="24.307626">
        <ele>934.6037560339565</ele>
      </trkpt>
      <trkpt lat="48.170007" lon="24.307873">
        <ele>942.3783922371902</ele>
      </trkpt>
      <trkpt lat="48.170057" lon="24.308056">
        <ele>947.6277245753432</ele>
      </trkpt>
      <trkpt lat="48.170157" lon="24.308184">
        <ele>949.5227205611023</ele>
      </trkpt>
      <trkpt lat="48.170372" lon="24.308217">
        <ele>948.7453336301649</ele>
      </trkpt>
      <trkpt lat="48.170593" lon="24.308206">
        <ele>953.2044391520435</ele>
      </trkpt>
      <trkpt lat="48.170787" lon="24.308163">
        <ele>956.9174943036481</ele>
      </trkpt>
      <trkpt lat="48.171037" lon="24.308163">
        <ele>956.7893257595872</ele>
      </trkpt>
      <trkpt lat="48.171202" lon="24.308281">
        <ele>956.845831582963</ele>
      </trkpt>
      <trkpt lat="48.171481" lon="24.308335">
        <ele>960.413621729007</ele>
      </trkpt>
      <trkpt lat="48.171982" lon="24.308324">
        <ele>969.5708752956975</ele>
      </trkpt>
      <trkpt lat="48.172432" lon="24.308474">
        <ele>976.3080434668809</ele>
      </trkpt>
      <trkpt lat="48.172776" lon="24.308614">
        <ele>987.097502666686</ele>
      </trkpt>
      <trkpt lat="48.173026" lon="24.308689">
        <ele>1002.4330338971921</ele>
      </trkpt>
      <trkpt lat="48.173269" lon="24.308732">
        <ele>1011.8078673350392</ele>
      </trkpt>
      <trkpt lat="48.173398" lon="24.308699">
        <ele>1014.3366581680019</ele>
      </trkpt>
      <trkpt lat="48.173591" lon="24.308496">
        <ele>1017.8158592255343</ele>
      </trkpt>
      <trkpt lat="48.173749" lon="24.308399">
        <ele>1019.1367313703536</ele>
      </trkpt>
      <trkpt lat="48.17387" lon="24.308281">
        <ele>1018.5003214222379</ele>
      </trkpt>
      <trkpt lat="48.174042" lon="24.308292">
        <ele>1017.8148710448295</ele>
      </trkpt>
      <trkpt lat="48.174092" lon="24.308356">
        <ele>1017.9693112816894</ele>
      </trkpt>
      <trkpt lat="48.174099" lon="24.308431">
        <ele>1018.3756437812117</ele>
      </trkpt>
      <trkpt lat="48.174178" lon="24.308817">
        <ele>1021.6841215998866</ele>
      </trkpt>
      <trkpt lat="48.174386" lon="24.309998">
        <ele>1035.2565405585506</ele>
      </trkpt>
      <trkpt lat="48.174436" lon="24.310352">
        <ele>1039.6018810374028</ele>
      </trkpt>
      <trkpt lat="48.174464" lon="24.31077">
        <ele>1044.795872713351</ele>
      </trkpt>
      <trkpt lat="48.1745" lon="24.31107">
        <ele>1048.806655269949</ele>
      </trkpt>
      <trkpt lat="48.174393" lon="24.311703">
        <ele>1054.7318103691841</ele>
      </trkpt>
      <trkpt lat="48.174214" lon="24.312218">
        <ele>1061.306589048705</ele>
      </trkpt>
      <trkpt lat="48.174042" lon="24.31269">
        <ele>1069.5538240002934</ele>
      </trkpt>
      <trkpt lat="48.173985" lon="24.312851">
        <ele>1072.6787534219911</ele>
      </trkpt>
      <trkpt lat="48.174021" lon="24.312991">
        <ele>1075.8213695828836</ele>
      </trkpt>
      <trkpt lat="48.174099" lon="24.313023">
        <ele>1076.8091888530312</ele>
      </trkpt>
      <trkpt lat="48.174228" lon="24.313066">
        <ele>1078.5070236424463</ele>
      </trkpt>
      <trkpt lat="48.174393" lon="24.312916">
        <ele>1076.352116987848</ele>
      </trkpt>
      <trkpt lat="48.174393" lon="24.313034">
        <ele>1078.9074503802885</ele>
      </trkpt>
      <trkpt lat="48.174464" lon="24.313248">
        <ele>1083.7791865261631</ele>
      </trkpt>
      <trkpt lat="48.174414" lon="24.313409">
        <ele>1086.7130292188165</ele>
      </trkpt>
      <trkpt lat="48.17435" lon="24.313688">
        <ele>1093.4586264420009</ele>
      </trkpt>
      <trkpt lat="48.174135" lon="24.314117">
        <ele>1110.1730622594466</ele>
      </trkpt>
      <trkpt lat="48.173885" lon="24.31416">
        <ele>1115.3566737358924</ele>
      </trkpt>
      <trkpt lat="48.173405" lon="24.313999">
        <ele>1120.3915257209612</ele>
      </trkpt>
      <trkpt lat="48.173076" lon="24.313785">
        <ele>1124.9523149378676</ele>
      </trkpt>
      <trkpt lat="48.172583" lon="24.313785">
        <ele>1142.4084066108337</ele>
      </trkpt>
      <trkpt lat="48.172067" lon="24.314107">
        <ele>1145.9201169600756</ele>
      </trkpt>
      <trkpt lat="48.17176" lon="24.314418">
        <ele>1150.1547143395824</ele>
      </trkpt>
      <trkpt lat="48.171652" lon="24.315019">
        <ele>1150.728312568705</ele>
      </trkpt>
      <trkpt lat="48.171595" lon="24.315469">
        <ele>1149.125212790561</ele>
      </trkpt>
      <trkpt lat="48.17166" lon="24.31577">
        <ele>1148.8782063443214</ele>
      </trkpt>
      <trkpt lat="48.171688" lon="24.316102">
        <ele>1150.0402572136716</ele>
      </trkpt>
      <trkpt lat="48.171445" lon="24.316639">
        <ele>1155.1595917129127</ele>
      </trkpt>
      <trkpt lat="48.171187" lon="24.317561">
        <ele>1155.4373242078295</ele>
      </trkpt>
      <trkpt lat="48.170958" lon="24.31843">
        <ele>1161.167126446736</ele>
      </trkpt>
      <trkpt lat="48.170744" lon="24.31886">
        <ele>1166.0317288264605</ele>
      </trkpt>
      <trkpt lat="48.170579" lon="24.319235">
        <ele>1167.5572036795202</ele>
      </trkpt>
      <trkpt lat="48.17035" lon="24.319718">
        <ele>1173.4228233382873</ele>
      </trkpt>
      <trkpt lat="48.170093" lon="24.320083">
        <ele>1175.7763861516553</ele>
      </trkpt>
      <trkpt lat="48.169806" lon="24.320362">
        <ele>1175.8526322701887</ele>
      </trkpt>
      <trkpt lat="48.169456" lon="24.320469">
        <ele>1177.7236880356797</ele>
      </trkpt>
      <trkpt lat="48.167549" lon="24.320667">
        <ele>1188.622217751287</ele>
      </trkpt>
      <trkpt lat="48.167259" lon="24.320818">
        <ele>1187.1183493365534</ele>
      </trkpt>
      <trkpt lat="48.167026" lon="24.32092">
        <ele>1184.4215360547532</ele>
      </trkpt>
      <trkpt lat="48.166765" lon="24.321075">
        <ele>1183.5093595951678</ele>
      </trkpt>
      <trkpt lat="48.16659" lon="24.321236">
        <ele>1183.2847813665974</ele>
      </trkpt>
      <trkpt lat="48.166472" lon="24.32137">
        <ele>1182.4088850452015</ele>
      </trkpt>
      <trkpt lat="48.166379" lon="24.321547">
        <ele>1181.7088073299592</ele>
      </trkpt>
      <trkpt lat="48.166382" lon="24.321907">
        <ele>1183.0663266089978</ele>
      </trkpt>
      <trkpt lat="48.166425" lon="24.322132">
        <ele>1184.380818607402</ele>
      </trkpt>
      <trkpt lat="48.166432" lon="24.322261">
        <ele>1184.6083494639024</ele>
      </trkpt>
      <trkpt lat="48.166422" lon="24.322416">
        <ele>1184.6920286956592</ele>
      </trkpt>
      <trkpt lat="48.166447" lon="24.322523">
        <ele>1185.9456623747085</ele>
      </trkpt>
      <trkpt lat="48.166483" lon="24.322776">
        <ele>1187.6649688788457</ele>
      </trkpt>
      <trkpt lat="48.166526" lon="24.322974">
        <ele>1188.9928254425758</ele>
      </trkpt>
      <trkpt lat="48.166572" lon="24.323108">
        <ele>1189.5629446126986</ele>
      </trkpt>
      <trkpt lat="48.166629" lon="24.32321">
        <ele>1189.7636974594789</ele>
      </trkpt>
      <trkpt lat="48.167159" lon="24.323757">
        <ele>1190.0557972969837</ele>
      </trkpt>
      <trkpt lat="48.167273" lon="24.323897">
        <ele>1190.8731942676309</ele>
      </trkpt>
      <trkpt lat="48.167352" lon="24.324106">
        <ele>1191.6625262805048</ele>
      </trkpt>
      <trkpt lat="48.167413" lon="24.324299">
        <ele>1193.9163787986618</ele>
      </trkpt>
      <trkpt lat="48.167427" lon="24.324471">
        <ele>1194.3503430147878</ele>
      </trkpt>
      <trkpt lat="48.167388" lon="24.324766">
        <ele>1192.3952572625237</ele>
      </trkpt>
      <trkpt lat="48.167388" lon="24.325007">
        <ele>1192.6966467780294</ele>
      </trkpt>
      <trkpt lat="48.16737" lon="24.325168">
        <ele>1191.989165867446</ele>
      </trkpt>
      <trkpt lat="48.167406" lon="24.325318">
        <ele>1193.3378702185082</ele>
      </trkpt>
      <trkpt lat="48.167656" lon="24.326386">
        <ele>1206.6080862822455</ele>
      </trkpt>
      <trkpt lat="48.167645" lon="24.326466">
        <ele>1206.375328739525</ele>
      </trkpt>
      <trkpt lat="48.167606" lon="24.326826">
        <ele>1205.546167829074</ele>
      </trkpt>
      <trkpt lat="48.167606" lon="24.327341">
        <ele>1206.6072856978885</ele>
      </trkpt>
      <trkpt lat="48.167595" lon="24.32748">
        <ele>1207.624984768902</ele>
      </trkpt>
      <trkpt lat="48.16756" lon="24.327577">
        <ele>1208.2932906549875</ele>
      </trkpt>
      <trkpt lat="48.167356" lon="24.327673">
        <ele>1207.4187618626588</ele>
      </trkpt>
      <trkpt lat="48.167266" lon="24.327791">
        <ele>1210.1677578110584</ele>
      </trkpt>
      <trkpt lat="48.167123" lon="24.327995">
        <ele>1212.6058078376234</ele>
      </trkpt>
      <trkpt lat="48.166955" lon="24.328333">
        <ele>1213.22308758914</ele>
      </trkpt>
      <trkpt lat="48.166747" lon="24.328853">
        <ele>1215.0116974399677</ele>
      </trkpt>
      <trkpt lat="48.166661" lon="24.329267">
        <ele>1214.0388122009708</ele>
      </trkpt>
      <trkpt lat="48.166644" lon="24.329556">
        <ele>1215.8547086564836</ele>
      </trkpt>
      <trkpt lat="48.166665" lon="24.329803">
        <ele>1218.1547506818315</ele>
      </trkpt>
      <trkpt lat="48.166644" lon="24.330087">
        <ele>1216.921256371961</ele>
      </trkpt>
      <trkpt lat="48.166611" lon="24.330495">
        <ele>1213.8309652852117</ele>
      </trkpt>
      <trkpt lat="48.166558" lon="24.330677">
        <ele>1212.54116638618</ele>
      </trkpt>
      <trkpt lat="48.166397" lon="24.330989">
        <ele>1212.5189025601137</ele>
      </trkpt>
      <trkpt lat="48.166168" lon="24.331278">
        <ele>1213.370225066319</ele>
      </trkpt>
      <trkpt lat="48.165985" lon="24.331482">
        <ele>1213.4310945075704</ele>
      </trkpt>
      <trkpt lat="48.165774" lon="24.331638">
        <ele>1213.3189125547651</ele>
      </trkpt>
      <trkpt lat="48.16557" lon="24.331777">
        <ele>1212.931579342694</ele>
      </trkpt>
      <trkpt lat="48.165381" lon="24.331917">
        <ele>1212.4551397592295</ele>
      </trkpt>
      <trkpt lat="48.164987" lon="24.332314">
        <ele>1213.6182105934192</ele>
      </trkpt>
      <trkpt lat="48.164418" lon="24.332737">
        <ele>1214.7891841514502</ele>
      </trkpt>
      <trkpt lat="48.164125" lon="24.332936">
        <ele>1215.3439808265143</ele>
      </trkpt>
      <trkpt lat="48.163935" lon="24.333065">
        <ele>1216.241954015626</ele>
      </trkpt>
      <trkpt lat="48.163795" lon="24.333129">
        <ele>1217.2539433641286</ele>
      </trkpt>
      <trkpt lat="48.16366" lon="24.333086">
        <ele>1217.6165596724022</ele>
      </trkpt>
      <trkpt lat="48.163624" lon="24.333">
        <ele>1216.9921211742803</ele>
      </trkpt>
      <trkpt lat="48.163237" lon="24.332753">
        <ele>1219.2414408041104</ele>
      </trkpt>
      <trkpt lat="48.16298" lon="24.332517">
        <ele>1218.0170290846145</ele>
      </trkpt>
      <trkpt lat="48.162643" lon="24.332346">
        <ele>1216.7564288005233</ele>
      </trkpt>
      <trkpt lat="48.162371" lon="24.332346">
        <ele>1215.053267724588</ele>
      </trkpt>
      <trkpt lat="48.161906" lon="24.332753">
        <ele>1212.703097097692</ele>
      </trkpt>
      <trkpt lat="48.16167" lon="24.333097">
        <ele>1213.1894419410305</ele>
      </trkpt>
      <trkpt lat="48.161498" lon="24.333311">
        <ele>1214.1120796713512</ele>
      </trkpt>
      <trkpt lat="48.161076" lon="24.333612">
        <ele>1213.7549871201627</ele>
      </trkpt>
      <trkpt lat="48.160697" lon="24.333923">
        <ele>1214.663836061256</ele>
      </trkpt>
      <trkpt lat="48.160425" lon="24.334202">
        <ele>1213.695563839988</ele>
      </trkpt>
      <trkpt lat="48.160196" lon="24.334481">
        <ele>1212.3535292763263</ele>
      </trkpt>
      <trkpt lat="48.160074" lon="24.334824">
        <ele>1215.2753967046733</ele>
      </trkpt>
      <trkpt lat="48.159817" lon="24.335135">
        <ele>1214.9997671499686</ele>
      </trkpt>
      <trkpt lat="48.159609" lon="24.335318">
        <ele>1214.2424772515199</ele>
      </trkpt>
      <trkpt lat="48.15928" lon="24.335532">
        <ele>1213.4681356594665</ele>
      </trkpt>
      <trkpt lat="48.158965" lon="24.335747">
        <ele>1211.4447594798405</ele>
      </trkpt>
      <trkpt lat="48.158757" lon="24.33609">
        <ele>1209.4870077539092</ele>
      </trkpt>
      <trkpt lat="48.158757" lon="24.336444">
        <ele>1212.0510484203696</ele>
      </trkpt>
      <trkpt lat="48.158743" lon="24.336787">
        <ele>1213.6524914794718</ele>
      </trkpt>
      <trkpt lat="48.158729" lon="24.337023">
        <ele>1215.3404938217757</ele>
      </trkpt>
      <trkpt lat="48.158357" lon="24.337699">
        <ele>1215.692001309013</ele>
      </trkpt>
      <trkpt lat="48.15812" lon="24.338161">
        <ele>1218.8436226640479</ele>
      </trkpt>
      <trkpt lat="48.157999" lon="24.338375">
        <ele>1220.998550423712</ele>
      </trkpt>
      <trkpt lat="48.157827" lon="24.338633">
        <ele>1224.2232286136132</ele>
      </trkpt>
      <trkpt lat="48.157898" lon="24.338568">
        <ele>1223.5179676074767</ele>
      </trkpt>
      <trkpt lat="48.15807" lon="24.338515">
        <ele>1224.4383331439456</ele>
      </trkpt>
      <trkpt lat="48.158535" lon="24.338236">
        <ele>1227.3400830861647</ele>
      </trkpt>
      <trkpt lat="48.158693" lon="24.338053">
        <ele>1227.0272395597422</ele>
      </trkpt>
      <trkpt lat="48.158858" lon="24.337893">
        <ele>1226.8824133139872</ele>
      </trkpt>
      <trkpt lat="48.158922" lon="24.337968">
        <ele>1227.2337271864617</ele>
      </trkpt>
      <trkpt lat="48.158929" lon="24.338064">
        <ele>1227.8740424404104</ele>
      </trkpt>
      <trkpt lat="48.158836" lon="24.338279">
        <ele>1229.8688324735222</ele>
      </trkpt>
      <trkpt lat="48.158571" lon="24.338772">
        <ele>1232.0791363697692</ele>
      </trkpt>
      <trkpt lat="48.158314" lon="24.339116">
        <ele>1235.3361136924887</ele>
      </trkpt>
      <trkpt lat="48.158056" lon="24.33933">
        <ele>1238.238974511858</ele>
      </trkpt>
      <trkpt lat="48.157927" lon="24.339695">
        <ele>1245.3766048188265</ele>
      </trkpt>
      <trkpt lat="48.157712" lon="24.340049">
        <ele>1253.8854912050363</ele>
      </trkpt>
      <trkpt lat="48.157576" lon="24.340221">
        <ele>1258.7387304613167</ele>
      </trkpt>
      <trkpt lat="48.157326" lon="24.340392">
        <ele>1265.604199802743</ele>
      </trkpt>
      <trkpt lat="48.15714" lon="24.340532">
        <ele>1270.3132585426793</ele>
      </trkpt>
      <trkpt lat="48.157011" lon="24.340725">
        <ele>1275.000762471231</ele>
      </trkpt>
      <trkpt lat="48.156918" lon="24.340886">
        <ele>1278.9659133655105</ele>
      </trkpt>
      <trkpt lat="48.156968" lon="24.341015">
        <ele>1279.8460427279101</ele>
      </trkpt>
      <trkpt lat="48.156975" lon="24.341079">
        <ele>1280.539946127298</ele>
      </trkpt>
      <trkpt lat="48.156911" lon="24.341465">
        <ele>1286.4171999995233</ele>
      </trkpt>
      <trkpt lat="48.156832" lon="24.342023">
        <ele>1293.7529530565953</ele>
      </trkpt>
      <trkpt lat="48.156796" lon="24.34256">
        <ele>1297.4548450505827</ele>
      </trkpt>
      <trkpt lat="48.156846" lon="24.342989">
        <ele>1299.0232666891534</ele>
      </trkpt>
      <trkpt lat="48.156882" lon="24.343547">
        <ele>1304.0146897819359</ele>
      </trkpt>
      <trkpt lat="48.156896" lon="24.344062">
        <ele>1308.9951064527281</ele>
      </trkpt>
      <trkpt lat="48.156861" lon="24.344448">
        <ele>1313.763234088663</ele>
      </trkpt>
      <trkpt lat="48.156818" lon="24.344759">
        <ele>1314.5958777631145</ele>
      </trkpt>
      <trkpt lat="48.156603" lon="24.345167">
        <ele>1319.7966432946278</ele>
      </trkpt>
      <trkpt lat="48.156252" lon="24.345939">
        <ele>1322.0194780697348</ele>
      </trkpt>
      <trkpt lat="48.155723" lon="24.347312">
        <ele>1332.702909196737</ele>
      </trkpt>
      <trkpt lat="48.155701" lon="24.347645">
        <ele>1332.9332611329173</ele>
      </trkpt>
      <trkpt lat="48.155622" lon="24.347892">
        <ele>1337.4657922062324</ele>
      </trkpt>
      <trkpt lat="48.155665" lon="24.348257">
        <ele>1337.3392739057308</ele>
      </trkpt>
      <trkpt lat="48.155744" lon="24.348643">
        <ele>1340.4603063937484</ele>
      </trkpt>
      <trkpt lat="48.155801" lon="24.348847">
        <ele>1343.8659308361214</ele>
      </trkpt>
      <trkpt lat="48.155866" lon="24.348997">
        <ele>1346.4995819178876</ele>
      </trkpt>
      <trkpt lat="48.155937" lon="24.348986">
        <ele>1343.9220603055503</ele>
      </trkpt>
      <trkpt lat="48.156052" lon="24.348975">
        <ele>1339.8393092936308</ele>
      </trkpt>
      <trkpt lat="48.156174" lon="24.349093">
        <ele>1339.9971761399727</ele>
      </trkpt>
      <trkpt lat="48.156503" lon="24.349716">
        <ele>1349.40588415222</ele>
      </trkpt>
      <trkpt lat="48.156753" lon="24.350413">
        <ele>1348.1433770893489</ele>
      </trkpt>
      <trkpt lat="48.156646" lon="24.352344">
        <ele>1361.2256055241392</ele>
      </trkpt>
      <trkpt lat="48.156553" lon="24.35272">
        <ele>1358.5062724977806</ele>
      </trkpt>
      <trkpt lat="48.155945" lon="24.35331">
        <ele>1366.1975995635148</ele>
      </trkpt>
      <trkpt lat="48.155816" lon="24.353524">
        <ele>1368.0266389660537</ele>
      </trkpt>
      <trkpt lat="48.155716" lon="24.353707">
        <ele>1370.9458692046464</ele>
      </trkpt>
      <trkpt lat="48.15563" lon="24.354072">
        <ele>1373.326101781684</ele>
      </trkpt>
      <trkpt lat="48.155572" lon="24.354436">
        <ele>1374.7238032593852</ele>
      </trkpt>
      <trkpt lat="48.155451" lon="24.35464">
        <ele>1380.57927968062</ele>
      </trkpt>
      <trkpt lat="48.155537" lon="24.354984">
        <ele>1383.8722779396921</ele>
      </trkpt>
      <trkpt lat="48.155665" lon="24.355273">
        <ele>1386.8873570059463</ele>
      </trkpt>
      <trkpt lat="48.155823" lon="24.35552">
        <ele>1387.6873913218162</ele>
      </trkpt>
      <trkpt lat="48.156059" lon="24.355917">
        <ele>1389.1762880559097</ele>
      </trkpt>
      <trkpt lat="48.156217" lon="24.356368">
        <ele>1392.5193212036393</ele>
      </trkpt>
      <trkpt lat="48.156317" lon="24.356582">
        <ele>1391.9841711118354</ele>
      </trkpt>
      <trkpt lat="48.156424" lon="24.356936">
        <ele>1391.3162762030843</ele>
      </trkpt>
      <trkpt lat="48.15641" lon="24.35728">
        <ele>1393.6287961335433</ele>
      </trkpt>
      <trkpt lat="48.156345" lon="24.357644">
        <ele>1395.2223507484612</ele>
      </trkpt>
      <trkpt lat="48.156281" lon="24.35788">
        <ele>1394.4927647926897</ele>
      </trkpt>
      <trkpt lat="48.156066" lon="24.358063">
        <ele>1397.2498070771244</ele>
      </trkpt>
      <trkpt lat="48.155637" lon="24.358256">
        <ele>1403.0988830220474</ele>
      </trkpt>
      <trkpt lat="48.155164" lon="24.358588">
        <ele>1406.7457016806584</ele>
      </trkpt>
      <trkpt lat="48.154878" lon="24.358921">
        <ele>1412.3813921062974</ele>
      </trkpt>
      <trkpt lat="48.154857" lon="24.359286">
        <ele>1411.6049558356797</ele>
      </trkpt>
      <trkpt lat="48.154778" lon="24.359543">
        <ele>1411.5028596917982</ele>
      </trkpt>
      <trkpt lat="48.154384" lon="24.359983">
        <ele>1418.983484772267</ele>
      </trkpt>
      <trkpt lat="48.15417" lon="24.360273">
        <ele>1427.118085821967</ele>
      </trkpt>
      <trkpt lat="48.154119" lon="24.360573">
        <ele>1431.9060536304023</ele>
      </trkpt>
      <trkpt lat="48.154134" lon="24.360895">
        <ele>1434.2941408545876</ele>
      </trkpt>
      <trkpt lat="48.154177" lon="24.361056">
        <ele>1434.51622644034</ele>
      </trkpt>
      <trkpt lat="48.15427" lon="24.361249">
        <ele>1436.0975897910357</ele>
      </trkpt>
      <trkpt lat="48.155365" lon="24.361764">
        <ele>1434.616180518875</ele>
      </trkpt>
      <trkpt lat="48.155422" lon="24.362129">
        <ele>1439.6594968952706</ele>
      </trkpt>
      <trkpt lat="48.155458" lon="24.362612">
        <ele>1446.736297182911</ele>
      </trkpt>
      <trkpt lat="48.155558" lon="24.362708">
        <ele>1446.5279531181675</ele>
      </trkpt>
      <trkpt lat="48.155787" lon="24.362977">
        <ele>1446.0475898025325</ele>
      </trkpt>
      <trkpt lat="48.15593" lon="24.363416">
        <ele>1449.8487540261121</ele>
      </trkpt>
      <trkpt lat="48.155923" lon="24.363728">
        <ele>1455.763342927792</ele>
      </trkpt>
      <trkpt lat="48.156009" lon="24.363964">
        <ele>1456.8202415260916</ele>
      </trkpt>
      <trkpt lat="48.156245" lon="24.364189">
        <ele>1453.9133545290679</ele>
      </trkpt>
      <trkpt lat="48.156317" lon="24.364425">
        <ele>1457.8375028377632</ele>
      </trkpt>
      <trkpt lat="48.15641" lon="24.364554">
        <ele>1458.2984828001681</ele>
      </trkpt>
      <trkpt lat="48.156696" lon="24.364908">
        <ele>1457.7551602511526</ele>
      </trkpt>
      <trkpt lat="48.156639" lon="24.365315">
        <ele>1460.9303713293953</ele>
      </trkpt>
      <trkpt lat="48.156481" lon="24.366088">
        <ele>1463.0148297136184</ele>
      </trkpt>
      <trkpt lat="48.156138" lon="24.366667">
        <ele>1468.6188257145693</ele>
      </trkpt>
      <trkpt lat="48.155866" lon="24.367011">
        <ele>1481.0556377262108</ele>
      </trkpt>
      <trkpt lat="48.155852" lon="24.367483">
        <ele>1484.3782853629011</ele>
      </trkpt>
      <trkpt lat="48.155952" lon="24.368083">
        <ele>1487.0124123996434</ele>
      </trkpt>
      <trkpt lat="48.156109" lon="24.368341">
        <ele>1487.762935592449</ele>
      </trkpt>
      <trkpt lat="48.156238" lon="24.368384">
        <ele>1487.628558055394</ele>
      </trkpt>
      <trkpt lat="48.156281" lon="24.369264">
        <ele>1513.3231592797674</ele>
      </trkpt>
      <trkpt lat="48.156324" lon="24.369972">
        <ele>1536.6966186091304</ele>
      </trkpt>
      <trkpt lat="48.156324" lon="24.370744">
        <ele>1561.5559686719207</ele>
      </trkpt>
      <trkpt lat="48.156124" lon="24.371152">
        <ele>1572.8795801399972</ele>
      </trkpt>
      <trkpt lat="48.155991" lon="24.37164">
        <ele>1587.4122908534168</ele>
      </trkpt>
      <trkpt lat="48.15578" lon="24.371662">
        <ele>1587.885629155673</ele>
      </trkpt>
      <trkpt lat="48.155494" lon="24.371721">
        <ele>1589.5548671521071</ele>
      </trkpt>
      <trkpt lat="48.155376" lon="24.371635">
        <ele>1588.1095664892057</ele>
      </trkpt>
      <trkpt lat="48.155261" lon="24.371538">
        <ele>1586.9832284490471</ele>
      </trkpt>
      <trkpt lat="48.155052" lon="24.371243">
        <ele>1585.4315110545244</ele>
      </trkpt>
      <trkpt lat="48.154901" lon="24.371206">
        <ele>1583.7523335950232</ele>
      </trkpt>
      <trkpt lat="48.15481" lon="24.371257">
        <ele>1580.9566383843737</ele>
      </trkpt>
      <trkpt lat="48.154828" lon="24.371313">
        <ele>1580.6250117331585</ele>
      </trkpt>
      <trkpt lat="48.154928" lon="24.37157">
        <ele>1579.7268353999916</ele>
      </trkpt>
      <trkpt lat="48.155028" lon="24.371806">
        <ele>1580.3571289224124</ele>
      </trkpt>
      <trkpt lat="48.155114" lon="24.372042">
        <ele>1582.218469135284</ele>
      </trkpt>
      <trkpt lat="48.15515" lon="24.372203">
        <ele>1582.5286450942344</ele>
      </trkpt>
      <trkpt lat="48.1552" lon="24.372386">
        <ele>1583.2820105197966</ele>
      </trkpt>
      <trkpt lat="48.155265" lon="24.372461">
        <ele>1585.4846300127663</ele>
      </trkpt>
      <trkpt lat="48.155422" lon="24.372911">
        <ele>1587.9048512643692</ele>
      </trkpt>
      <trkpt lat="48.155351" lon="24.373255">
        <ele>1584.8945164670586</ele>
      </trkpt>
      <trkpt lat="48.155379" lon="24.373877">
        <ele>1583.2440451653674</ele>
      </trkpt>
      <trkpt lat="48.155537" lon="24.374349">
        <ele>1583.820165914111</ele>
      </trkpt>
      <trkpt lat="48.156238" lon="24.3748">
        <ele>1586.4899949277751</ele>
      </trkpt>
      <trkpt lat="48.156381" lon="24.374971">
        <ele>1585.0054941496346</ele>
      </trkpt>
      <trkpt lat="48.15671" lon="24.375401">
        <ele>1587.1590674792533</ele>
      </trkpt>
      <trkpt lat="48.156896" lon="24.37598">
        <ele>1585.3956477884117</ele>
      </trkpt>
      <trkpt lat="48.157226" lon="24.377074">
        <ele>1584.875318396444</ele>
      </trkpt>
      <trkpt lat="48.157426" lon="24.377804">
        <ele>1588.8698835833234</ele>
      </trkpt>
      <trkpt lat="48.157483" lon="24.378512">
        <ele>1588.8509996662158</ele>
      </trkpt>
      <trkpt lat="48.157498" lon="24.37922">
        <ele>1590.7663931718034</ele>
      </trkpt>
      <trkpt lat="48.157412" lon="24.379799">
        <ele>1589.303410519972</ele>
      </trkpt>
      <trkpt lat="48.15734" lon="24.38025">
        <ele>1586.6786247085547</ele>
      </trkpt>
      <trkpt lat="48.157498" lon="24.380765">
        <ele>1590.0093452603323</ele>
      </trkpt>
      <trkpt lat="48.157669" lon="24.381108">
        <ele>1589.1852291586922</ele>
      </trkpt>
      <trkpt lat="48.157813" lon="24.381237">
        <ele>1588.5080376318344</ele>
      </trkpt>
      <trkpt lat="48.158586" lon="24.381194">
        <ele>1599.5147339858813</ele>
      </trkpt>
      <trkpt lat="48.159044" lon="24.381688">
        <ele>1595.8792646767106</ele>
      </trkpt>
      <trkpt lat="48.159373" lon="24.382288">
        <ele>1596.8047546665757</ele>
      </trkpt>
      <trkpt lat="48.159473" lon="24.383512">
        <ele>1589.120194696472</ele>
      </trkpt>
      <trkpt lat="48.159902" lon="24.384348">
        <ele>1591.0534091800218</ele>
      </trkpt>
      <trkpt lat="48.160203" lon="24.385035">
        <ele>1589.1270846654663</ele>
      </trkpt>
      <trkpt lat="48.160475" lon="24.385657">
        <ele>1588.2592571300158</ele>
      </trkpt>
      <trkpt lat="48.160776" lon="24.386451">
        <ele>1591.8303122879015</ele>
      </trkpt>
      <trkpt lat="48.160976" lon="24.387224">
        <ele>1591.376347970916</ele>
      </trkpt>
      <trkpt lat="48.161076" lon="24.387953">
        <ele>1591.1848701105919</ele>
      </trkpt>
      <trkpt lat="48.161076" lon="24.388683">
        <ele>1590.105451191625</ele>
      </trkpt>
      <trkpt lat="48.16109" lon="24.389112">
        <ele>1589.7687230547563</ele>
      </trkpt>
      <trkpt lat="48.161062" lon="24.389842">
        <ele>1589.3817458156961</ele>
      </trkpt>
      <trkpt lat="48.16099" lon="24.390464">
        <ele>1591.619181154596</ele>
      </trkpt>
      <trkpt lat="48.160847" lon="24.390957">
        <ele>1594.1796147817513</ele>
      </trkpt>
      <trkpt lat="48.160418" lon="24.391601">
        <ele>1590.2280422915169</ele>
      </trkpt>
      <trkpt lat="48.160167" lon="24.39207">
        <ele>1591.0144640114158</ele>
      </trkpt>
      <trkpt lat="48.160258" lon="24.39203">
        <ele>1592.9337601614816</ele>
      </trkpt>
      <trkpt lat="48.160412" lon="24.391969">
        <ele>1596.289432197731</ele>
      </trkpt>
      <trkpt lat="48.160527" lon="24.391936">
        <ele>1598.4519849610515</ele>
      </trkpt>
      <trkpt lat="48.160588" lon="24.391923">
        <ele>1599.5944672739133</ele>
      </trkpt>
      <trkpt lat="48.160631" lon="24.391944">
        <ele>1600.8391187454108</ele>
      </trkpt>
      <trkpt lat="48.160654" lon="24.39203">
        <ele>1602.5937426716555</ele>
      </trkpt>
      <trkpt lat="48.160631" lon="24.392097">
        <ele>1603.1513946846953</ele>
      </trkpt>
      <trkpt lat="48.160593" lon="24.392188">
        <ele>1603.9476128951042</ele>
      </trkpt>
      <trkpt lat="48.160561" lon="24.392264">
        <ele>1604.832054266124</ele>
      </trkpt>
      <trkpt lat="48.160536" lon="24.392352">
        <ele>1606.189625851228</ele>
      </trkpt>
      <trkpt lat="48.160546" lon="24.392446">
        <ele>1608.4856662776308</ele>
      </trkpt>
      <trkpt lat="48.160573" lon="24.392489">
        <ele>1609.9421891097668</ele>
      </trkpt>
      <trkpt lat="48.160634" lon="24.392534">
        <ele>1612.016932140803</ele>
      </trkpt>
      <trkpt lat="48.160681" lon="24.392575">
        <ele>1613.7932210341096</ele>
      </trkpt>
      <trkpt lat="48.1607" lon="24.392647">
        <ele>1615.8028039813507</ele>
      </trkpt>
      <trkpt lat="48.1607" lon="24.392741">
        <ele>1617.9934289035752</ele>
      </trkpt>
      <trkpt lat="48.16067" lon="24.392864">
        <ele>1620.443755018171</ele>
      </trkpt>
      <trkpt lat="48.160613" lon="24.393079">
        <ele>1624.7466442297446</ele>
      </trkpt>
      <trkpt lat="48.160452" lon="24.393479">
        <ele>1630.6751136603316</ele>
      </trkpt>
      <trkpt lat="48.160432" lon="24.393581">
        <ele>1632.3345502429556</ele>
      </trkpt>
      <trkpt lat="48.160418" lon="24.393653">
        <ele>1633.487664664397</ele>
      </trkpt>
      <trkpt lat="48.160418" lon="24.393723">
        <ele>1634.7110033310018</ele>
      </trkpt>
      <trkpt lat="48.160439" lon="24.393806">
        <ele>1636.3104875373856</ele>
      </trkpt>
      <trkpt lat="48.160486" lon="24.393862">
        <ele>1637.7340587851359</ele>
      </trkpt>
      <trkpt lat="48.160598" lon="24.393937">
        <ele>1640.0235413808257</ele>
      </trkpt>
      <trkpt lat="48.160777" lon="24.39402">
        <ele>1643.20696786962</ele>
      </trkpt>
      <trkpt lat="48.160972" lon="24.394074">
        <ele>1646.1340294906404</ele>
      </trkpt>
      <trkpt lat="48.161505" lon="24.394181">
        <ele>1657.0975293820225</ele>
      </trkpt>
      <trkpt lat="48.161631" lon="24.394187">
        <ele>1659.3511543737259</ele>
      </trkpt>
      <trkpt lat="48.16179" lon="24.3942">
        <ele>1662.1171539176057</ele>
      </trkpt>
      <trkpt lat="48.161922" lon="24.394195">
        <ele>1664.1062122000124</ele>
      </trkpt>
      <trkpt lat="48.162139" lon="24.394112">
        <ele>1667.067358408448</ele>
      </trkpt>
      <trkpt lat="48.162316" lon="24.393994">
        <ele>1669.668809857103</ele>
      </trkpt>
      <trkpt lat="48.162538" lon="24.393897">
        <ele>1674.3022204625886</ele>
      </trkpt>
      <trkpt lat="48.162953" lon="24.393744">
        <ele>1683.1169007650547</ele>
      </trkpt>
      <trkpt lat="48.162974" lon="24.393782">
        <ele>1683.7703048948895</ele>
      </trkpt>
      <trkpt lat="48.162998" lon="24.393851">
        <ele>1684.8189791462469</ele>
      </trkpt>
      <trkpt lat="48.163021" lon="24.394004">
        <ele>1686.9780491205838</ele>
      </trkpt>
      <trkpt lat="48.163035" lon="24.39412">
        <ele>1688.813661393011</ele>
      </trkpt>
      <trkpt lat="48.163091" lon="24.394667">
        <ele>1695.7412499058994</ele>
      </trkpt>
      <trkpt lat="48.163128" lon="24.394836">
        <ele>1698.1949577054475</ele>
      </trkpt>
      <trkpt lat="48.16315" lon="24.394906">
        <ele>1699.2987259541405</ele>
      </trkpt>
      <trkpt lat="48.163176" lon="24.394946">
        <ele>1700.1053706898238</ele>
      </trkpt>
      <trkpt lat="48.163268" lon="24.395018">
        <ele>1702.3759333243697</ele>
      </trkpt>
      <trkpt lat="48.163327" lon="24.395061">
        <ele>1703.6609470497108</ele>
      </trkpt>
      <trkpt lat="48.163364" lon="24.395144">
        <ele>1704.871888432464</ele>
      </trkpt>
      <trkpt lat="48.163384" lon="24.395246">
        <ele>1706.0785267205079</ele>
      </trkpt>
      <trkpt lat="48.163388" lon="24.39552">
        <ele>1707.7163739349792</ele>
      </trkpt>
      <trkpt lat="48.163416" lon="24.395552">
        <ele>1707.8182211799835</ele>
      </trkpt>
      <trkpt lat="48.163511" lon="24.395705">
        <ele>1707.1061007031353</ele>
      </trkpt>
      <trkpt lat="48.163566" lon="24.395834">
        <ele>1706.0298711513838</ele>
      </trkpt>
      <trkpt lat="48.163577" lon="24.395898">
        <ele>1705.7531444402819</ele>
      </trkpt>
      <trkpt lat="48.16357" lon="24.395944">
        <ele>1706.1788856211174</ele>
      </trkpt>
      <trkpt lat="48.163425" lon="24.396327">
        <ele>1714.1250270746848</ele>
      </trkpt>
      <trkpt lat="48.163228" lon="24.396815">
        <ele>1725.3709697580298</ele>
      </trkpt>
      <trkpt lat="48.163159" lon="24.397027">
        <ele>1728.8002136394553</ele>
      </trkpt>
      <trkpt lat="48.163144" lon="24.39722">
        <ele>1731.5949894152582</ele>
      </trkpt>
      <trkpt lat="48.163153" lon="24.397454">
        <ele>1734.1640820018947</ele>
      </trkpt>
      <trkpt lat="48.163166" lon="24.397738">
        <ele>1736.901050594645</ele>
      </trkpt>
      <trkpt lat="48.163212" lon="24.39806">
        <ele>1738.6449502090777</ele>
      </trkpt>
      <trkpt lat="48.163248" lon="24.398301">
        <ele>1739.0425191621562</ele>
      </trkpt>
      <trkpt lat="48.163305" lon="24.398489">
        <ele>1738.6047941515483</ele>
      </trkpt>
      <trkpt lat="48.163556" lon="24.399162">
        <ele>1737.973647619194</ele>
      </trkpt>
      <trkpt lat="48.163592" lon="24.399267">
        <ele>1738.0813903879618</ele>
      </trkpt>
      <trkpt lat="48.163608" lon="24.399398">
        <ele>1738.6051393523185</ele>
      </trkpt>
      <trkpt lat="48.163604" lon="24.399736">
        <ele>1738.868181499322</ele>
      </trkpt>
      <trkpt lat="48.163626" lon="24.399825">
        <ele>1738.9517623697031</ele>
      </trkpt>
      <trkpt lat="48.163656" lon="24.399911">
        <ele>1739.1961316523289</ele>
      </trkpt>
      <trkpt lat="48.16371" lon="24.400031">
        <ele>1739.8144539826421</ele>
      </trkpt>
      <trkpt lat="48.163776" lon="24.400281">
        <ele>1740.6646389983716</ele>
      </trkpt>
      <trkpt lat="48.163856" lon="24.400621">
        <ele>1741.792641971435</ele>
      </trkpt>
      <trkpt lat="48.163896" lon="24.400777">
        <ele>1742.6803184495864</ele>
      </trkpt>
      <trkpt lat="48.163944" lon="24.40097">
        <ele>1744.398377402511</ele>
      </trkpt>
      <trkpt lat="48.163974" lon="24.401042">
        <ele>1745.1287334937938</ele>
      </trkpt>
      <trkpt lat="48.164026" lon="24.401096">
        <ele>1746.2066323781619</ele>
      </trkpt>
      <trkpt lat="48.164121" lon="24.401169">
        <ele>1747.8764503312414</ele>
      </trkpt>
      <trkpt lat="48.16416" lon="24.401249">
        <ele>1748.8147098103705</ele>
      </trkpt>
      <trkpt lat="48.164211" lon="24.401423">
        <ele>1750.535168563074</ele>
      </trkpt>
      <trkpt lat="48.164271" lon="24.401552">
        <ele>1752.0224697592032</ele>
      </trkpt>
      <trkpt lat="48.164395" lon="24.401748">
        <ele>1755.0207460362346</ele>
      </trkpt>
      <trkpt lat="48.164461" lon="24.401887">
        <ele>1757.160741715692</ele>
      </trkpt>
      <trkpt lat="48.164468" lon="24.401976">
        <ele>1758.0301408597734</ele>
      </trkpt>
      <trkpt lat="48.164533" lon="24.40218">
        <ele>1760.8845091703283</ele>
      </trkpt>
      <trkpt lat="48.16464" lon="24.402233">
        <ele>1762.8027382293508</ele>
      </trkpt>
      <trkpt lat="48.164711" lon="24.402459">
        <ele>1765.932065879693</ele>
      </trkpt>
      <trkpt lat="48.164754" lon="24.40263">
        <ele>1767.991706369794</ele>
      </trkpt>
      <trkpt lat="48.165105" lon="24.403145">
        <ele>1777.414825187269</ele>
      </trkpt>
      <trkpt lat="48.165305" lon="24.403371">
        <ele>1782.1852580710547</ele>
      </trkpt>
      <trkpt lat="48.165363" lon="24.403607">
        <ele>1784.8524921028875</ele>
      </trkpt>
      <trkpt lat="48.165377" lon="24.403939">
        <ele>1787.397110070416</ele>
      </trkpt>
      <trkpt lat="48.165534" lon="24.404368">
        <ele>1793.115407512756</ele>
      </trkpt>
      <trkpt lat="48.165735" lon="24.404776">
        <ele>1800.480507244407</ele>
      </trkpt>
      <trkpt lat="48.165907" lon="24.405119">
        <ele>1806.067180034588</ele>
      </trkpt>
      <trkpt lat="48.16605" lon="24.405259">
        <ele>1809.8098389074748</ele>
      </trkpt>
      <trkpt lat="48.1662" lon="24.405452">
        <ele>1814.1263530763008</ele>
      </trkpt>
      <trkpt lat="48.166372" lon="24.406139">
        <ele>1824.3512899898924</ele>
      </trkpt>
      <trkpt lat="48.166429" lon="24.406364">
        <ele>1827.0636987206528</ele>
      </trkpt>
      <trkpt lat="48.166629" lon="24.406675">
        <ele>1831.5280956815695</ele>
      </trkpt>
      <trkpt lat="48.166701" lon="24.406922">
        <ele>1833.8140876012621</ele>
      </trkpt>
      <trkpt lat="48.166772" lon="24.407158">
        <ele>1835.997309821891</ele>
      </trkpt>
      <trkpt lat="48.167001" lon="24.407555">
        <ele>1839.3117162139388</ele>
      </trkpt>
      <trkpt lat="48.167295" lon="24.408177">
        <ele>1844.5330901810667</ele>
      </trkpt>
      <trkpt lat="48.167481" lon="24.408542">
        <ele>1848.435669852492</ele>
      </trkpt>
      <trkpt lat="48.167703" lon="24.408767">
        <ele>1852.9033670047959</ele>
      </trkpt>
      <trkpt lat="48.167774" lon="24.40896">
        <ele>1854.6833743024345</ele>
      </trkpt>
      <trkpt lat="48.167839" lon="24.409153">
        <ele>1856.70014028941</ele>
      </trkpt>
      <trkpt lat="48.167996" lon="24.409325">
        <ele>1860.5896879980157</ele>
      </trkpt>
      <trkpt lat="48.168168" lon="24.409829">
        <ele>1864.0114483215975</ele>
      </trkpt>
      <trkpt lat="48.168425" lon="24.411396">
        <ele>1861.5226188278557</ele>
      </trkpt>
      <trkpt lat="48.168404" lon="24.411803">
        <ele>1861.9141417842286</ele>
      </trkpt>
      <trkpt lat="48.16844" lon="24.412276">
        <ele>1864.9463973629754</ele>
      </trkpt>
      <trkpt lat="48.16844" lon="24.412597">
        <ele>1866.8163578964304</ele>
      </trkpt>
      <trkpt lat="48.168526" lon="24.413048">
        <ele>1872.1246627555229</ele>
      </trkpt>
      <trkpt lat="48.168397" lon="24.413424">
        <ele>1876.650361308149</ele>
      </trkpt>
      <trkpt lat="48.168332" lon="24.413821">
        <ele>1881.5067994015521</ele>
      </trkpt>
      <trkpt lat="48.168311" lon="24.414239">
        <ele>1885.2534043078774</ele>
      </trkpt>
      <trkpt lat="48.16844" lon="24.414958">
        <ele>1894.1943073270631</ele>
      </trkpt>
      <trkpt lat="48.168511" lon="24.415451">
        <ele>1898.7753130203346</ele>
      </trkpt>
      <trkpt lat="48.16859" lon="24.415956">
        <ele>1904.9600626869687</ele>
      </trkpt>
      <trkpt lat="48.16927" lon="24.417812">
        <ele>1938.9724043660997</ele>
      </trkpt>
      <trkpt lat="48.169341" lon="24.418176">
        <ele>1942.0645951663885</ele>
      </trkpt>
      <trkpt lat="48.169441" lon="24.418455">
        <ele>1945.6773292716707</ele>
      </trkpt>
      <trkpt lat="48.170243" lon="24.419539">
        <ele>1975.962412516694</ele>
      </trkpt>
      <trkpt lat="48.170457" lon="24.419872">
        <ele>1982.0239737223592</ele>
      </trkpt>
      <trkpt lat="48.170522" lon="24.420065">
        <ele>1983.5112444310569</ele>
      </trkpt>
      <trkpt lat="48.170586" lon="24.42029">
        <ele>1984.7411724429112</ele>
      </trkpt>
      <trkpt lat="48.170758" lon="24.420741">
        <ele>1986.8787176115397</ele>
      </trkpt>
      <trkpt lat="48.170908" lon="24.421052">
        <ele>1989.2596875987215</ele>
      </trkpt>
      <trkpt lat="48.171087" lon="24.421202">
        <ele>1994.5571821808117</ele>
      </trkpt>
      <trkpt lat="48.171223" lon="24.421234">
        <ele>1999.4362867140394</ele>
      </trkpt>
      <trkpt lat="48.171645" lon="24.421094">
        <ele>2011.300600997532</ele>
      </trkpt>
      <trkpt lat="48.172053" lon="24.421363">
        <ele>2015.4377235787688</ele>
      </trkpt>
    </trkseg>
  </trk>
</gpx>
