<?xml version="1.0" encoding="UTF-8"?>
<gpx version="1.1" creator="phpGPX/1.0RC5" schemaLocation="http://www.topografix.com/GPX/1/1 http://www.topografix.com/GPX/1/1/gpx.xsd http://www.garmin.com/xmlschemas/GpxExtensions/v3 http://www.garmin.com/xmlschemas/GpxExtensionsv3.xsd http://www.garmin.com/xmlschemas/TrackPointExtension/v1 http://www.garmin.com/xmlschemas/TrackPointExtensionv1.xsd http://www.garmin.com/xmlschemas/PowerExtension/v1 http://www.garmin.com/xmlschemas/PowerExtensionv1.xsd http://www.topografix.com/GPX/gpx_style/0/2 http://www.topografix.com/GPX/gpx_style/0/2/gpx_style.xsd" xmlns="http://www.topografix.com/GPX/1/1" xmlns:xsi="http://www.w3.org/2001/XMLSchema-instance" xsi:schemaLocation="http://www.topografix.com/GPX/1/1 http://www.topografix.com/GPX/1/1/gpx.xsd http://www.garmin.com/xmlschemas/GpxExtensions/v3 http://www.garmin.com/xmlschemas/GpxExtensionsv3.xsd http://www.garmin.com/xmlschemas/TrackPointExtension/v1 http://www.garmin.com/xmlschemas/TrackPointExtensionv1.xsd http://www.garmin.com/xmlschemas/PowerExtension/v1 http://www.garmin.com/xmlschemas/PowerExtensionv1.xsd http://www.topografix.com/GPX/gpx_style/0/2 http://www.topografix.com/GPX/gpx_style/0/2/gpx_style.xsd" xmlns:gpxtpx="http://www.garmin.com/xmlschemas/TrackPointExtension/v1" xmlns:gpxx="http://www.garmin.com/xmlschemas/GpxExtensions/v3" xmlns:gpxpx="http://www.garmin.com/xmlschemas/PowerExtension/v1" xmlns:gpx_style="http://www.topografix.com/GPX/gpx_style/0/2">
  <metadata>
    <name>Перехід через хребет Кукул</name>
    <author>
      <name>gpx.studio</name>
      <link href="https://gpx.studio"/>
    </author>
  </metadata>
  <trk>
    <name>Перехід через хребет Кукул</name>
    <trkseg>
      <trkpt lat="48.207844" lon="24.591949">
        <ele>899.5636458895169</ele>
      </trkpt>
      <trkpt lat="48.206814" lon="24.589568">
        <ele>902.8841379554942</ele>
      </trkpt>
      <trkpt lat="48.205799" lon="24.58813">
        <ele>906.8774661458867</ele>
      </trkpt>
      <trkpt lat="48.204884" lon="24.587036">
        <ele>906.5000394485758</ele>
      </trkpt>
      <trkpt lat="48.20394" lon="24.58534">
        <ele>909.1381367010849</ele>
      </trkpt>
      <trkpt lat="48.202996" lon="24.583731">
        <ele>912.5962447605941</ele>
      </trkpt>
      <trkpt lat="48.203253" lon="24.582487">
        <ele>922.5701677606896</ele>
      </trkpt>
      <trkpt lat="48.202996" lon="24.581693">
        <ele>952.4191278325976</ele>
      </trkpt>
      <trkpt lat="48.202753" lon="24.580813">
        <ele>976.9713959807448</ele>
      </trkpt>
      <trkpt lat="48.202252" lon="24.580169">
        <ele>1004.0582748736118</ele>
      </trkpt>
      <trkpt lat="48.201909" lon="24.57959">
        <ele>1022.7848833181909</ele>
      </trkpt>
      <trkpt lat="48.201637" lon="24.578646">
        <ele>1043.9137241668068</ele>
      </trkpt>
      <trkpt lat="48.201351" lon="24.577723">
        <ele>1066.1920334076722</ele>
      </trkpt>
      <trkpt lat="48.200994" lon="24.575899">
        <ele>1102.5355029331986</ele>
      </trkpt>
      <trkpt lat="48.200679" lon="24.574054">
        <ele>1128.60576276004</ele>
      </trkpt>
      <trkpt lat="48.200422" lon="24.573281">
        <ele>1144.9197459444404</ele>
      </trkpt>
      <trkpt lat="48.200422" lon="24.572316">
        <ele>1157.768626299687</ele>
      </trkpt>
      <trkpt lat="48.200364" lon="24.571243">
        <ele>1173.9753927945228</ele>
      </trkpt>
      <trkpt lat="48.200407" lon="24.570384">
        <ele>1184.3756359136432</ele>
      </trkpt>
      <trkpt lat="48.200608" lon="24.569462">
        <ele>1198.87696570094</ele>
      </trkpt>
      <trkpt lat="48.200779" lon="24.568432">
        <ele>1217.9571421819323</ele>
      </trkpt>
      <trkpt lat="48.200894" lon="24.567531">
        <ele>1236.7002615585566</ele>
      </trkpt>
      <trkpt lat="48.20118" lon="24.566822">
        <ele>1257.0285314898024</ele>
      </trkpt>
      <trkpt lat="48.201594" lon="24.565943">
        <ele>1277.3856808585833</ele>
      </trkpt>
      <trkpt lat="48.201923" lon="24.564934">
        <ele>1295.6845422006384</ele>
      </trkpt>
      <trkpt lat="48.201952" lon="24.563883">
        <ele>1309.3284473883687</ele>
      </trkpt>
      <trkpt lat="48.201923" lon="24.563003">
        <ele>1323.6890039781574</ele>
      </trkpt>
      <trkpt lat="48.201981" lon="24.562016">
        <ele>1329.6170417910907</ele>
      </trkpt>
      <trkpt lat="48.202352" lon="24.561372">
        <ele>1336.2402267211398</ele>
      </trkpt>
      <trkpt lat="48.203039" lon="24.560879">
        <ele>1352.3676702240084</ele>
      </trkpt>
      <trkpt lat="48.203568" lon="24.5606">
        <ele>1357.48437723263</ele>
      </trkpt>
      <trkpt lat="48.204183" lon="24.560106">
        <ele>1359.6990500148431</ele>
      </trkpt>
      <trkpt lat="48.204712" lon="24.559827">
        <ele>1363.7589477479924</ele>
      </trkpt>
      <trkpt lat="48.205356" lon="24.559527">
        <ele>1366.8153460342521</ele>
      </trkpt>
      <trkpt lat="48.205654" lon="24.558671">
        <ele>1367.9596425616185</ele>
      </trkpt>
      <trkpt lat="48.206283" lon="24.555852">
        <ele>1392.990919934328</ele>
      </trkpt>
      <trkpt lat="48.207227" lon="24.554522">
        <ele>1399.0309620976914</ele>
      </trkpt>
      <trkpt lat="48.208314" lon="24.553534">
        <ele>1400.2848589288378</ele>
      </trkpt>
      <trkpt lat="48.209544" lon="24.553663">
        <ele>1414.7763950187946</ele>
      </trkpt>
      <trkpt lat="48.211002" lon="24.553363">
        <ele>1429.2550300767375</ele>
      </trkpt>
      <trkpt lat="48.212318" lon="24.552676">
        <ele>1439.3409757682596</ele>
      </trkpt>
      <trkpt lat="48.21329" lon="24.551603">
        <ele>1444.9374063874575</ele>
      </trkpt>
      <trkpt lat="48.213776" lon="24.5495">
        <ele>1477.4557233635478</ele>
      </trkpt>
      <trkpt lat="48.21452" lon="24.54817">
        <ele>1507.4503011057386</ele>
      </trkpt>
      <trkpt lat="48.215235" lon="24.546797">
        <ele>1533.4165971021614</ele>
      </trkpt>
      <trkpt lat="48.216293" lon="24.545466">
        <ele>1535.7356592830859</ele>
      </trkpt>
      <trkpt lat="48.217379" lon="24.544436">
        <ele>1512.2460830280634</ele>
      </trkpt>
      <trkpt lat="48.218552" lon="24.543793">
        <ele>1499.7207007348766</ele>
      </trkpt>
      <trkpt lat="48.219238" lon="24.542763">
        <ele>1488.8307896294864</ele>
      </trkpt>
      <trkpt lat="48.220394" lon="24.542076">
        <ele>1474.9175179209806</ele>
      </trkpt>
      <trkpt lat="48.221338" lon="24.541089">
        <ele>1459.155644420633</ele>
      </trkpt>
      <trkpt lat="48.223939" lon="24.539458">
        <ele>1447.5251453073</ele>
      </trkpt>
      <trkpt lat="48.224511" lon="24.539158">
        <ele>1447.1977104987277</ele>
      </trkpt>
      <trkpt lat="48.224306" lon="24.538946">
        <ele>1445.4580041998997</ele>
      </trkpt>
      <trkpt lat="48.223305" lon="24.53931">
        <ele>1435.894551758696</ele>
      </trkpt>
      <trkpt lat="48.222276" lon="24.539482">
        <ele>1424.9375298696305</ele>
      </trkpt>
      <trkpt lat="48.221361" lon="24.539246">
        <ele>1411.6321053630672</ele>
      </trkpt>
      <trkpt lat="48.220274" lon="24.538881">
        <ele>1399.291822886144</ele>
      </trkpt>
      <trkpt lat="48.219531" lon="24.538517">
        <ele>1390.799380323966</ele>
      </trkpt>
      <trkpt lat="48.218773" lon="24.53813">
        <ele>1381.9100773091761</ele>
      </trkpt>
      <trkpt lat="48.218859" lon="24.537851">
        <ele>1377.9401153150247</ele>
      </trkpt>
      <trkpt lat="48.219631" lon="24.537508">
        <ele>1373.8609528886154</ele>
      </trkpt>
      <trkpt lat="48.22055" lon="24.53774">
        <ele>1373.6515675425933</ele>
      </trkpt>
      <trkpt lat="48.221894" lon="24.537783">
        <ele>1374.5468779276787</ele>
      </trkpt>
      <trkpt lat="48.22361" lon="24.535337">
        <ele>1382.6137441296596</ele>
      </trkpt>
      <trkpt lat="48.225754" lon="24.535208">
        <ele>1392.4990907671477</ele>
      </trkpt>
      <trkpt lat="48.226955" lon="24.535079">
        <ele>1400.4224109342906</ele>
      </trkpt>
      <trkpt lat="48.227784" lon="24.533878">
        <ele>1409.9171487632557</ele>
      </trkpt>
      <trkpt lat="48.228756" lon="24.53259">
        <ele>1402.2585064542475</ele>
      </trkpt>
      <trkpt lat="48.229756" lon="24.531045">
        <ele>1398.7507571293404</ele>
      </trkpt>
      <trkpt lat="48.230571" lon="24.529865">
        <ele>1397.256700783968</ele>
      </trkpt>
      <trkpt lat="48.230585" lon="24.527483">
        <ele>1374.973190447137</ele>
      </trkpt>
      <trkpt lat="48.231129" lon="24.526368">
        <ele>1365.404393210426</ele>
      </trkpt>
      <trkpt lat="48.232529" lon="24.52581">
        <ele>1363.016496404305</ele>
      </trkpt>
      <trkpt lat="48.233415" lon="24.52581">
        <ele>1368.94703770685</ele>
      </trkpt>
      <trkpt lat="48.233816" lon="24.525252">
        <ele>1364.3275725094138</ele>
      </trkpt>
      <trkpt lat="48.234359" lon="24.523793">
        <ele>1359.1373156778282</ele>
      </trkpt>
      <trkpt lat="48.235162" lon="24.52231">
        <ele>1372.2941341561798</ele>
      </trkpt>
      <trkpt lat="48.235906" lon="24.521923">
        <ele>1372.728538775642</ele>
      </trkpt>
      <trkpt lat="48.236792" lon="24.520035">
        <ele>1357.060837857728</ele>
      </trkpt>
      <trkpt lat="48.238307" lon="24.513469">
        <ele>1336.8541075377725</ele>
      </trkpt>
      <trkpt lat="48.238564" lon="24.510508">
        <ele>1355.3829105110988</ele>
      </trkpt>
      <trkpt lat="48.23722" lon="24.508534">
        <ele>1364.313898090157</ele>
      </trkpt>
      <trkpt lat="48.236506" lon="24.507032">
        <ele>1355.3519115011854</ele>
      </trkpt>
      <trkpt lat="48.236077" lon="24.505101">
        <ele>1342.0737228355138</ele>
      </trkpt>
      <trkpt lat="48.23622" lon="24.50347">
        <ele>1337.5016704850627</ele>
      </trkpt>
      <trkpt lat="48.236277" lon="24.502311">
        <ele>1332.7536359991427</ele>
      </trkpt>
      <trkpt lat="48.237049" lon="24.502182">
        <ele>1323.1555974680232</ele>
      </trkpt>
      <trkpt lat="48.238078" lon="24.502826">
        <ele>1329.7319215079349</ele>
      </trkpt>
      <trkpt lat="48.239364" lon="24.502869">
        <ele>1314.730323200114</ele>
      </trkpt>
      <trkpt lat="48.240479" lon="24.502268">
        <ele>1307.4380918913039</ele>
      </trkpt>
      <trkpt lat="48.241565" lon="24.501024">
        <ele>1299.093932511181</ele>
      </trkpt>
      <trkpt lat="48.242137" lon="24.499007">
        <ele>1285.1099027227988</ele>
      </trkpt>
      <trkpt lat="48.242594" lon="24.493385">
        <ele>1269.44919300956</ele>
      </trkpt>
      <trkpt lat="48.243337" lon="24.490166">
        <ele>1281.2080389930634</ele>
      </trkpt>
      <trkpt lat="48.243137" lon="24.486432">
        <ele>1280.3220783700137</ele>
      </trkpt>
      <trkpt lat="48.243651" lon="24.485059">
        <ele>1263.858157865936</ele>
      </trkpt>
      <trkpt lat="48.246892" lon="24.483464">
        <ele>1206.8737173473346</ele>
      </trkpt>
      <trkpt lat="48.24692" lon="24.482692">
        <ele>1191.1333963869065</ele>
      </trkpt>
      <trkpt lat="48.24712" lon="24.481662">
        <ele>1175.541119460249</ele>
      </trkpt>
      <trkpt lat="48.247292" lon="24.480696">
        <ele>1166.9128202680886</ele>
      </trkpt>
      <trkpt lat="48.247863" lon="24.477993">
        <ele>1169.4691885380307</ele>
      </trkpt>
      <trkpt lat="48.248392" lon="24.476147">
        <ele>1172.7434898580977</ele>
      </trkpt>
      <trkpt lat="48.248935" lon="24.475439">
        <ele>1181.9139296858611</ele>
      </trkpt>
      <trkpt lat="48.249078" lon="24.474559">
        <ele>1187.174786233576</ele>
      </trkpt>
      <trkpt lat="48.248621" lon="24.472843">
        <ele>1192.589575032689</ele>
      </trkpt>
      <trkpt lat="48.248335" lon="24.471877">
        <ele>1200.1971641456473</ele>
      </trkpt>
      <trkpt lat="48.247749" lon="24.470289">
        <ele>1200.7483754181303</ele>
      </trkpt>
      <trkpt lat="48.247349" lon="24.469581">
        <ele>1194.6182455445578</ele>
      </trkpt>
      <trkpt lat="48.247006" lon="24.468616">
        <ele>1190.637528272928</ele>
      </trkpt>
      <trkpt lat="48.246863" lon="24.46765">
        <ele>1193.4041637889027</ele>
      </trkpt>
      <trkpt lat="48.247306" lon="24.467049">
        <ele>1200.740761210909</ele>
      </trkpt>
      <trkpt lat="48.247992" lon="24.466706">
        <ele>1197.699352752535</ele>
      </trkpt>
      <trkpt lat="48.248521" lon="24.46632">
        <ele>1187.6442239999305</ele>
      </trkpt>
      <trkpt lat="48.249161" lon="24.466023">
        <ele>1187.2381728606997</ele>
      </trkpt>
      <trkpt lat="48.249347" lon="24.465272">
        <ele>1176.9819299130468</ele>
      </trkpt>
      <trkpt lat="48.249061" lon="24.463426">
        <ele>1158.8861050481082</ele>
      </trkpt>
      <trkpt lat="48.249476" lon="24.461474">
        <ele>1148.4364738119784</ele>
      </trkpt>
      <trkpt lat="48.249576" lon="24.460637">
        <ele>1138.6204394332165</ele>
      </trkpt>
      <trkpt lat="48.249461" lon="24.459092">
        <ele>1123.8805880607106</ele>
      </trkpt>
      <trkpt lat="48.249461" lon="24.457654">
        <ele>1105.8855669191107</ele>
      </trkpt>
      <trkpt lat="48.250176" lon="24.455058">
        <ele>1061.0053279523574</ele>
      </trkpt>
      <trkpt lat="48.250147" lon="24.454468">
        <ele>1051.998112611007</ele>
      </trkpt>
      <trkpt lat="48.249633" lon="24.453663">
        <ele>1038.9069668703964</ele>
      </trkpt>
      <trkpt lat="48.249133" lon="24.452555">
        <ele>1022.0605752797412</ele>
      </trkpt>
      <trkpt lat="48.248618" lon="24.452383">
        <ele>1010.3549146659753</ele>
      </trkpt>
      <trkpt lat="48.248433" lon="24.452018">
        <ele>1002.8894022131767</ele>
      </trkpt>
      <trkpt lat="48.248604" lon="24.451503">
        <ele>1000.6186514779109</ele>
      </trkpt>
      <trkpt lat="48.249061" lon="24.450924">
        <ele>991.8833495976983</ele>
      </trkpt>
      <trkpt lat="48.250204" lon="24.45013">
        <ele>972.7004697663942</ele>
      </trkpt>
      <trkpt lat="48.250576" lon="24.450108">
        <ele>965.2993601597893</ele>
      </trkpt>
      <trkpt lat="48.250862" lon="24.445731">
        <ele>913.0874284610618</ele>
      </trkpt>
      <trkpt lat="48.250978" lon="24.44356">
        <ele>897.9817382262553</ele>
      </trkpt>
      <trkpt lat="48.25125" lon="24.442938">
        <ele>892.5969104883177</ele>
      </trkpt>
      <trkpt lat="48.251564" lon="24.442122">
        <ele>882.8183994934661</ele>
      </trkpt>
      <trkpt lat="48.251793" lon="24.441157">
        <ele>871.7796218407456</ele>
      </trkpt>
      <trkpt lat="48.25215" lon="24.440427">
        <ele>860.7158171474002</ele>
      </trkpt>
      <trkpt lat="48.253022" lon="24.438989">
        <ele>840.8919016518629</ele>
      </trkpt>
      <trkpt lat="48.253436" lon="24.438271">
        <ele>831.6664996847976</ele>
      </trkpt>
      <trkpt lat="48.253393" lon="24.437552">
        <ele>826.081744291997</ele>
      </trkpt>
      <trkpt lat="48.25375" lon="24.436565">
        <ele>814.7899136552587</ele>
      </trkpt>
      <trkpt lat="48.253993" lon="24.43532">
        <ele>800.6305141940246</ele>
      </trkpt>
      <trkpt lat="48.254079" lon="24.434548">
        <ele>793.6322504973505</ele>
      </trkpt>
      <trkpt lat="48.254207" lon="24.433024">
        <ele>780.8584467340843</ele>
      </trkpt>
      <trkpt lat="48.254207" lon="24.432059">
        <ele>773.5594332444016</ele>
      </trkpt>
      <trkpt lat="48.254493" lon="24.431243">
        <ele>768.3917543314165</ele>
      </trkpt>
      <trkpt lat="48.254649" lon="24.430847">
        <ele>763.9014697399689</ele>
      </trkpt>
      <trkpt lat="48.254591" lon="24.430397">
        <ele>760.8875214175146</ele>
      </trkpt>
      <trkpt lat="48.254434" lon="24.429302">
        <ele>760.0306450888747</ele>
      </trkpt>
      <trkpt lat="48.25442" lon="24.42853">
        <ele>750.5060728890821</ele>
      </trkpt>
      <trkpt lat="48.253891" lon="24.428809">
        <ele>751.4082503737026</ele>
      </trkpt>
      <trkpt lat="48.253734" lon="24.428444">
        <ele>744.908025337616</ele>
      </trkpt>
      <trkpt lat="48.253277" lon="24.426212">
        <ele>729.907128493418</ele>
      </trkpt>
      <trkpt lat="48.252663" lon="24.426384">
        <ele>731.5910812965594</ele>
      </trkpt>
      <trkpt lat="48.252163" lon="24.426427">
        <ele>735.0847105892608</ele>
      </trkpt>
      <trkpt lat="48.252075" lon="24.426419">
        <ele>736.5796173598774</ele>
      </trkpt>
      <trkpt lat="48.253078" lon="24.42372">
        <ele>736.6702704848143</ele>
      </trkpt>
      <trkpt lat="48.255278" lon="24.423248">
        <ele>738.612646998909</ele>
      </trkpt>
      <trkpt lat="48.256307" lon="24.422819">
        <ele>737.6512021331582</ele>
      </trkpt>
      <trkpt lat="48.258507" lon="24.423677">
        <ele>735.0070966767884</ele>
      </trkpt>
      <trkpt lat="48.261793" lon="24.423892">
        <ele>733.4409685066203</ele>
      </trkpt>
      <trkpt lat="48.26339" lon="24.42312">
        <ele>731.5162816546591</ele>
      </trkpt>
      <trkpt lat="48.266504" lon="24.422562">
        <ele>725.2646015998907</ele>
      </trkpt>
      <trkpt lat="48.267989" lon="24.421575">
        <ele>723.5521914382399</ele>
      </trkpt>
      <trkpt lat="48.268703" lon="24.418485">
        <ele>724.9141354768071</ele>
      </trkpt>
      <trkpt lat="48.27116" lon="24.416468">
        <ele>721.9043919813059</ele>
      </trkpt>
      <trkpt lat="48.272417" lon="24.414365">
        <ele>718.5</ele>
      </trkpt>
    </trkseg>
  </trk>
</gpx>
