<?xml version="1.0" encoding="UTF-8"?>
<gpx version="1.1" creator="phpGPX/1.0RC5" schemaLocation="http://www.topografix.com/GPX/1/1 http://www.topografix.com/GPX/1/1/gpx.xsd http://www.garmin.com/xmlschemas/GpxExtensions/v3 http://www.garmin.com/xmlschemas/GpxExtensionsv3.xsd http://www.garmin.com/xmlschemas/TrackPointExtension/v1 http://www.garmin.com/xmlschemas/TrackPointExtensionv1.xsd http://www.garmin.com/xmlschemas/PowerExtension/v1 http://www.garmin.com/xmlschemas/PowerExtensionv1.xsd http://www.topografix.com/GPX/gpx_style/0/2 http://www.topografix.com/GPX/gpx_style/0/2/gpx_style.xsd" xmlns="http://www.topografix.com/GPX/1/1" xmlns:xsi="http://www.w3.org/2001/XMLSchema-instance" xsi:schemaLocation="http://www.topografix.com/GPX/1/1 http://www.topografix.com/GPX/1/1/gpx.xsd http://www.garmin.com/xmlschemas/GpxExtensions/v3 http://www.garmin.com/xmlschemas/GpxExtensionsv3.xsd http://www.garmin.com/xmlschemas/TrackPointExtension/v1 http://www.garmin.com/xmlschemas/TrackPointExtensionv1.xsd http://www.garmin.com/xmlschemas/PowerExtension/v1 http://www.garmin.com/xmlschemas/PowerExtensionv1.xsd http://www.topografix.com/GPX/gpx_style/0/2 http://www.topografix.com/GPX/gpx_style/0/2/gpx_style.xsd" xmlns:gpxtpx="http://www.garmin.com/xmlschemas/TrackPointExtension/v1" xmlns:gpxx="http://www.garmin.com/xmlschemas/GpxExtensions/v3" xmlns:gpxpx="http://www.garmin.com/xmlschemas/PowerExtension/v1" xmlns:gpx_style="http://www.topografix.com/GPX/gpx_style/0/2">
  <metadata>
    <name>Писаний Камінь  Буковець - Верхній Ясенів</name>
    <author>
      <name>gpx.studio</name>
      <link href="https://gpx.studio"/>
    </author>
  </metadata>
  <trk>
    <name>Писаний Камінь  Буковець - Верхній Ясенів</name>
    <trkseg>
      <trkpt lat="48.206941" lon="24.924427">
        <ele>812.0102769617224</ele>
      </trkpt>
      <trkpt lat="48.206383" lon="24.92535">
        <ele>814.5475953342914</ele>
      </trkpt>
      <trkpt lat="48.205511" lon="24.927603">
        <ele>829.9835127124927</ele>
      </trkpt>
      <trkpt lat="48.205081" lon="24.930328">
        <ele>843.2824224442809</ele>
      </trkpt>
      <trkpt lat="48.204281" lon="24.931637">
        <ele>856.3327167386888</ele>
      </trkpt>
      <trkpt lat="48.204052" lon="24.932967">
        <ele>865.9700113288092</ele>
      </trkpt>
      <trkpt lat="48.204009" lon="24.935714">
        <ele>885.7078411960973</ele>
      </trkpt>
      <trkpt lat="48.203494" lon="24.937602">
        <ele>894.4642542743824</ele>
      </trkpt>
      <trkpt lat="48.202264" lon="24.940563">
        <ele>907.4974989817711</ele>
      </trkpt>
      <trkpt lat="48.201849" lon="24.943138">
        <ele>916.1924715532223</ele>
      </trkpt>
      <trkpt lat="48.201578" lon="24.943589">
        <ele>920.842105105254</ele>
      </trkpt>
      <trkpt lat="48.201034" lon="24.941894">
        <ele>945.3313977757075</ele>
      </trkpt>
      <trkpt lat="48.200534" lon="24.941207">
        <ele>952.9795180018026</ele>
      </trkpt>
      <trkpt lat="48.200019" lon="24.943718">
        <ele>953.4685923714283</ele>
      </trkpt>
      <trkpt lat="48.199075" lon="24.945241">
        <ele>946.9522679308632</ele>
      </trkpt>
      <trkpt lat="48.198846" lon="24.946507">
        <ele>952.4115718854721</ele>
      </trkpt>
      <trkpt lat="48.198031" lon="24.94773">
        <ele>967.4666371097554</ele>
      </trkpt>
      <trkpt lat="48.196872" lon="24.949898">
        <ele>996.5313800075264</ele>
      </trkpt>
      <trkpt lat="48.1962" lon="24.951357">
        <ele>1028.2959591072363</ele>
      </trkpt>
      <trkpt lat="48.195599" lon="24.953009">
        <ele>1057.6555316303306</ele>
      </trkpt>
      <trkpt lat="48.195099" lon="24.954211">
        <ele>1081.0310294263622</ele>
      </trkpt>
      <trkpt lat="48.194441" lon="24.955455">
        <ele>1115.582744635176</ele>
      </trkpt>
      <trkpt lat="48.194374" lon="24.955752">
        <ele>1117.471677266393</ele>
      </trkpt>
      <trkpt lat="48.19343" lon="24.956245">
        <ele>1150.893291687626</ele>
      </trkpt>
      <trkpt lat="48.192944" lon="24.956803">
        <ele>1152.5711922525047</ele>
      </trkpt>
      <trkpt lat="48.193087" lon="24.958627">
        <ele>1149.9053095131096</ele>
      </trkpt>
      <trkpt lat="48.19353" lon="24.960451">
        <ele>1130.0467077639848</ele>
      </trkpt>
      <trkpt lat="48.193412" lon="24.963889">
        <ele>1108.9627579546532</ele>
      </trkpt>
      <trkpt lat="48.193226" lon="24.966506">
        <ele>1100.9196953515793</ele>
      </trkpt>
      <trkpt lat="48.192068" lon="24.968459">
        <ele>1115.2045674704716</ele>
      </trkpt>
      <trkpt lat="48.191739" lon="24.969596">
        <ele>1107.319045599225</ele>
      </trkpt>
      <trkpt lat="48.191667" lon="24.971077">
        <ele>1112.0386863982983</ele>
      </trkpt>
      <trkpt lat="48.191095" lon="24.973351">
        <ele>1133.8840179557446</ele>
      </trkpt>
      <trkpt lat="48.19018" lon="24.975004">
        <ele>1129.2868206159721</ele>
      </trkpt>
      <trkpt lat="48.18945" lon="24.976034">
        <ele>1111.1380236755663</ele>
      </trkpt>
      <trkpt lat="48.189021" lon="24.976441">
        <ele>1110.2589721736977</ele>
      </trkpt>
      <trkpt lat="48.187347" lon="24.978566">
        <ele>1130.760727693961</ele>
      </trkpt>
      <trkpt lat="48.186446" lon="24.980132">
        <ele>1152.6330713300677</ele>
      </trkpt>
      <trkpt lat="48.185902" lon="24.98172">
        <ele>1146.5220210763703</ele>
      </trkpt>
      <trkpt lat="48.185244" lon="24.983029">
        <ele>1152.6883813357504</ele>
      </trkpt>
      <trkpt lat="48.184114" lon="24.984531">
        <ele>1168.454604785733</ele>
      </trkpt>
      <trkpt lat="48.183465" lon="24.985018">
        <ele>1188.6703567312734</ele>
      </trkpt>
      <trkpt lat="48.18222" lon="24.986627">
        <ele>1221.5664334475548</ele>
      </trkpt>
      <trkpt lat="48.181677" lon="24.987357">
        <ele>1215.975597576597</ele>
      </trkpt>
      <trkpt lat="48.181176" lon="24.987486">
        <ele>1207.6816639278552</ele>
      </trkpt>
      <trkpt lat="48.180432" lon="24.987722">
        <ele>1203.0742480936858</ele>
      </trkpt>
      <trkpt lat="48.179702" lon="24.988001">
        <ele>1199.5432618740015</ele>
      </trkpt>
      <trkpt lat="48.179116" lon="24.987915">
        <ele>1202.7511106528004</ele>
      </trkpt>
      <trkpt lat="48.178815" lon="24.988065">
        <ele>1197.0978804235956</ele>
      </trkpt>
      <trkpt lat="48.178414" lon="24.987893">
        <ele>1184.299953864695</ele>
      </trkpt>
      <trkpt lat="48.177957" lon="24.9877">
        <ele>1164.323340606686</ele>
      </trkpt>
      <trkpt lat="48.177771" lon="24.986928">
        <ele>1141.2151854878757</ele>
      </trkpt>
      <trkpt lat="48.177742" lon="24.985705">
        <ele>1096.3693071680254</ele>
      </trkpt>
      <trkpt lat="48.17717" lon="24.985812">
        <ele>1094.419038054999</ele>
      </trkpt>
      <trkpt lat="48.176826" lon="24.986005">
        <ele>1105.5484933718108</ele>
      </trkpt>
      <trkpt lat="48.176435" lon="24.985665">
        <ele>1097.4424003855092</ele>
      </trkpt>
      <trkpt lat="48.175362" lon="24.986695">
        <ele>1100.6998455313471</ele>
      </trkpt>
      <trkpt lat="48.175047" lon="24.986652">
        <ele>1099.8205014984044</ele>
      </trkpt>
      <trkpt lat="48.173115" lon="24.987403">
        <ele>1087.0897438732209</ele>
      </trkpt>
      <trkpt lat="48.172715" lon="24.988433">
        <ele>1085.3225087451299</ele>
      </trkpt>
      <trkpt lat="48.172028" lon="24.988777">
        <ele>1076.856370240158</ele>
      </trkpt>
      <trkpt lat="48.171799" lon="24.988669">
        <ele>1075.974213289956</ele>
      </trkpt>
      <trkpt lat="48.170962" lon="24.988916">
        <ele>1078.4771425459603</ele>
      </trkpt>
      <trkpt lat="48.171556" lon="24.986674">
        <ele>1042.1249433609773</ele>
      </trkpt>
      <trkpt lat="48.171398" lon="24.986395">
        <ele>1031.5017286453221</ele>
      </trkpt>
      <trkpt lat="48.171026" lon="24.986481">
        <ele>1026.4987838266475</ele>
      </trkpt>
      <trkpt lat="48.170511" lon="24.986159">
        <ele>1014.2406030219281</ele>
      </trkpt>
      <trkpt lat="48.170883" lon="24.985022">
        <ele>995.531805258328</ele>
      </trkpt>
      <trkpt lat="48.170582" lon="24.984786">
        <ele>985.6795228994463</ele>
      </trkpt>
      <trkpt lat="48.170525" lon="24.983949">
        <ele>972.1932103241622</ele>
      </trkpt>
      <trkpt lat="48.170225" lon="24.983176">
        <ele>959.7398180364374</ele>
      </trkpt>
      <trkpt lat="48.169857" lon="24.983009">
        <ele>951.0870794837246</ele>
      </trkpt>
      <trkpt lat="48.169356" lon="24.98185">
        <ele>930.0964429626474</ele>
      </trkpt>
      <trkpt lat="48.16834" lon="24.98052">
        <ele>909.9752069128198</ele>
      </trkpt>
      <trkpt lat="48.167424" lon="24.979576">
        <ele>901.6526492583905</ele>
      </trkpt>
      <trkpt lat="48.167095" lon="24.979447">
        <ele>887.5055068229052</ele>
      </trkpt>
      <trkpt lat="48.166279" lon="24.978203">
        <ele>863.1232227737327</ele>
      </trkpt>
      <trkpt lat="48.164905" lon="24.977194">
        <ele>827.9456765880363</ele>
      </trkpt>
      <trkpt lat="48.164175" lon="24.975671">
        <ele>820.4724926843451</ele>
      </trkpt>
      <trkpt lat="48.163646" lon="24.975091">
        <ele>818.4123543042223</ele>
      </trkpt>
      <trkpt lat="48.16287" lon="24.97492">
        <ele>782.724095453606</ele>
      </trkpt>
      <trkpt lat="48.162541" lon="24.973117">
        <ele>753.2747556550373</ele>
      </trkpt>
      <trkpt lat="48.162627" lon="24.972001">
        <ele>743.346569452137</ele>
      </trkpt>
      <trkpt lat="48.162555" lon="24.970542">
        <ele>716.5457902412018</ele>
      </trkpt>
      <trkpt lat="48.16267" lon="24.969148">
        <ele>704.5254601511916</ele>
      </trkpt>
      <trkpt lat="48.162799" lon="24.966937">
        <ele>692.4378668274726</ele>
      </trkpt>
      <trkpt lat="48.162827" lon="24.9658">
        <ele>669.8736231983057</ele>
      </trkpt>
      <trkpt lat="48.162384" lon="24.965628">
        <ele>649.1338664585453</ele>
      </trkpt>
      <trkpt lat="48.162126" lon="24.966079">
        <ele>647.8542250664905</ele>
      </trkpt>
      <trkpt lat="48.161954" lon="24.966079">
        <ele>653.5996310934426</ele>
      </trkpt>
      <trkpt lat="48.161911" lon="24.965586">
        <ele>647.9618453852039</ele>
      </trkpt>
      <trkpt lat="48.161611" lon="24.965285">
        <ele>660.5831145234406</ele>
      </trkpt>
      <trkpt lat="48.161625" lon="24.963096">
        <ele>630.2954183965339</ele>
      </trkpt>
      <trkpt lat="48.161453" lon="24.961659">
        <ele>624.19687894853</ele>
      </trkpt>
      <trkpt lat="48.161382" lon="24.960371">
        <ele>612.0003128063197</ele>
      </trkpt>
      <trkpt lat="48.161138" lon="24.959899">
        <ele>611.2253276371006</ele>
      </trkpt>
      <trkpt lat="48.161353" lon="24.958354">
        <ele>597.4776548921363</ele>
      </trkpt>
      <trkpt lat="48.160967" lon="24.957947">
        <ele>599.5311947889443</ele>
      </trkpt>
      <trkpt lat="48.160609" lon="24.956466">
        <ele>589.1351170834237</ele>
      </trkpt>
      <trkpt lat="48.160237" lon="24.955779">
        <ele>594.111361349433</ele>
      </trkpt>
      <trkpt lat="48.160093" lon="24.95432">
        <ele>580.6847082671593</ele>
      </trkpt>
      <trkpt lat="48.160365" lon="24.952346">
        <ele>565.5754574402235</ele>
      </trkpt>
      <trkpt lat="48.16028" lon="24.95123">
        <ele>561.9021439453275</ele>
      </trkpt>
      <trkpt lat="48.160251" lon="24.950587">
        <ele>559.7994022814421</ele>
      </trkpt>
      <trkpt lat="48.160065" lon="24.949771">
        <ele>554.1053197617293</ele>
      </trkpt>
      <trkpt lat="48.160136" lon="24.947668">
        <ele>545.2196207490051</ele>
      </trkpt>
      <trkpt lat="48.160136" lon="24.946832">
        <ele>542.4181736729682</ele>
      </trkpt>
      <trkpt lat="48.159936" lon="24.946274">
        <ele>540.1679243618079</ele>
      </trkpt>
      <trkpt lat="48.159535" lon="24.945759">
        <ele>536.8354545564181</ele>
      </trkpt>
      <trkpt lat="48.159535" lon="24.945287">
        <ele>536.8968170653518</ele>
      </trkpt>
    </trkseg>
  </trk>
</gpx>
