<?xml version="1.0" encoding="UTF-8"?>
<gpx version="1.1" creator="phpGPX/1.0RC5" schemaLocation="http://www.topografix.com/GPX/1/1 http://www.topografix.com/GPX/1/1/gpx.xsd http://www.garmin.com/xmlschemas/GpxExtensions/v3 http://www.garmin.com/xmlschemas/GpxExtensionsv3.xsd http://www.garmin.com/xmlschemas/TrackPointExtension/v1 http://www.garmin.com/xmlschemas/TrackPointExtensionv1.xsd http://www.garmin.com/xmlschemas/PowerExtension/v1 http://www.garmin.com/xmlschemas/PowerExtensionv1.xsd http://www.topografix.com/GPX/gpx_style/0/2 http://www.topografix.com/GPX/gpx_style/0/2/gpx_style.xsd" xmlns="http://www.topografix.com/GPX/1/1" xmlns:xsi="http://www.w3.org/2001/XMLSchema-instance" xsi:schemaLocation="http://www.topografix.com/GPX/1/1 http://www.topografix.com/GPX/1/1/gpx.xsd http://www.garmin.com/xmlschemas/GpxExtensions/v3 http://www.garmin.com/xmlschemas/GpxExtensionsv3.xsd http://www.garmin.com/xmlschemas/TrackPointExtension/v1 http://www.garmin.com/xmlschemas/TrackPointExtensionv1.xsd http://www.garmin.com/xmlschemas/PowerExtension/v1 http://www.garmin.com/xmlschemas/PowerExtensionv1.xsd http://www.topografix.com/GPX/gpx_style/0/2 http://www.topografix.com/GPX/gpx_style/0/2/gpx_style.xsd" xmlns:gpxtpx="http://www.garmin.com/xmlschemas/TrackPointExtension/v1" xmlns:gpxx="http://www.garmin.com/xmlschemas/GpxExtensions/v3" xmlns:gpxpx="http://www.garmin.com/xmlschemas/PowerExtension/v1" xmlns:gpx_style="http://www.topografix.com/GPX/gpx_style/0/2">
  <metadata>
    <name>Полонина Гропа з села Кваси</name>
    <author>
      <name>gpx.studio</name>
      <link href="https://gpx.studio"/>
    </author>
  </metadata>
  <trk>
    <name>Полонина Гропа з села Кваси</name>
    <trkseg>
      <trkpt lat="48.192568" lon="24.29876">
        <ele>589.1952853333205</ele>
      </trkpt>
      <trkpt lat="48.192865" lon="24.297898">
        <ele>600.0731798311958</ele>
      </trkpt>
      <trkpt lat="48.192987" lon="24.297709">
        <ele>602.7047032269738</ele>
      </trkpt>
      <trkpt lat="48.193095" lon="24.297497">
        <ele>605.7120058731558</ele>
      </trkpt>
      <trkpt lat="48.193226" lon="24.297197">
        <ele>609.5633850421291</ele>
      </trkpt>
      <trkpt lat="48.193356" lon="24.296772">
        <ele>612.9271721127996</ele>
      </trkpt>
      <trkpt lat="48.193539" lon="24.296591">
        <ele>616.2582835228895</ele>
      </trkpt>
      <trkpt lat="48.193644" lon="24.296489">
        <ele>618.8749200370237</ele>
      </trkpt>
      <trkpt lat="48.193767" lon="24.296273">
        <ele>621.6746991120981</ele>
      </trkpt>
      <trkpt lat="48.193928" lon="24.296287">
        <ele>625.5892778748672</ele>
      </trkpt>
      <trkpt lat="48.194093" lon="24.296146">
        <ele>630.2725290380612</ele>
      </trkpt>
      <trkpt lat="48.194208" lon="24.295994">
        <ele>634.0940565686401</ele>
      </trkpt>
      <trkpt lat="48.194263" lon="24.295839">
        <ele>635.6952373175081</ele>
      </trkpt>
      <trkpt lat="48.194286" lon="24.295736">
        <ele>636.4311181377303</ele>
      </trkpt>
      <trkpt lat="48.194396" lon="24.295574">
        <ele>641.8367575480294</ele>
      </trkpt>
      <trkpt lat="48.194566" lon="24.295338">
        <ele>648.3422309047018</ele>
      </trkpt>
      <trkpt lat="48.194731" lon="24.295158">
        <ele>652.9920433491814</ele>
      </trkpt>
      <trkpt lat="48.194903" lon="24.294948">
        <ele>655.6832950064929</ele>
      </trkpt>
      <trkpt lat="48.195068" lon="24.294929">
        <ele>661.8108211177168</ele>
      </trkpt>
      <trkpt lat="48.195329" lon="24.294775">
        <ele>671.4038887869101</ele>
      </trkpt>
      <trkpt lat="48.195448" lon="24.294698">
        <ele>676.0629110999676</ele>
      </trkpt>
      <trkpt lat="48.195535" lon="24.294578">
        <ele>677.8531725221085</ele>
      </trkpt>
      <trkpt lat="48.195673" lon="24.294446">
        <ele>680.154997020727</ele>
      </trkpt>
      <trkpt lat="48.195857" lon="24.294423">
        <ele>685.3281773084836</ele>
      </trkpt>
      <trkpt lat="48.196157" lon="24.294224">
        <ele>693.4496348968058</ele>
      </trkpt>
      <trkpt lat="48.196196" lon="24.293755">
        <ele>689.6917740992455</ele>
      </trkpt>
      <trkpt lat="48.1962" lon="24.293254">
        <ele>691.6115900145378</ele>
      </trkpt>
      <trkpt lat="48.196354" lon="24.292689">
        <ele>699.4858180004687</ele>
      </trkpt>
      <trkpt lat="48.196535" lon="24.2923">
        <ele>704.6481158974739</ele>
      </trkpt>
      <trkpt lat="48.196629" lon="24.291902">
        <ele>708.7039608092941</ele>
      </trkpt>
      <trkpt lat="48.196603" lon="24.291628">
        <ele>711.9012351019774</ele>
      </trkpt>
      <trkpt lat="48.196712" lon="24.28979">
        <ele>735.0982224260748</ele>
      </trkpt>
      <trkpt lat="48.196832" lon="24.289437">
        <ele>739.7855197687168</ele>
      </trkpt>
      <trkpt lat="48.196964" lon="24.288987">
        <ele>746.4715468745061</ele>
      </trkpt>
      <trkpt lat="48.197105" lon="24.288631">
        <ele>753.2404719243059</ele>
      </trkpt>
      <trkpt lat="48.197199" lon="24.288259">
        <ele>759.4503367982106</ele>
      </trkpt>
      <trkpt lat="48.197341" lon="24.287742">
        <ele>770.5043835075038</ele>
      </trkpt>
      <trkpt lat="48.197547" lon="24.286961">
        <ele>790.8568645957757</ele>
      </trkpt>
      <trkpt lat="48.19759" lon="24.286452">
        <ele>798.6127400039048</ele>
      </trkpt>
      <trkpt lat="48.197716" lon="24.285752">
        <ele>802.5025926506271</ele>
      </trkpt>
      <trkpt lat="48.197841" lon="24.285573">
        <ele>807.2917978324436</ele>
      </trkpt>
      <trkpt lat="48.197994" lon="24.285714">
        <ele>814.3889480219359</ele>
      </trkpt>
      <trkpt lat="48.198085" lon="24.286022">
        <ele>821.3826452845748</ele>
      </trkpt>
      <trkpt lat="48.198164" lon="24.286467">
        <ele>830.9526547647721</ele>
      </trkpt>
      <trkpt lat="48.19815" lon="24.286923">
        <ele>833.5459834975705</ele>
      </trkpt>
      <trkpt lat="48.198361" lon="24.287333">
        <ele>841.473411488696</ele>
      </trkpt>
      <trkpt lat="48.198572" lon="24.28787">
        <ele>847.7249729692147</ele>
      </trkpt>
      <trkpt lat="48.198713" lon="24.288116">
        <ele>852.2886587677058</ele>
      </trkpt>
      <trkpt lat="48.198803" lon="24.288342">
        <ele>854.0451622130415</ele>
      </trkpt>
      <trkpt lat="48.198946" lon="24.288552">
        <ele>857.7976346185478</ele>
      </trkpt>
      <trkpt lat="48.199085" lon="24.288917">
        <ele>861.2592431996018</ele>
      </trkpt>
      <trkpt lat="48.199211" lon="24.289386">
        <ele>867.3010538374656</ele>
      </trkpt>
      <trkpt lat="48.199274" lon="24.290167">
        <ele>868.3878729126882</ele>
      </trkpt>
      <trkpt lat="48.199328" lon="24.290567">
        <ele>866.2478137195928</ele>
      </trkpt>
      <trkpt lat="48.199483" lon="24.290838">
        <ele>864.0182762489421</ele>
      </trkpt>
      <trkpt lat="48.199642" lon="24.290919">
        <ele>865.3873983172772</ele>
      </trkpt>
      <trkpt lat="48.19973" lon="24.290588">
        <ele>873.0865627321182</ele>
      </trkpt>
      <trkpt lat="48.199762" lon="24.289892">
        <ele>881.8183223924134</ele>
      </trkpt>
      <trkpt lat="48.199962" lon="24.289311">
        <ele>895.9293648293977</ele>
      </trkpt>
      <trkpt lat="48.199879" lon="24.288025">
        <ele>909.6428314220975</ele>
      </trkpt>
      <trkpt lat="48.199827" lon="24.287319">
        <ele>910.0660333018984</ele>
      </trkpt>
      <trkpt lat="48.199853" lon="24.286774">
        <ele>912.6079150550067</ele>
      </trkpt>
      <trkpt lat="48.199857" lon="24.28624">
        <ele>915.3134984907811</ele>
      </trkpt>
      <trkpt lat="48.199941" lon="24.285963">
        <ele>922.235883874353</ele>
      </trkpt>
      <trkpt lat="48.200042" lon="24.285938">
        <ele>926.7615682979813</ele>
      </trkpt>
      <trkpt lat="48.200172" lon="24.286221">
        <ele>927.9524798923239</ele>
      </trkpt>
      <trkpt lat="48.200295" lon="24.286499">
        <ele>931.3396055786872</ele>
      </trkpt>
      <trkpt lat="48.200424" lon="24.286784">
        <ele>936.1862723310503</ele>
      </trkpt>
      <trkpt lat="48.2005" lon="24.287237">
        <ele>939.5716999083619</ele>
      </trkpt>
      <trkpt lat="48.200721" lon="24.28812">
        <ele>943.8450242616237</ele>
      </trkpt>
      <trkpt lat="48.20083" lon="24.288332">
        <ele>945.5801828657277</ele>
      </trkpt>
      <trkpt lat="48.200985" lon="24.288627">
        <ele>948.4212629554094</ele>
      </trkpt>
      <trkpt lat="48.201141" lon="24.288762">
        <ele>952.5533862831071</ele>
      </trkpt>
      <trkpt lat="48.201299" lon="24.289044">
        <ele>954.4331153160035</ele>
      </trkpt>
      <trkpt lat="48.201422" lon="24.289407">
        <ele>952.8461794786291</ele>
      </trkpt>
      <trkpt lat="48.201532" lon="24.289571">
        <ele>951.1867695177317</ele>
      </trkpt>
      <trkpt lat="48.201653" lon="24.289844">
        <ele>947.9589135301089</ele>
      </trkpt>
      <trkpt lat="48.201928" lon="24.289871">
        <ele>951.1635051285814</ele>
      </trkpt>
      <trkpt lat="48.202076" lon="24.289726">
        <ele>957.618927245659</ele>
      </trkpt>
      <trkpt lat="48.202197" lon="24.289554">
        <ele>963.5051181575301</ele>
      </trkpt>
      <trkpt lat="48.2023" lon="24.289441">
        <ele>968.4156331381892</ele>
      </trkpt>
      <trkpt lat="48.202366" lon="24.289242">
        <ele>972.8276426578374</ele>
      </trkpt>
      <trkpt lat="48.202416" lon="24.289081">
        <ele>976.261986824634</ele>
      </trkpt>
      <trkpt lat="48.202502" lon="24.28899">
        <ele>980.1422112930715</ele>
      </trkpt>
      <trkpt lat="48.202555" lon="24.288896">
        <ele>982.7003078063022</ele>
      </trkpt>
      <trkpt lat="48.202618" lon="24.288833">
        <ele>985.8277173156733</ele>
      </trkpt>
      <trkpt lat="48.202793" lon="24.2886">
        <ele>995.2159332240473</ele>
      </trkpt>
      <trkpt lat="48.202968" lon="24.288374">
        <ele>1002.49315510632</ele>
      </trkpt>
      <trkpt lat="48.203084" lon="24.28816">
        <ele>1006.9873954120266</ele>
      </trkpt>
      <trkpt lat="48.203248" lon="24.287634">
        <ele>1013.8489679197666</ele>
      </trkpt>
      <trkpt lat="48.203387" lon="24.286903">
        <ele>1020.6589444139972</ele>
      </trkpt>
      <trkpt lat="48.203512" lon="24.286698">
        <ele>1024.2967563292373</ele>
      </trkpt>
      <trkpt lat="48.203647" lon="24.286438">
        <ele>1025.3343386184001</ele>
      </trkpt>
      <trkpt lat="48.203763" lon="24.28634">
        <ele>1026.0571100405068</ele>
      </trkpt>
      <trkpt lat="48.203949" lon="24.286028">
        <ele>1024.2236372584352</ele>
      </trkpt>
      <trkpt lat="48.204131" lon="24.285923">
        <ele>1026.6419086497044</ele>
      </trkpt>
      <trkpt lat="48.204333" lon="24.285888">
        <ele>1032.4292066026053</ele>
      </trkpt>
      <trkpt lat="48.204439" lon="24.285837">
        <ele>1035.726317802239</ele>
      </trkpt>
      <trkpt lat="48.204541" lon="24.2858">
        <ele>1040.086748756779</ele>
      </trkpt>
      <trkpt lat="48.204837" lon="24.285612">
        <ele>1057.1158489151858</ele>
      </trkpt>
      <trkpt lat="48.204939" lon="24.285301">
        <ele>1063.3862666452292</ele>
      </trkpt>
      <trkpt lat="48.20498" lon="24.285136">
        <ele>1065.8170419563614</ele>
      </trkpt>
      <trkpt lat="48.205099" lon="24.284774">
        <ele>1070.2854898486985</ele>
      </trkpt>
      <trkpt lat="48.205069" lon="24.284695">
        <ele>1070.912623133976</ele>
      </trkpt>
      <trkpt lat="48.205049" lon="24.284551">
        <ele>1072.8232735863353</ele>
      </trkpt>
      <trkpt lat="48.205022" lon="24.284364">
        <ele>1076.6472070066209</ele>
      </trkpt>
      <trkpt lat="48.204996" lon="24.284176">
        <ele>1080.8488562680545</ele>
      </trkpt>
      <trkpt lat="48.204885" lon="24.283983">
        <ele>1082.9328628375065</ele>
      </trkpt>
      <trkpt lat="48.204785" lon="24.283739">
        <ele>1085.3380452948622</ele>
      </trkpt>
      <trkpt lat="48.204754" lon="24.283263">
        <ele>1095.4921437252858</ele>
      </trkpt>
      <trkpt lat="48.204727" lon="24.282679">
        <ele>1104.7069352937058</ele>
      </trkpt>
      <trkpt lat="48.204591" lon="24.282063">
        <ele>1104.7770981156702</ele>
      </trkpt>
      <trkpt lat="48.20457" lon="24.28169">
        <ele>1110.6093856301345</ele>
      </trkpt>
      <trkpt lat="48.204577" lon="24.281438">
        <ele>1115.4845882493537</ele>
      </trkpt>
      <trkpt lat="48.204316" lon="24.280516">
        <ele>1120.536725355228</ele>
      </trkpt>
      <trkpt lat="48.204329" lon="24.280332">
        <ele>1125.5130574837947</ele>
      </trkpt>
      <trkpt lat="48.204322" lon="24.280165">
        <ele>1127.8695729536357</ele>
      </trkpt>
      <trkpt lat="48.204358" lon="24.279695">
        <ele>1133.5886284781632</ele>
      </trkpt>
      <trkpt lat="48.204389" lon="24.279288">
        <ele>1137.1042300498948</ele>
      </trkpt>
      <trkpt lat="48.204439" lon="24.278362">
        <ele>1138.0556079145163</ele>
      </trkpt>
      <trkpt lat="48.204251" lon="24.27771">
        <ele>1141.5871858106111</ele>
      </trkpt>
      <trkpt lat="48.204083" lon="24.277216">
        <ele>1152.7892440625003</ele>
      </trkpt>
      <trkpt lat="48.203934" lon="24.276872">
        <ele>1156.374519337085</ele>
      </trkpt>
      <trkpt lat="48.203803" lon="24.276671">
        <ele>1154.022975164609</ele>
      </trkpt>
      <trkpt lat="48.203664" lon="24.276335">
        <ele>1155.991641968931</ele>
      </trkpt>
      <trkpt lat="48.203511" lon="24.275928">
        <ele>1160.6065377221094</ele>
      </trkpt>
      <trkpt lat="48.203389" lon="24.27562">
        <ele>1163.7840432906526</ele>
      </trkpt>
      <trkpt lat="48.203255" lon="24.275303">
        <ele>1164.154434545897</ele>
      </trkpt>
      <trkpt lat="48.203241" lon="24.275032">
        <ele>1164.209945879993</ele>
      </trkpt>
      <trkpt lat="48.203216" lon="24.274781">
        <ele>1162.982501449606</ele>
      </trkpt>
      <trkpt lat="48.203313" lon="24.274103">
        <ele>1173.1415160896513</ele>
      </trkpt>
      <trkpt lat="48.203261" lon="24.273547">
        <ele>1173.4308392668026</ele>
      </trkpt>
      <trkpt lat="48.203392" lon="24.273147">
        <ele>1179.5529306988255</ele>
      </trkpt>
      <trkpt lat="48.203448" lon="24.273044">
        <ele>1181.3344034815673</ele>
      </trkpt>
      <trkpt lat="48.203512" lon="24.272966">
        <ele>1183.4444988535147</ele>
      </trkpt>
      <trkpt lat="48.203643" lon="24.272711">
        <ele>1184.0050370209956</ele>
      </trkpt>
      <trkpt lat="48.203778" lon="24.272471">
        <ele>1183.8175912098677</ele>
      </trkpt>
      <trkpt lat="48.203826" lon="24.272365">
        <ele>1183.6653235468548</ele>
      </trkpt>
      <trkpt lat="48.203897" lon="24.272227">
        <ele>1183.724587015897</ele>
      </trkpt>
      <trkpt lat="48.204025" lon="24.271969">
        <ele>1185.609020654028</ele>
      </trkpt>
      <trkpt lat="48.204205" lon="24.271742">
        <ele>1190.4044661729847</ele>
      </trkpt>
      <trkpt lat="48.204291" lon="24.271653">
        <ele>1193.4030739382417</ele>
      </trkpt>
      <trkpt lat="48.204309" lon="24.271617">
        <ele>1193.7171297386349</ele>
      </trkpt>
      <trkpt lat="48.20436" lon="24.271609">
        <ele>1196.5439522054444</ele>
      </trkpt>
      <trkpt lat="48.204469" lon="24.271502">
        <ele>1201.4845014547013</ele>
      </trkpt>
      <trkpt lat="48.204586" lon="24.271402">
        <ele>1207.2984319296268</ele>
      </trkpt>
      <trkpt lat="48.204787" lon="24.271234">
        <ele>1214.3428026308677</ele>
      </trkpt>
      <trkpt lat="48.205001" lon="24.271087">
        <ele>1214.5307119280237</ele>
      </trkpt>
      <trkpt lat="48.205128" lon="24.271038">
        <ele>1215.7464136445262</ele>
      </trkpt>
      <trkpt lat="48.205434" lon="24.270825">
        <ele>1222.9441039287485</ele>
      </trkpt>
      <trkpt lat="48.205691" lon="24.270758">
        <ele>1232.5934331423282</ele>
      </trkpt>
      <trkpt lat="48.205853" lon="24.270594">
        <ele>1234.278375974182</ele>
      </trkpt>
      <trkpt lat="48.206084" lon="24.27049">
        <ele>1241.7054089517637</ele>
      </trkpt>
      <trkpt lat="48.206235" lon="24.270386">
        <ele>1245.998109106149</ele>
      </trkpt>
      <trkpt lat="48.206396" lon="24.270316">
        <ele>1249.6706848229278</ele>
      </trkpt>
      <trkpt lat="48.206785" lon="24.270221">
        <ele>1259.87231055519</ele>
      </trkpt>
      <trkpt lat="48.206967" lon="24.270008">
        <ele>1266.2622531781672</ele>
      </trkpt>
      <trkpt lat="48.207105" lon="24.269637">
        <ele>1272.334211997948</ele>
      </trkpt>
      <trkpt lat="48.207225" lon="24.269345">
        <ele>1275.9804773524536</ele>
      </trkpt>
      <trkpt lat="48.207331" lon="24.269227">
        <ele>1279.3384470038666</ele>
      </trkpt>
      <trkpt lat="48.207437" lon="24.269122">
        <ele>1282.9578190147877</ele>
      </trkpt>
      <trkpt lat="48.207568" lon="24.268902">
        <ele>1287.6317618149333</ele>
      </trkpt>
      <trkpt lat="48.207754" lon="24.268702">
        <ele>1294.3018611202715</ele>
      </trkpt>
      <trkpt lat="48.20795" lon="24.268534">
        <ele>1300.185450421313</ele>
      </trkpt>
      <trkpt lat="48.208111" lon="24.268401">
        <ele>1304.3739416887984</ele>
      </trkpt>
      <trkpt lat="48.208241" lon="24.268297">
        <ele>1307.1018796206918</ele>
      </trkpt>
      <trkpt lat="48.208431" lon="24.268228">
        <ele>1312.8628114050953</ele>
      </trkpt>
      <trkpt lat="48.208553" lon="24.268095">
        <ele>1314.9755180168431</ele>
      </trkpt>
      <trkpt lat="48.208656" lon="24.267929">
        <ele>1315.2943485329029</ele>
      </trkpt>
      <trkpt lat="48.208777" lon="24.267754">
        <ele>1315.4843129578512</ele>
      </trkpt>
      <trkpt lat="48.208745" lon="24.267416">
        <ele>1314.8111673156445</ele>
      </trkpt>
      <trkpt lat="48.208707" lon="24.267318">
        <ele>1315.2256841717353</ele>
      </trkpt>
      <trkpt lat="48.208647" lon="24.267218">
        <ele>1315.6009631532943</ele>
      </trkpt>
    </trkseg>
  </trk>
</gpx>
