<?xml version="1.0" encoding="UTF-8"?>
<gpx version="1.1" creator="phpGPX/1.0RC5" schemaLocation="http://www.topografix.com/GPX/1/1 http://www.topografix.com/GPX/1/1/gpx.xsd http://www.garmin.com/xmlschemas/GpxExtensions/v3 http://www.garmin.com/xmlschemas/GpxExtensionsv3.xsd http://www.garmin.com/xmlschemas/TrackPointExtension/v1 http://www.garmin.com/xmlschemas/TrackPointExtensionv1.xsd http://www.garmin.com/xmlschemas/PowerExtension/v1 http://www.garmin.com/xmlschemas/PowerExtensionv1.xsd http://www.topografix.com/GPX/gpx_style/0/2 http://www.topografix.com/GPX/gpx_style/0/2/gpx_style.xsd" xmlns="http://www.topografix.com/GPX/1/1" xmlns:xsi="http://www.w3.org/2001/XMLSchema-instance" xsi:schemaLocation="http://www.topografix.com/GPX/1/1 http://www.topografix.com/GPX/1/1/gpx.xsd http://www.garmin.com/xmlschemas/GpxExtensions/v3 http://www.garmin.com/xmlschemas/GpxExtensionsv3.xsd http://www.garmin.com/xmlschemas/TrackPointExtension/v1 http://www.garmin.com/xmlschemas/TrackPointExtensionv1.xsd http://www.garmin.com/xmlschemas/PowerExtension/v1 http://www.garmin.com/xmlschemas/PowerExtensionv1.xsd http://www.topografix.com/GPX/gpx_style/0/2 http://www.topografix.com/GPX/gpx_style/0/2/gpx_style.xsd" xmlns:gpxtpx="http://www.garmin.com/xmlschemas/TrackPointExtension/v1" xmlns:gpxx="http://www.garmin.com/xmlschemas/GpxExtensions/v3" xmlns:gpxpx="http://www.garmin.com/xmlschemas/PowerExtension/v1" xmlns:gpx_style="http://www.topografix.com/GPX/gpx_style/0/2">
  <metadata>
    <name>Полонина Боржава з Воловця в Пилипець</name>
    <author>
      <name>gpx.studio</name>
      <link href="https://gpx.studio"/>
    </author>
  </metadata>
  <trk>
    <name>Полонина Боржава з Воловця в Пилипець</name>
    <trkseg>
      <trkpt lat="48.714261" lon="23.181269">
        <ele>487.66919995320495</ele>
      </trkpt>
      <trkpt lat="48.714077" lon="23.181119">
        <ele>489.33824068842944</ele>
      </trkpt>
      <trkpt lat="48.712789" lon="23.181141">
        <ele>491.1188748327608</ele>
      </trkpt>
      <trkpt lat="48.712987" lon="23.182342">
        <ele>499.38063372296216</ele>
      </trkpt>
      <trkpt lat="48.71259" lon="23.185067">
        <ele>499.2952558471857</ele>
      </trkpt>
      <trkpt lat="48.711982" lon="23.184102">
        <ele>512.3076193492491</ele>
      </trkpt>
      <trkpt lat="48.71075" lon="23.185926">
        <ele>539.989777570474</ele>
      </trkpt>
      <trkpt lat="48.709929" lon="23.187042">
        <ele>554.6055241703759</ele>
      </trkpt>
      <trkpt lat="48.708626" lon="23.189016">
        <ele>585.0518729331358</ele>
      </trkpt>
      <trkpt lat="48.707734" lon="23.190818">
        <ele>604.2508887082473</ele>
      </trkpt>
      <trkpt lat="48.706474" lon="23.193565">
        <ele>614.4688136787154</ele>
      </trkpt>
      <trkpt lat="48.70562" lon="23.195404">
        <ele>609.3539408141514</ele>
      </trkpt>
      <trkpt lat="48.704133" lon="23.197078">
        <ele>602.8696389899123</ele>
      </trkpt>
      <trkpt lat="48.702433" lon="23.197292">
        <ele>586.9432952029165</ele>
      </trkpt>
      <trkpt lat="48.700961" lon="23.197121">
        <ele>571.4776430240018</ele>
      </trkpt>
      <trkpt lat="48.699351" lon="23.197335">
        <ele>560.0485887704319</ele>
      </trkpt>
      <trkpt lat="48.697736" lon="23.198365">
        <ele>569.9747326226102</ele>
      </trkpt>
      <trkpt lat="48.695428" lon="23.200854">
        <ele>639.9026863111739</ele>
      </trkpt>
      <trkpt lat="48.694592" lon="23.202399">
        <ele>656.7032583878508</ele>
      </trkpt>
      <trkpt lat="48.694132" lon="23.203939">
        <ele>675.7547267688528</ele>
      </trkpt>
      <trkpt lat="48.692135" lon="23.205377">
        <ele>724.5808772633318</ele>
      </trkpt>
      <trkpt lat="48.690732" lon="23.207501">
        <ele>770.2889070640798</ele>
      </trkpt>
      <trkpt lat="48.689854" lon="23.205913">
        <ele>799.2659795260988</ele>
      </trkpt>
      <trkpt lat="48.688933" lon="23.206042">
        <ele>825.9120275983381</ele>
      </trkpt>
      <trkpt lat="48.688962" lon="23.2066">
        <ele>854.3919540196657</ele>
      </trkpt>
      <trkpt lat="48.687814" lon="23.205055">
        <ele>862.4202230239925</ele>
      </trkpt>
      <trkpt lat="48.686384" lon="23.205999">
        <ele>916.9353580034802</ele>
      </trkpt>
      <trkpt lat="48.685845" lon="23.205484">
        <ele>910.9067981954307</ele>
      </trkpt>
      <trkpt lat="48.683522" lon="23.206128">
        <ele>944.3062943313271</ele>
      </trkpt>
      <trkpt lat="48.681976" lon="23.206764">
        <ele>969.1584195291141</ele>
      </trkpt>
      <trkpt lat="48.68124" lon="23.20612">
        <ele>978.948292146843</ele>
      </trkpt>
      <trkpt lat="48.680276" lon="23.206807">
        <ele>1003.5172120295218</ele>
      </trkpt>
      <trkpt lat="48.679086" lon="23.206592">
        <ele>1021.8160649140369</ele>
      </trkpt>
      <trkpt lat="48.678633" lon="23.204876">
        <ele>1015.9148527320939</ele>
      </trkpt>
      <trkpt lat="48.676989" lon="23.204532">
        <ele>1047.1066633403386</ele>
      </trkpt>
      <trkpt lat="48.675856" lon="23.202386">
        <ele>1042.6757742254995</ele>
      </trkpt>
      <trkpt lat="48.675969" lon="23.199983">
        <ele>1055.4116946101303</ele>
      </trkpt>
      <trkpt lat="48.677216" lon="23.197966">
        <ele>1057.698232332943</ele>
      </trkpt>
      <trkpt lat="48.677698" lon="23.194662">
        <ele>1060.552654608592</ele>
      </trkpt>
      <trkpt lat="48.676762" lon="23.194919">
        <ele>1085.7151193272439</ele>
      </trkpt>
      <trkpt lat="48.676592" lon="23.195606">
        <ele>1094.967900347372</ele>
      </trkpt>
      <trkpt lat="48.675487" lon="23.197194">
        <ele>1116.73710173578</ele>
      </trkpt>
      <trkpt lat="48.67424" lon="23.19758">
        <ele>1141.8617865772235</ele>
      </trkpt>
      <trkpt lat="48.67203" lon="23.199597">
        <ele>1237.8393881239463</ele>
      </trkpt>
      <trkpt lat="48.671435" lon="23.199382">
        <ele>1250.587486433098</ele>
      </trkpt>
      <trkpt lat="48.669026" lon="23.199382">
        <ele>1294.386690585045</ele>
      </trkpt>
      <trkpt lat="48.667524" lon="23.197795">
        <ele>1328.742757394376</ele>
      </trkpt>
      <trkpt lat="48.666438" lon="23.196983">
        <ele>1328.9002420965166</ele>
      </trkpt>
      <trkpt lat="48.664397" lon="23.196597">
        <ele>1305.6687789996445</ele>
      </trkpt>
      <trkpt lat="48.662158" lon="23.199687">
        <ele>1271.8449750817433</ele>
      </trkpt>
      <trkpt lat="48.660542" lon="23.201961">
        <ele>1270.181143488714</ele>
      </trkpt>
      <trkpt lat="48.659749" lon="23.204665">
        <ele>1267.2867603684947</ele>
      </trkpt>
      <trkpt lat="48.658927" lon="23.206467">
        <ele>1285.01452124661</ele>
      </trkpt>
      <trkpt lat="48.657541" lon="23.208108">
        <ele>1304.9643014247</ele>
      </trkpt>
      <trkpt lat="48.65584" lon="23.214459">
        <ele>1321.2390186771768</ele>
      </trkpt>
      <trkpt lat="48.653232" lon="23.219438">
        <ele>1376.5370001906574</ele>
      </trkpt>
      <trkpt lat="48.650057" lon="23.227677">
        <ele>1497.9930261880063</ele>
      </trkpt>
      <trkpt lat="48.64742" lon="23.229699">
        <ele>1593.9536633118987</ele>
      </trkpt>
      <trkpt lat="48.64277" lon="23.229056">
        <ele>1568.1855268286893</ele>
      </trkpt>
      <trkpt lat="48.640501" lon="23.233433">
        <ele>1477.2881212506911</ele>
      </trkpt>
      <trkpt lat="48.640983" lon="23.237982">
        <ele>1426.5986421759558</ele>
      </trkpt>
      <trkpt lat="48.641125" lon="23.241973">
        <ele>1387.7988118148414</ele>
      </trkpt>
      <trkpt lat="48.640139" lon="23.244881">
        <ele>1377.4838469753738</ele>
      </trkpt>
      <trkpt lat="48.638325" lon="23.2484">
        <ele>1345.7140350123652</ele>
      </trkpt>
      <trkpt lat="48.637219" lon="23.251447">
        <ele>1362.2392088176875</ele>
      </trkpt>
      <trkpt lat="48.635092" lon="23.258271">
        <ele>1422.9988374012755</ele>
      </trkpt>
      <trkpt lat="48.636695" lon="23.260074">
        <ele>1375.4848342656624</ele>
      </trkpt>
      <trkpt lat="48.639346" lon="23.265417">
        <ele>1201.8150938970502</ele>
      </trkpt>
      <trkpt lat="48.640708" lon="23.266253">
        <ele>1147.2481408736203</ele>
      </trkpt>
      <trkpt lat="48.641856" lon="23.268206">
        <ele>1089.624745449517</ele>
      </trkpt>
      <trkpt lat="48.642877" lon="23.267756">
        <ele>1072.0866569441596</ele>
      </trkpt>
      <trkpt lat="48.643444" lon="23.267734">
        <ele>1066.9849842952233</ele>
      </trkpt>
      <trkpt lat="48.644762" lon="23.267026">
        <ele>1048.454440194126</ele>
      </trkpt>
      <trkpt lat="48.645556" lon="23.266811">
        <ele>1013.2795307331342</ele>
      </trkpt>
      <trkpt lat="48.645925" lon="23.267198">
        <ele>981.8394974830727</ele>
      </trkpt>
      <trkpt lat="48.648122" lon="23.267155">
        <ele>935.7627170489867</ele>
      </trkpt>
      <trkpt lat="48.648817" lon="23.266897">
        <ele>922.6294306764612</ele>
      </trkpt>
      <trkpt lat="48.651029" lon="23.268185">
        <ele>871.8707697446806</ele>
      </trkpt>
      <trkpt lat="48.651922" lon="23.26827">
        <ele>860.3096725398209</ele>
      </trkpt>
      <trkpt lat="48.653226" lon="23.267992">
        <ele>837.0504994692747</ele>
      </trkpt>
      <trkpt lat="48.653509" lon="23.268399">
        <ele>829.615879692901</ele>
      </trkpt>
      <trkpt lat="48.653963" lon="23.268614">
        <ele>821.9058463192663</ele>
      </trkpt>
      <trkpt lat="48.655083" lon="23.26885">
        <ele>811.1822553438833</ele>
      </trkpt>
      <trkpt lat="48.655593" lon="23.269343">
        <ele>796.6225747032998</ele>
      </trkpt>
      <trkpt lat="48.656047" lon="23.269322">
        <ele>786.0568942116806</ele>
      </trkpt>
      <trkpt lat="48.656472" lon="23.269494">
        <ele>778.9852111553732</ele>
      </trkpt>
      <trkpt lat="48.656982" lon="23.270609">
        <ele>764.7689289053072</ele>
      </trkpt>
      <trkpt lat="48.657181" lon="23.270717">
        <ele>756.4873427818436</ele>
      </trkpt>
      <trkpt lat="48.657776" lon="23.271682">
        <ele>746.2469425778836</ele>
      </trkpt>
      <trkpt lat="48.658159" lon="23.271768">
        <ele>747.498895598464</ele>
      </trkpt>
      <trkpt lat="48.658329" lon="23.272219">
        <ele>744.8469217567415</ele>
      </trkpt>
      <trkpt lat="48.658272" lon="23.273485">
        <ele>734.8879794370914</ele>
      </trkpt>
      <trkpt lat="48.658697" lon="23.274772">
        <ele>725.556644613235</ele>
      </trkpt>
      <trkpt lat="48.659307" lon="23.275652">
        <ele>718.9409696309757</ele>
      </trkpt>
      <trkpt lat="48.659633" lon="23.276575">
        <ele>713.0140023305421</ele>
      </trkpt>
      <trkpt lat="48.659774" lon="23.278162">
        <ele>713.5659869974036</ele>
      </trkpt>
      <trkpt lat="48.660157" lon="23.278785">
        <ele>707.1242773333797</ele>
      </trkpt>
      <trkpt lat="48.660455" lon="23.281724">
        <ele>695.0665511729894</ele>
      </trkpt>
      <trkpt lat="48.660313" lon="23.284385">
        <ele>687.0003626411781</ele>
      </trkpt>
      <trkpt lat="48.660625" lon="23.285372">
        <ele>684.6268160316977</ele>
      </trkpt>
      <trkpt lat="48.660724" lon="23.286381">
        <ele>681.1249621349402</ele>
      </trkpt>
      <trkpt lat="48.660837" lon="23.286703">
        <ele>681.3551350614994</ele>
      </trkpt>
      <trkpt lat="48.661538" lon="23.289157">
        <ele>674.177611869713</ele>
      </trkpt>
      <trkpt lat="48.662728" lon="23.292933">
        <ele>666.7929224846883</ele>
      </trkpt>
      <trkpt lat="48.664429" lon="23.298469">
        <ele>657.3402380872374</ele>
      </trkpt>
      <trkpt lat="48.664032" lon="23.300486">
        <ele>649.9261108445935</ele>
      </trkpt>
      <trkpt lat="48.664032" lon="23.304134">
        <ele>646.5186285271462</ele>
      </trkpt>
      <trkpt lat="48.663437" lon="23.30761">
        <ele>638.6781976560596</ele>
      </trkpt>
      <trkpt lat="48.663352" lon="23.312417">
        <ele>632.2645235850941</ele>
      </trkpt>
      <trkpt lat="48.66219" lon="23.318768">
        <ele>618.7552644756506</ele>
      </trkpt>
      <trkpt lat="48.66219" lon="23.321">
        <ele>617.1798309957376</ele>
      </trkpt>
      <trkpt lat="48.661849" lon="23.32336">
        <ele>607.1736671700729</ele>
      </trkpt>
      <trkpt lat="48.660659" lon="23.328295">
        <ele>608.1460081415717</ele>
      </trkpt>
      <trkpt lat="48.66118" lon="23.331731">
        <ele>612.1841688976857</ele>
      </trkpt>
      <trkpt lat="48.663249" lon="23.335121">
        <ele>598.446169453091</ele>
      </trkpt>
      <trkpt lat="48.665262" lon="23.337996">
        <ele>592.2681187370908</ele>
      </trkpt>
      <trkpt lat="48.667416" lon="23.340657">
        <ele>587.9737575047536</ele>
      </trkpt>
      <trkpt lat="48.668508" lon="23.341694">
        <ele>582.8631574601168</ele>
      </trkpt>
      <trkpt lat="48.670237" lon="23.341179">
        <ele>578.9823911341107</ele>
      </trkpt>
    </trkseg>
  </trk>
</gpx>
