<?xml version="1.0" encoding="UTF-8"?>
<gpx version="1.1" creator="phpGPX/1.0RC5" schemaLocation="http://www.topografix.com/GPX/1/1 http://www.topografix.com/GPX/1/1/gpx.xsd http://www.garmin.com/xmlschemas/GpxExtensions/v3 http://www.garmin.com/xmlschemas/GpxExtensionsv3.xsd http://www.garmin.com/xmlschemas/TrackPointExtension/v1 http://www.garmin.com/xmlschemas/TrackPointExtensionv1.xsd http://www.garmin.com/xmlschemas/PowerExtension/v1 http://www.garmin.com/xmlschemas/PowerExtensionv1.xsd http://www.topografix.com/GPX/gpx_style/0/2 http://www.topografix.com/GPX/gpx_style/0/2/gpx_style.xsd" xmlns="http://www.topografix.com/GPX/1/1" xmlns:xsi="http://www.w3.org/2001/XMLSchema-instance" xsi:schemaLocation="http://www.topografix.com/GPX/1/1 http://www.topografix.com/GPX/1/1/gpx.xsd http://www.garmin.com/xmlschemas/GpxExtensions/v3 http://www.garmin.com/xmlschemas/GpxExtensionsv3.xsd http://www.garmin.com/xmlschemas/TrackPointExtension/v1 http://www.garmin.com/xmlschemas/TrackPointExtensionv1.xsd http://www.garmin.com/xmlschemas/PowerExtension/v1 http://www.garmin.com/xmlschemas/PowerExtensionv1.xsd http://www.topografix.com/GPX/gpx_style/0/2 http://www.topografix.com/GPX/gpx_style/0/2/gpx_style.xsd" xmlns:gpxtpx="http://www.garmin.com/xmlschemas/TrackPointExtension/v1" xmlns:gpxx="http://www.garmin.com/xmlschemas/GpxExtensions/v3" xmlns:gpxpx="http://www.garmin.com/xmlschemas/PowerExtension/v1" xmlns:gpx_style="http://www.topografix.com/GPX/gpx_style/0/2">
  <metadata>
    <name>Полонина Явірник з села Ямна</name>
    <author>
      <name>gpx.studio</name>
      <link href="https://gpx.studio"/>
    </author>
  </metadata>
  <trk>
    <name>Полонина Явірник з села Ямна</name>
    <trkseg>
      <trkpt lat="48.430007" lon="24.567576">
        <ele>556.0633238571896</ele>
      </trkpt>
      <trkpt lat="48.4298" lon="24.56733">
        <ele>553.175621270233</ele>
      </trkpt>
      <trkpt lat="48.429615" lon="24.567094">
        <ele>549.5558355906899</ele>
      </trkpt>
      <trkpt lat="48.428825" lon="24.566675">
        <ele>549.6485405080019</ele>
      </trkpt>
      <trkpt lat="48.429174" lon="24.564937">
        <ele>549.1815124939894</ele>
      </trkpt>
      <trkpt lat="48.428502" lon="24.564422">
        <ele>552.0648974222131</ele>
      </trkpt>
      <trkpt lat="48.42757" lon="24.564036">
        <ele>553.6761087921607</ele>
      </trkpt>
      <trkpt lat="48.427228" lon="24.563414">
        <ele>555.9869741567625</ele>
      </trkpt>
      <trkpt lat="48.426993" lon="24.563231">
        <ele>557.6084100492745</ele>
      </trkpt>
      <trkpt lat="48.426338" lon="24.562426">
        <ele>559.314347606201</ele>
      </trkpt>
      <trkpt lat="48.426073" lon="24.562287">
        <ele>559.5835239721008</ele>
      </trkpt>
      <trkpt lat="48.425974" lon="24.56204">
        <ele>560.3763674292398</ele>
      </trkpt>
      <trkpt lat="48.425717" lon="24.561751">
        <ele>563.532388636907</ele>
      </trkpt>
      <trkpt lat="48.425418" lon="24.561557">
        <ele>566.6286796170859</ele>
      </trkpt>
      <trkpt lat="48.425098" lon="24.561418">
        <ele>565.769528336544</ele>
      </trkpt>
      <trkpt lat="48.424678" lon="24.56101">
        <ele>566.638817119466</ele>
      </trkpt>
      <trkpt lat="48.424308" lon="24.560088">
        <ele>572.8392249607604</ele>
      </trkpt>
      <trkpt lat="48.423731" lon="24.558832">
        <ele>582.6434891800163</ele>
      </trkpt>
      <trkpt lat="48.423759" lon="24.558317">
        <ele>585.9963486555498</ele>
      </trkpt>
      <trkpt lat="48.423631" lon="24.557631">
        <ele>592.6496714744391</ele>
      </trkpt>
      <trkpt lat="48.423546" lon="24.556751">
        <ele>598.8756038435968</ele>
      </trkpt>
      <trkpt lat="48.423688" lon="24.556665">
        <ele>602.1324246872682</ele>
      </trkpt>
      <trkpt lat="48.423731" lon="24.556354">
        <ele>607.5761591789569</ele>
      </trkpt>
      <trkpt lat="48.424051" lon="24.556">
        <ele>621.8395187001934</ele>
      </trkpt>
      <trkpt lat="48.4244" lon="24.555839">
        <ele>631.002358112077</ele>
      </trkpt>
      <trkpt lat="48.425048" lon="24.554927">
        <ele>651.6323078012133</ele>
      </trkpt>
      <trkpt lat="48.42529" lon="24.554069">
        <ele>664.780024314532</ele>
      </trkpt>
      <trkpt lat="48.425475" lon="24.553758">
        <ele>672.9190909419746</ele>
      </trkpt>
      <trkpt lat="48.425468" lon="24.553028">
        <ele>688.5185834500526</ele>
      </trkpt>
      <trkpt lat="48.425639" lon="24.552309">
        <ele>701.9584450079556</ele>
      </trkpt>
      <trkpt lat="48.42613" lon="24.551762">
        <ele>716.2920601919269</ele>
      </trkpt>
      <trkpt lat="48.426078" lon="24.551244">
        <ele>719.8188095999649</ele>
      </trkpt>
      <trkpt lat="48.42595" lon="24.550847">
        <ele>720.5</ele>
      </trkpt>
      <trkpt lat="48.425451" lon="24.550493">
        <ele>720.4227778562985</ele>
      </trkpt>
      <trkpt lat="48.425416" lon="24.550386">
        <ele>721.1543535311939</ele>
      </trkpt>
      <trkpt lat="48.425102" lon="24.550289">
        <ele>728.7397610026716</ele>
      </trkpt>
      <trkpt lat="48.424761" lon="24.550525">
        <ele>735.5275503941892</ele>
      </trkpt>
      <trkpt lat="48.423821" lon="24.549753">
        <ele>760.470513560751</ele>
      </trkpt>
      <trkpt lat="48.423691" lon="24.549445">
        <ele>766.3733297893964</ele>
      </trkpt>
      <trkpt lat="48.423428" lon="24.549435">
        <ele>771.484100042378</ele>
      </trkpt>
      <trkpt lat="48.423057" lon="24.548748">
        <ele>787.8314276333202</ele>
      </trkpt>
      <trkpt lat="48.422815" lon="24.54863">
        <ele>793.3755253741364</ele>
      </trkpt>
      <trkpt lat="48.422595" lon="24.547976">
        <ele>814.8474489904879</ele>
      </trkpt>
      <trkpt lat="48.421975" lon="24.546903">
        <ele>843.228861538228</ele>
      </trkpt>
      <trkpt lat="48.421306" lon="24.545969">
        <ele>846.4360055118888</ele>
      </trkpt>
      <trkpt lat="48.420665" lon="24.54495">
        <ele>855.2816716005808</ele>
      </trkpt>
      <trkpt lat="48.419369" lon="24.543309">
        <ele>866.0182058662176</ele>
      </trkpt>
      <trkpt lat="48.419297" lon="24.542802">
        <ele>875.3905197392398</ele>
      </trkpt>
      <trkpt lat="48.418848" lon="24.542084">
        <ele>894.3693465895589</ele>
      </trkpt>
      <trkpt lat="48.418549" lon="24.541837">
        <ele>902.5020747516899</ele>
      </trkpt>
      <trkpt lat="48.418649" lon="24.541064">
        <ele>917.1151533605761</ele>
      </trkpt>
      <trkpt lat="48.418421" lon="24.540152">
        <ele>938.2463561177938</ele>
      </trkpt>
      <trkpt lat="48.418015" lon="24.539401">
        <ele>942.1573020234937</ele>
      </trkpt>
      <trkpt lat="48.417972" lon="24.538758">
        <ele>953.9659435017966</ele>
      </trkpt>
      <trkpt lat="48.417175" lon="24.536773">
        <ele>1000.3287325009493</ele>
      </trkpt>
      <trkpt lat="48.416814" lon="24.535893">
        <ele>1027.3424766325288</ele>
      </trkpt>
      <trkpt lat="48.416785" lon="24.534198">
        <ele>1035.01795378477</ele>
      </trkpt>
      <trkpt lat="48.416629" lon="24.532953">
        <ele>1041.451475495982</ele>
      </trkpt>
      <trkpt lat="48.416187" lon="24.531773">
        <ele>1040.8580821098387</ele>
      </trkpt>
      <trkpt lat="48.415788" lon="24.531451">
        <ele>1043.819314892676</ele>
      </trkpt>
      <trkpt lat="48.415525" lon="24.531301">
        <ele>1046.4509681273355</ele>
      </trkpt>
      <trkpt lat="48.414549" lon="24.52982">
        <ele>1050.9913554000668</ele>
      </trkpt>
      <trkpt lat="48.414353" lon="24.529575">
        <ele>1048.3467522283318</ele>
      </trkpt>
      <trkpt lat="48.413911" lon="24.528931">
        <ele>1043.6949121400755</ele>
      </trkpt>
      <trkpt lat="48.412621" lon="24.528">
        <ele>1066.2674076823155</ele>
      </trkpt>
      <trkpt lat="48.412048" lon="24.526573">
        <ele>1068.6412144854019</ele>
      </trkpt>
      <trkpt lat="48.411769" lon="24.524719">
        <ele>1071.235016600262</ele>
      </trkpt>
      <trkpt lat="48.411639" lon="24.524285">
        <ele>1061.5344906165265</ele>
      </trkpt>
      <trkpt lat="48.411465" lon="24.523658">
        <ele>1051.1197876153747</ele>
      </trkpt>
      <trkpt lat="48.411354" lon="24.522946">
        <ele>1053.0747238508118</ele>
      </trkpt>
      <trkpt lat="48.410759" lon="24.522003">
        <ele>1070.2059440523565</ele>
      </trkpt>
      <trkpt lat="48.409992" lon="24.521372">
        <ele>1086.6976518345762</ele>
      </trkpt>
      <trkpt lat="48.40957" lon="24.520435">
        <ele>1098.7435218279948</ele>
      </trkpt>
      <trkpt lat="48.408653" lon="24.519431">
        <ele>1122.5214984441172</ele>
      </trkpt>
      <trkpt lat="48.408168" lon="24.519526">
        <ele>1132.0742190845597</ele>
      </trkpt>
      <trkpt lat="48.40597" lon="24.519183">
        <ele>1158.538814627449</ele>
      </trkpt>
      <trkpt lat="48.405102" lon="24.518585">
        <ele>1174.4986810795547</ele>
      </trkpt>
      <trkpt lat="48.403346" lon="24.517955">
        <ele>1191.8355258869933</ele>
      </trkpt>
      <trkpt lat="48.402941" lon="24.517974">
        <ele>1191.4204232533525</ele>
      </trkpt>
      <trkpt lat="48.401645" lon="24.51881">
        <ele>1202.6814587123467</ele>
      </trkpt>
      <trkpt lat="48.401539" lon="24.518626">
        <ele>1208.2268343120354</ele>
      </trkpt>
      <trkpt lat="48.401439" lon="24.519698">
        <ele>1199.4156393047306</ele>
      </trkpt>
      <trkpt lat="48.400755" lon="24.521356">
        <ele>1201.5</ele>
      </trkpt>
      <trkpt lat="48.400275" lon="24.522858">
        <ele>1206.1325240909068</ele>
      </trkpt>
      <trkpt lat="48.399766" lon="24.523549">
        <ele>1212.743651217199</ele>
      </trkpt>
      <trkpt lat="48.399484" lon="24.524135">
        <ele>1220.6615146667464</ele>
      </trkpt>
      <trkpt lat="48.398893" lon="24.524403">
        <ele>1225.504586481238</ele>
      </trkpt>
      <trkpt lat="48.398494" lon="24.524789">
        <ele>1232.9388222509733</ele>
      </trkpt>
      <trkpt lat="48.398145" lon="24.524977">
        <ele>1234.7489624832142</ele>
      </trkpt>
      <trkpt lat="48.397934" lon="24.525074">
        <ele>1234.9738694102423</ele>
      </trkpt>
      <trkpt lat="48.397973" lon="24.525986">
        <ele>1228.2504777614079</ele>
      </trkpt>
      <trkpt lat="48.39791" lon="24.530303">
        <ele>1196.758777997533</ele>
      </trkpt>
      <trkpt lat="48.397775" lon="24.533146">
        <ele>1214.9072039409743</ele>
      </trkpt>
      <trkpt lat="48.397497" lon="24.534917">
        <ele>1214.407682875926</ele>
      </trkpt>
      <trkpt lat="48.397307" lon="24.535926">
        <ele>1218.4232905177137</ele>
      </trkpt>
      <trkpt lat="48.396955" lon="24.537063">
        <ele>1227.3767000010341</ele>
      </trkpt>
      <trkpt lat="48.396452" lon="24.53811">
        <ele>1241.1018607094884</ele>
      </trkpt>
      <trkpt lat="48.395692" lon="24.538535">
        <ele>1239.4565795384697</ele>
      </trkpt>
      <trkpt lat="48.395633" lon="24.5396">
        <ele>1228.730080155078</ele>
      </trkpt>
      <trkpt lat="48.395844" lon="24.540389">
        <ele>1219.302770670969</ele>
      </trkpt>
      <trkpt lat="48.396119" lon="24.540839">
        <ele>1209.4614377252253</ele>
      </trkpt>
      <trkpt lat="48.396082" lon="24.54115">
        <ele>1200.1468778558774</ele>
      </trkpt>
      <trkpt lat="48.39591" lon="24.541443">
        <ele>1191.9880009547735</ele>
      </trkpt>
      <trkpt lat="48.395866" lon="24.541703">
        <ele>1188.0282645096186</ele>
      </trkpt>
      <trkpt lat="48.39562" lon="24.542229">
        <ele>1185.7474695420754</ele>
      </trkpt>
      <trkpt lat="48.39522" lon="24.543468">
        <ele>1177.1279928499137</ele>
      </trkpt>
      <trkpt lat="48.394875" lon="24.544916">
        <ele>1170.0623508304868</ele>
      </trkpt>
      <trkpt lat="48.394414" lon="24.547812">
        <ele>1144.3928871276926</ele>
      </trkpt>
      <trkpt lat="48.394378" lon="24.548435">
        <ele>1141.0829426663695</ele>
      </trkpt>
      <trkpt lat="48.394378" lon="24.548874">
        <ele>1145.8657050892682</ele>
      </trkpt>
      <trkpt lat="48.39436" lon="24.549368">
        <ele>1152.2657018919574</ele>
      </trkpt>
      <trkpt lat="48.394214" lon="24.549856">
        <ele>1158.623968575135</ele>
      </trkpt>
      <trkpt lat="48.393869" lon="24.550655">
        <ele>1166.6762183857531</ele>
      </trkpt>
      <trkpt lat="48.393513" lon="24.551498">
        <ele>1181.5685385615216</ele>
      </trkpt>
      <trkpt lat="48.393374" lon="24.552141">
        <ele>1187.9149841303931</ele>
      </trkpt>
      <trkpt lat="48.393488" lon="24.552849">
        <ele>1188.825504841573</ele>
      </trkpt>
      <trkpt lat="48.393622" lon="24.553614">
        <ele>1183.1968481268664</ele>
      </trkpt>
      <trkpt lat="48.393935" lon="24.554472">
        <ele>1167.3270256099577</ele>
      </trkpt>
      <trkpt lat="48.394178" lon="24.554687">
        <ele>1162.2675324700176</ele>
      </trkpt>
      <trkpt lat="48.394762" lon="24.555202">
        <ele>1154.183185285716</ele>
      </trkpt>
      <trkpt lat="48.395089" lon="24.556039">
        <ele>1142.3543473352347</ele>
      </trkpt>
      <trkpt lat="48.395602" lon="24.556575">
        <ele>1136.7353357869838</ele>
      </trkpt>
      <trkpt lat="48.396101" lon="24.557154">
        <ele>1126.4175809496164</ele>
      </trkpt>
      <trkpt lat="48.3966" lon="24.55782">
        <ele>1114.5757097419487</ele>
      </trkpt>
      <trkpt lat="48.397326" lon="24.559064">
        <ele>1113.1226995602065</ele>
      </trkpt>
      <trkpt lat="48.398515" lon="24.559769">
        <ele>1133.5402767376142</ele>
      </trkpt>
      <trkpt lat="48.399683" lon="24.560885">
        <ele>1151.3118962505832</ele>
      </trkpt>
      <trkpt lat="48.40078" lon="24.56125">
        <ele>1143.2861805968685</ele>
      </trkpt>
      <trkpt lat="48.401378" lon="24.562044">
        <ele>1142.2270673059393</ele>
      </trkpt>
      <trkpt lat="48.40182" lon="24.562001">
        <ele>1143.2190526942593</ele>
      </trkpt>
      <trkpt lat="48.402062" lon="24.562194">
        <ele>1134.9740566874389</ele>
      </trkpt>
      <trkpt lat="48.402153" lon="24.562488">
        <ele>1124.345608389865</ele>
      </trkpt>
      <trkpt lat="48.402677" lon="24.561943">
        <ele>1110.8877593909597</ele>
      </trkpt>
      <trkpt lat="48.403058" lon="24.56116">
        <ele>1100.8407538495237</ele>
      </trkpt>
      <trkpt lat="48.404775" lon="24.560484">
        <ele>1022.3536143571276</ele>
      </trkpt>
      <trkpt lat="48.405047" lon="24.560476">
        <ele>1015.8564894489581</ele>
      </trkpt>
      <trkpt lat="48.405299" lon="24.560127">
        <ele>1013.5827294713567</ele>
      </trkpt>
      <trkpt lat="48.405862" lon="24.559838">
        <ele>993.1329049234217</ele>
      </trkpt>
      <trkpt lat="48.4064" lon="24.559827">
        <ele>991.3936771922745</ele>
      </trkpt>
      <trkpt lat="48.407173" lon="24.560074">
        <ele>975.8078520377262</ele>
      </trkpt>
      <trkpt lat="48.407997" lon="24.560865">
        <ele>969.5141873150741</ele>
      </trkpt>
      <trkpt lat="48.409417" lon="24.56101">
        <ele>954.5960558635414</ele>
      </trkpt>
      <trkpt lat="48.409867" lon="24.561289">
        <ele>945.8358547280659</ele>
      </trkpt>
      <trkpt lat="48.410568" lon="24.561456">
        <ele>936.9860147732018</ele>
      </trkpt>
      <trkpt lat="48.410796" lon="24.561616">
        <ele>934.9326798222028</ele>
      </trkpt>
      <trkpt lat="48.411398" lon="24.56241">
        <ele>926.2237421167664</ele>
      </trkpt>
      <trkpt lat="48.412231" lon="24.563124">
        <ele>923.2956571805989</ele>
      </trkpt>
      <trkpt lat="48.412594" lon="24.563564">
        <ele>914.5717808238696</ele>
      </trkpt>
      <trkpt lat="48.41289" lon="24.564073">
        <ele>905.7832671122742</ele>
      </trkpt>
      <trkpt lat="48.413288" lon="24.564642">
        <ele>891.8779399708627</ele>
      </trkpt>
      <trkpt lat="48.413696" lon="24.564985">
        <ele>889.7952462221729</ele>
      </trkpt>
      <trkpt lat="48.414604" lon="24.565361">
        <ele>888.1359200037551</ele>
      </trkpt>
      <trkpt lat="48.415237" lon="24.565961">
        <ele>888.2622008889448</ele>
      </trkpt>
      <trkpt lat="48.415889" lon="24.567131">
        <ele>867.8642328946153</ele>
      </trkpt>
      <trkpt lat="48.41629" lon="24.567929">
        <ele>858.0089773368533</ele>
      </trkpt>
      <trkpt lat="48.416613" lon="24.568651">
        <ele>845.4467522267951</ele>
      </trkpt>
      <trkpt lat="48.41667" lon="24.56929">
        <ele>833.5301444906179</ele>
      </trkpt>
      <trkpt lat="48.417197" lon="24.570266">
        <ele>816.3924132674772</ele>
      </trkpt>
      <trkpt lat="48.417958" lon="24.572017">
        <ele>767.9333823180417</ele>
      </trkpt>
      <trkpt lat="48.418463" lon="24.572521">
        <ele>763.9676354734693</ele>
      </trkpt>
      <trkpt lat="48.418876" lon="24.573363">
        <ele>758.6608422355661</ele>
      </trkpt>
      <trkpt lat="48.419197" lon="24.574334">
        <ele>754.988102131184</ele>
      </trkpt>
      <trkpt lat="48.419368" lon="24.574629">
        <ele>756.0453011460161</ele>
      </trkpt>
      <trkpt lat="48.419571" lon="24.574822">
        <ele>757.5909981408622</ele>
      </trkpt>
      <trkpt lat="48.419816" lon="24.574903">
        <ele>757.4967135612139</ele>
      </trkpt>
      <trkpt lat="48.419984" lon="24.575123">
        <ele>756.8499274191347</ele>
      </trkpt>
      <trkpt lat="48.420276" lon="24.575311">
        <ele>754.7633651461775</ele>
      </trkpt>
      <trkpt lat="48.420658" lon="24.575718">
        <ele>755.3957734526437</ele>
      </trkpt>
      <trkpt lat="48.420807" lon="24.576003">
        <ele>756.3911641103298</ele>
      </trkpt>
      <trkpt lat="48.421192" lon="24.575407">
        <ele>750.2866221293536</ele>
      </trkpt>
      <trkpt lat="48.421541" lon="24.57464">
        <ele>740.7523933584567</ele>
      </trkpt>
      <trkpt lat="48.421947" lon="24.573841">
        <ele>744.6448836049531</ele>
      </trkpt>
      <trkpt lat="48.422238" lon="24.573016">
        <ele>727.1542149202432</ele>
      </trkpt>
      <trkpt lat="48.422039" lon="24.572067">
        <ele>711.2267757825321</ele>
      </trkpt>
      <trkpt lat="48.421808" lon="24.571782">
        <ele>709.0491376954526</ele>
      </trkpt>
      <trkpt lat="48.421633" lon="24.570833">
        <ele>700.8044707125518</ele>
      </trkpt>
      <trkpt lat="48.421405" lon="24.56976">
        <ele>682.5291968354665</ele>
      </trkpt>
      <trkpt lat="48.421505" lon="24.568945">
        <ele>668.9077465605133</ele>
      </trkpt>
      <trkpt lat="48.42226" lon="24.567421">
        <ele>643.3718333966486</ele>
      </trkpt>
      <trkpt lat="48.423427" lon="24.56652">
        <ele>628.0739422447856</ele>
      </trkpt>
      <trkpt lat="48.424154" lon="24.565254">
        <ele>616.2721086127324</ele>
      </trkpt>
      <trkpt lat="48.424794" lon="24.56519">
        <ele>603.076518839458</ele>
      </trkpt>
      <trkpt lat="48.42498" lon="24.564567">
        <ele>594.0531021064857</ele>
      </trkpt>
      <trkpt lat="48.425549" lon="24.564374">
        <ele>583.992019848316</ele>
      </trkpt>
      <trkpt lat="48.425777" lon="24.56416">
        <ele>578.2248992605744</ele>
      </trkpt>
      <trkpt lat="48.426503" lon="24.56313">
        <ele>562.4278206838062</ele>
      </trkpt>
      <trkpt lat="48.426888" lon="24.563258">
        <ele>558.9765394369606</ele>
      </trkpt>
    </trkseg>
  </trk>
</gpx>
