<?xml version="1.0" encoding="UTF-8"?>
<gpx version="1.1" creator="phpGPX/1.0RC5" schemaLocation="http://www.topografix.com/GPX/1/1 http://www.topografix.com/GPX/1/1/gpx.xsd http://www.garmin.com/xmlschemas/GpxExtensions/v3 http://www.garmin.com/xmlschemas/GpxExtensionsv3.xsd http://www.garmin.com/xmlschemas/TrackPointExtension/v1 http://www.garmin.com/xmlschemas/TrackPointExtensionv1.xsd http://www.garmin.com/xmlschemas/PowerExtension/v1 http://www.garmin.com/xmlschemas/PowerExtensionv1.xsd http://www.topografix.com/GPX/gpx_style/0/2 http://www.topografix.com/GPX/gpx_style/0/2/gpx_style.xsd" xmlns="http://www.topografix.com/GPX/1/1" xmlns:xsi="http://www.w3.org/2001/XMLSchema-instance" xsi:schemaLocation="http://www.topografix.com/GPX/1/1 http://www.topografix.com/GPX/1/1/gpx.xsd http://www.garmin.com/xmlschemas/GpxExtensions/v3 http://www.garmin.com/xmlschemas/GpxExtensionsv3.xsd http://www.garmin.com/xmlschemas/TrackPointExtension/v1 http://www.garmin.com/xmlschemas/TrackPointExtensionv1.xsd http://www.garmin.com/xmlschemas/PowerExtension/v1 http://www.garmin.com/xmlschemas/PowerExtensionv1.xsd http://www.topografix.com/GPX/gpx_style/0/2 http://www.topografix.com/GPX/gpx_style/0/2/gpx_style.xsd" xmlns:gpxtpx="http://www.garmin.com/xmlschemas/TrackPointExtension/v1" xmlns:gpxx="http://www.garmin.com/xmlschemas/GpxExtensions/v3" xmlns:gpxpx="http://www.garmin.com/xmlschemas/PowerExtension/v1" xmlns:gpx_style="http://www.topografix.com/GPX/gpx_style/0/2">
  <metadata>
    <name>Полонина Руна  З села Тур&apos;я Поляна в село Лумшори</name>
    <author>
      <name>gpx.studio</name>
      <link href="https://gpx.studio"/>
    </author>
  </metadata>
  <trk>
    <name>Полонина Руна  З села Тур&apos;я Поляна в село Лумшори</name>
    <trkseg>
      <trkpt lat="48.714557" lon="22.821323">
        <ele>319.6802660973849</ele>
      </trkpt>
      <trkpt lat="48.715237" lon="22.821301">
        <ele>325.50105102243833</ele>
      </trkpt>
      <trkpt lat="48.716171" lon="22.820958">
        <ele>328.9035678653745</ele>
      </trkpt>
      <trkpt lat="48.718422" lon="22.821516">
        <ele>328.85550014453474</ele>
      </trkpt>
      <trkpt lat="48.721125" lon="22.823255">
        <ele>332.13806496409234</ele>
      </trkpt>
      <trkpt lat="48.723164" lon="22.824113">
        <ele>338.14051546534756</ele>
      </trkpt>
      <trkpt lat="48.725627" lon="22.826796">
        <ele>347.9524322058002</ele>
      </trkpt>
      <trkpt lat="48.727812" lon="22.829456">
        <ele>362.9293325774761</ele>
      </trkpt>
      <trkpt lat="48.728463" lon="22.830379">
        <ele>374.4358049123074</ele>
      </trkpt>
      <trkpt lat="48.728846" lon="22.832224">
        <ele>365.09269198642903</ele>
      </trkpt>
      <trkpt lat="48.729242" lon="22.833061">
        <ele>361.71379229793587</ele>
      </trkpt>
      <trkpt lat="48.731351" lon="22.833683">
        <ele>374.35658253700586</ele>
      </trkpt>
      <trkpt lat="48.731804" lon="22.834414">
        <ele>361.8127351363588</ele>
      </trkpt>
      <trkpt lat="48.732922" lon="22.835165">
        <ele>366.61911717845817</ele>
      </trkpt>
      <trkpt lat="48.733786" lon="22.835208">
        <ele>377.8989378964761</ele>
      </trkpt>
      <trkpt lat="48.735031" lon="22.836388">
        <ele>371.8010652444791</ele>
      </trkpt>
      <trkpt lat="48.736036" lon="22.837203">
        <ele>373.3250752000604</ele>
      </trkpt>
      <trkpt lat="48.737961" lon="22.837525">
        <ele>380.49596894135345</ele>
      </trkpt>
      <trkpt lat="48.739827" lon="22.838073">
        <ele>385.7941577912192</ele>
      </trkpt>
      <trkpt lat="48.741172" lon="22.838503">
        <ele>391.8407087068122</ele>
      </trkpt>
      <trkpt lat="48.742474" lon="22.838803">
        <ele>394.6985162122329</ele>
      </trkpt>
      <trkpt lat="48.743959" lon="22.840326">
        <ele>399.2879623371409</ele>
      </trkpt>
      <trkpt lat="48.74512" lon="22.841764">
        <ele>411.3144841908943</ele>
      </trkpt>
      <trkpt lat="48.745794" lon="22.843195">
        <ele>409.06877973250084</ele>
      </trkpt>
      <trkpt lat="48.746827" lon="22.845427">
        <ele>415.6156741843442</ele>
      </trkpt>
      <trkpt lat="48.747676" lon="22.846993">
        <ele>428.6406857173113</ele>
      </trkpt>
      <trkpt lat="48.749699" lon="22.847615">
        <ele>438.5</ele>
      </trkpt>
      <trkpt lat="48.750675" lon="22.847744">
        <ele>445.60147349349296</ele>
      </trkpt>
      <trkpt lat="48.751453" lon="22.848345">
        <ele>453.62623632393553</ele>
      </trkpt>
      <trkpt lat="48.752401" lon="22.849675">
        <ele>451.1841558344956</ele>
      </trkpt>
      <trkpt lat="48.752726" lon="22.850984">
        <ele>462.74852205747084</ele>
      </trkpt>
      <trkpt lat="48.753448" lon="22.851692">
        <ele>470.1437683132337</ele>
      </trkpt>
      <trkpt lat="48.754792" lon="22.852186">
        <ele>472.7468202191456</ele>
      </trkpt>
      <trkpt lat="48.755966" lon="22.85225">
        <ele>477.5215051401325</ele>
      </trkpt>
      <trkpt lat="48.757876" lon="22.853666">
        <ele>492.83369634763164</ele>
      </trkpt>
      <trkpt lat="48.758134" lon="22.854745">
        <ele>493.6086415419229</ele>
      </trkpt>
      <trkpt lat="48.758912" lon="22.855474">
        <ele>500.18442075735106</ele>
      </trkpt>
      <trkpt lat="48.759223" lon="22.856697">
        <ele>502.5645954247268</ele>
      </trkpt>
      <trkpt lat="48.760284" lon="22.857126">
        <ele>511.26034891796314</ele>
      </trkpt>
      <trkpt lat="48.761345" lon="22.857749">
        <ele>524.9665115788902</ele>
      </trkpt>
      <trkpt lat="48.762151" lon="22.858907">
        <ele>529.3726819275118</ele>
      </trkpt>
      <trkpt lat="48.763099" lon="22.859744">
        <ele>536.7141501986439</ele>
      </trkpt>
      <trkpt lat="48.764018" lon="22.861504">
        <ele>548.4308718748981</ele>
      </trkpt>
      <trkpt lat="48.764839" lon="22.863414">
        <ele>555.6855775735054</ele>
      </trkpt>
      <trkpt lat="48.765192" lon="22.864937">
        <ele>557.3563172319565</ele>
      </trkpt>
      <trkpt lat="48.766196" lon="22.866954">
        <ele>554.0875071008842</ele>
      </trkpt>
      <trkpt lat="48.766508" lon="22.86807">
        <ele>555.8470077259645</ele>
      </trkpt>
      <trkpt lat="48.767498" lon="22.869958">
        <ele>555.6518081077927</ele>
      </trkpt>
      <trkpt lat="48.768572" lon="22.870967">
        <ele>574.2427815548461</ele>
      </trkpt>
      <trkpt lat="48.769826" lon="22.871596">
        <ele>579.3145377630135</ele>
      </trkpt>
      <trkpt lat="48.770972" lon="22.873892">
        <ele>585.0771767739537</ele>
      </trkpt>
      <trkpt lat="48.772443" lon="22.875158">
        <ele>588.4461810040269</ele>
      </trkpt>
      <trkpt lat="48.772876" lon="22.87547">
        <ele>597.5753551118542</ele>
      </trkpt>
      <trkpt lat="48.773138" lon="22.875524">
        <ele>597.0001407487708</ele>
      </trkpt>
      <trkpt lat="48.773201" lon="22.87547">
        <ele>596.3594859157649</ele>
      </trkpt>
      <trkpt lat="48.77388" lon="22.875202">
        <ele>602.3481765610632</ele>
      </trkpt>
      <trkpt lat="48.77422" lon="22.875384">
        <ele>608.6729916254865</ele>
      </trkpt>
      <trkpt lat="48.775075" lon="22.875406">
        <ele>620.0292158976378</ele>
      </trkpt>
      <trkpt lat="48.775612" lon="22.875717">
        <ele>627.1611253400335</ele>
      </trkpt>
      <trkpt lat="48.775871" lon="22.875567">
        <ele>626.8857297788487</ele>
      </trkpt>
      <trkpt lat="48.776401" lon="22.875609">
        <ele>637.1162257801152</ele>
      </trkpt>
      <trkpt lat="48.777257" lon="22.87547">
        <ele>644.0399239963651</ele>
      </trkpt>
      <trkpt lat="48.777398" lon="22.875084">
        <ele>641.9455822464173</ele>
      </trkpt>
      <trkpt lat="48.777688" lon="22.874837">
        <ele>644.6089893748983</ele>
      </trkpt>
      <trkpt lat="48.778091" lon="22.874311">
        <ele>651.5298604513212</ele>
      </trkpt>
      <trkpt lat="48.778134" lon="22.873968">
        <ele>654.8574832891156</ele>
      </trkpt>
      <trkpt lat="48.778296" lon="22.873871">
        <ele>658.2241945652038</ele>
      </trkpt>
      <trkpt lat="48.778409" lon="22.873249">
        <ele>661.015868803647</ele>
      </trkpt>
      <trkpt lat="48.77865" lon="22.872638">
        <ele>661.0189408246395</ele>
      </trkpt>
      <trkpt lat="48.778904" lon="22.872326">
        <ele>659.9509531976688</ele>
      </trkpt>
      <trkpt lat="48.779258" lon="22.872305">
        <ele>659.7596869091643</ele>
      </trkpt>
      <trkpt lat="48.77976" lon="22.872455">
        <ele>664.2027305563679</ele>
      </trkpt>
      <trkpt lat="48.780248" lon="22.872412">
        <ele>672.722685764297</ele>
      </trkpt>
      <trkpt lat="48.780608" lon="22.87223">
        <ele>681.2829283633038</ele>
      </trkpt>
      <trkpt lat="48.781537" lon="22.871127">
        <ele>693.0576394611666</ele>
      </trkpt>
      <trkpt lat="48.78223" lon="22.870183">
        <ele>706.6709820703138</ele>
      </trkpt>
      <trkpt lat="48.78259" lon="22.869411">
        <ele>719.8770511437156</ele>
      </trkpt>
      <trkpt lat="48.782986" lon="22.867168">
        <ele>729.1297795729479</ele>
      </trkpt>
      <trkpt lat="48.783248" lon="22.865248">
        <ele>734.2829029650713</ele>
      </trkpt>
      <trkpt lat="48.783474" lon="22.863338">
        <ele>759.2924465877004</ele>
      </trkpt>
      <trkpt lat="48.783467" lon="22.861739">
        <ele>765.5275231034527</ele>
      </trkpt>
      <trkpt lat="48.783721" lon="22.860709">
        <ele>772.3716520045417</ele>
      </trkpt>
      <trkpt lat="48.784103" lon="22.859197">
        <ele>783.3479952593837</ele>
      </trkpt>
      <trkpt lat="48.784647" lon="22.858263">
        <ele>785.3417903197244</ele>
      </trkpt>
      <trkpt lat="48.784638" lon="22.857288">
        <ele>789.329023166094</ele>
      </trkpt>
      <trkpt lat="48.784883" lon="22.855862">
        <ele>803.0699169922458</ele>
      </trkpt>
      <trkpt lat="48.785024" lon="22.854499">
        <ele>810.7814292468348</ele>
      </trkpt>
      <trkpt lat="48.785116" lon="22.853383">
        <ele>814.5972880994668</ele>
      </trkpt>
      <trkpt lat="48.785483" lon="22.85171">
        <ele>837.1673320602858</ele>
      </trkpt>
      <trkpt lat="48.785653" lon="22.850723">
        <ele>840.3076640385348</ele>
      </trkpt>
      <trkpt lat="48.785752" lon="22.850165">
        <ele>845.1943943288314</ele>
      </trkpt>
      <trkpt lat="48.785745" lon="22.849564">
        <ele>844.9004029585496</ele>
      </trkpt>
      <trkpt lat="48.785865" lon="22.848706">
        <ele>861.9269541937301</ele>
      </trkpt>
      <trkpt lat="48.785978" lon="22.848437">
        <ele>866.7843633663408</ele>
      </trkpt>
      <trkpt lat="48.785901" lon="22.848244">
        <ele>864.929340621844</ele>
      </trkpt>
      <trkpt lat="48.785773" lon="22.84818">
        <ele>862.842769698822</ele>
      </trkpt>
      <trkpt lat="48.785582" lon="22.84745">
        <ele>867.7455508621032</ele>
      </trkpt>
      <trkpt lat="48.785519" lon="22.846635">
        <ele>865.5398120914981</ele>
      </trkpt>
      <trkpt lat="48.785568" lon="22.84641">
        <ele>862.4634147962734</ele>
      </trkpt>
      <trkpt lat="48.785512" lon="22.845873">
        <ele>864.1929006889682</ele>
      </trkpt>
      <trkpt lat="48.785158" lon="22.844275">
        <ele>878.2346732317237</ele>
      </trkpt>
      <trkpt lat="48.784548" lon="22.841865">
        <ele>905.7212152099182</ele>
      </trkpt>
      <trkpt lat="48.783332" lon="22.837616">
        <ele>950.938395653939</ele>
      </trkpt>
      <trkpt lat="48.781551" lon="22.833453">
        <ele>1013.5744823683885</ele>
      </trkpt>
      <trkpt lat="48.780363" lon="22.831264">
        <ele>1051.9527248070278</ele>
      </trkpt>
      <trkpt lat="48.780221" lon="22.829848">
        <ele>1072.1104078376666</ele>
      </trkpt>
      <trkpt lat="48.779571" lon="22.828818">
        <ele>1065.8346533148208</ele>
      </trkpt>
      <trkpt lat="48.779514" lon="22.828132">
        <ele>1072.2563661465852</ele>
      </trkpt>
      <trkpt lat="48.779628" lon="22.826715">
        <ele>1089.8100290525472</ele>
      </trkpt>
      <trkpt lat="48.780391" lon="22.82663">
        <ele>1127.9349997288082</ele>
      </trkpt>
      <trkpt lat="48.780391" lon="22.825643">
        <ele>1141.5678186851437</ele>
      </trkpt>
      <trkpt lat="48.7809" lon="22.825342">
        <ele>1173.2965955039456</ele>
      </trkpt>
      <trkpt lat="48.781494" lon="22.824484">
        <ele>1208.7660284206004</ele>
      </trkpt>
      <trkpt lat="48.781494" lon="22.824098">
        <ele>1211.7969529734694</ele>
      </trkpt>
      <trkpt lat="48.781692" lon="22.824098">
        <ele>1218.4197224947277</ele>
      </trkpt>
      <trkpt lat="48.782314" lon="22.825471">
        <ele>1227.1727768207554</ele>
      </trkpt>
      <trkpt lat="48.782738" lon="22.825557">
        <ele>1239.3742102571991</ele>
      </trkpt>
      <trkpt lat="48.78353" lon="22.82487">
        <ele>1263.6460749288121</ele>
      </trkpt>
      <trkpt lat="48.784604" lon="22.823068">
        <ele>1288.06623456307</ele>
      </trkpt>
      <trkpt lat="48.785792" lon="22.820149">
        <ele>1320.1538634318856</ele>
      </trkpt>
      <trkpt lat="48.786414" lon="22.817961">
        <ele>1342.2136525293763</ele>
      </trkpt>
      <trkpt lat="48.787028" lon="22.816151">
        <ele>1365.2237505563535</ele>
      </trkpt>
      <trkpt lat="48.787183" lon="22.815486">
        <ele>1372.6984125318704</ele>
      </trkpt>
      <trkpt lat="48.787607" lon="22.814241">
        <ele>1384.7665163173806</ele>
      </trkpt>
      <trkpt lat="48.787848" lon="22.813705">
        <ele>1388.6485758297767</ele>
      </trkpt>
      <trkpt lat="48.788597" lon="22.812675">
        <ele>1389.8956286033253</ele>
      </trkpt>
      <trkpt lat="48.788866" lon="22.812139">
        <ele>1387.2517460557283</ele>
      </trkpt>
      <trkpt lat="48.790138" lon="22.811044">
        <ele>1386.58513627504</ele>
      </trkpt>
      <trkpt lat="48.791198" lon="22.810379">
        <ele>1395.002350505907</ele>
      </trkpt>
      <trkpt lat="48.792103" lon="22.809735">
        <ele>1403.1290149382548</ele>
      </trkpt>
      <trkpt lat="48.793969" lon="22.808834">
        <ele>1421.5034720794056</ele>
      </trkpt>
      <trkpt lat="48.795637" lon="22.80774">
        <ele>1440.424470993341</ele>
      </trkpt>
      <trkpt lat="48.796301" lon="22.807117">
        <ele>1448.8746284615484</ele>
      </trkpt>
      <trkpt lat="48.796866" lon="22.806538">
        <ele>1456.3693727725185</ele>
      </trkpt>
      <trkpt lat="48.797262" lon="22.805036">
        <ele>1458.102633910019</ele>
      </trkpt>
      <trkpt lat="48.797262" lon="22.805036">
        <ele>1458.102633910019</ele>
      </trkpt>
      <trkpt lat="48.799399" lon="22.808966">
        <ele>1476.9902473071124</ele>
      </trkpt>
      <trkpt lat="48.79906" lon="22.808837">
        <ele>1475.0432507287187</ele>
      </trkpt>
      <trkpt lat="48.79889" lon="22.808172">
        <ele>1471.7320170665625</ele>
      </trkpt>
      <trkpt lat="48.798212" lon="22.806713">
        <ele>1468</ele>
      </trkpt>
      <trkpt lat="48.797265" lon="22.804911">
        <ele>1457.7384929762065</ele>
      </trkpt>
      <trkpt lat="48.796502" lon="22.803065">
        <ele>1444.1013866609428</ele>
      </trkpt>
      <trkpt lat="48.795908" lon="22.801306">
        <ele>1430.8423479599878</ele>
      </trkpt>
      <trkpt lat="48.795654" lon="22.799782">
        <ele>1419.4658386080991</ele>
      </trkpt>
      <trkpt lat="48.79547" lon="22.79813">
        <ele>1406.9362140419873</ele>
      </trkpt>
      <trkpt lat="48.794678" lon="22.795705">
        <ele>1382.5338707673363</ele>
      </trkpt>
      <trkpt lat="48.794353" lon="22.795212">
        <ele>1377.771270424113</ele>
      </trkpt>
      <trkpt lat="48.793844" lon="22.794654">
        <ele>1370.783421137603</ele>
      </trkpt>
      <trkpt lat="48.793053" lon="22.794181">
        <ele>1358.721913032234</ele>
      </trkpt>
      <trkpt lat="48.792233" lon="22.79371">
        <ele>1345.232215396722</ele>
      </trkpt>
      <trkpt lat="48.791597" lon="22.793409">
        <ele>1335.6252826390555</ele>
      </trkpt>
      <trkpt lat="48.791094" lon="22.793143">
        <ele>1329.127594866336</ele>
      </trkpt>
      <trkpt lat="48.7905" lon="22.793036">
        <ele>1320.3414077619673</ele>
      </trkpt>
      <trkpt lat="48.790033" lon="22.793036">
        <ele>1313.147416742635</ele>
      </trkpt>
      <trkpt lat="48.789468" lon="22.792993">
        <ele>1304.4488500817117</ele>
      </trkpt>
      <trkpt lat="48.789015" lon="22.792886">
        <ele>1298.0485384099884</ele>
      </trkpt>
      <trkpt lat="48.788577" lon="22.792585">
        <ele>1291.4106432851727</ele>
      </trkpt>
      <trkpt lat="48.788181" lon="22.792177">
        <ele>1282.8437471438665</ele>
      </trkpt>
      <trkpt lat="48.788068" lon="22.791255">
        <ele>1276.5297041542362</ele>
      </trkpt>
      <trkpt lat="48.788421" lon="22.790053">
        <ele>1272.6689919931812</ele>
      </trkpt>
      <trkpt lat="48.78886" lon="22.789216">
        <ele>1271.2778160101734</ele>
      </trkpt>
      <trkpt lat="48.788916" lon="22.788422">
        <ele>1267.6000405679224</ele>
      </trkpt>
      <trkpt lat="48.789086" lon="22.787291">
        <ele>1262.9240152578568</ele>
      </trkpt>
      <trkpt lat="48.789383" lon="22.785832">
        <ele>1257.3025650507761</ele>
      </trkpt>
      <trkpt lat="48.789892" lon="22.78478">
        <ele>1254.7940465827264</ele>
      </trkpt>
      <trkpt lat="48.790387" lon="22.784116">
        <ele>1255.101212465822</ele>
      </trkpt>
      <trkpt lat="48.79074" lon="22.783578">
        <ele>1253.7238539834918</ele>
      </trkpt>
      <trkpt lat="48.791235" lon="22.782892">
        <ele>1249.9700681798322</ele>
      </trkpt>
      <trkpt lat="48.791574" lon="22.782227">
        <ele>1244.829871931827</ele>
      </trkpt>
      <trkpt lat="48.792168" lon="22.780704">
        <ele>1235.4260456924094</ele>
      </trkpt>
      <trkpt lat="48.792267" lon="22.779931">
        <ele>1227.4983268074645</ele>
      </trkpt>
      <trkpt lat="48.792366" lon="22.779137">
        <ele>1224.0665242046816</ele>
      </trkpt>
      <trkpt lat="48.792366" lon="22.778279">
        <ele>1218.6805813402318</ele>
      </trkpt>
      <trkpt lat="48.791984" lon="22.777871">
        <ele>1207.3547642931808</ele>
      </trkpt>
      <trkpt lat="48.791518" lon="22.776841">
        <ele>1198.119217379388</ele>
      </trkpt>
      <trkpt lat="48.791263" lon="22.775339">
        <ele>1188.5459094506325</ele>
      </trkpt>
      <trkpt lat="48.7918" lon="22.774309">
        <ele>1181.5689571963158</ele>
      </trkpt>
      <trkpt lat="48.79262" lon="22.773344">
        <ele>1173.2633609769323</ele>
      </trkpt>
      <trkpt lat="48.793073" lon="22.7727">
        <ele>1168.834636840853</ele>
      </trkpt>
      <trkpt lat="48.793835" lon="22.771691">
        <ele>1159.9295779555105</ele>
      </trkpt>
      <trkpt lat="48.793836" lon="22.770726">
        <ele>1149.3372536418638</ele>
      </trkpt>
      <trkpt lat="48.793772" lon="22.76976">
        <ele>1140.9687747333019</ele>
      </trkpt>
      <trkpt lat="48.794363" lon="22.769406">
        <ele>1135.176167525563</ele>
      </trkpt>
      <trkpt lat="48.795025" lon="22.769873">
        <ele>1136.5112581588328</ele>
      </trkpt>
      <trkpt lat="48.795668" lon="22.769805">
        <ele>1131.842144579161</ele>
      </trkpt>
      <trkpt lat="48.795932" lon="22.770802">
        <ele>1134.1642173502478</ele>
      </trkpt>
      <trkpt lat="48.79581" lon="22.771558">
        <ele>1137.393075966018</ele>
      </trkpt>
      <trkpt lat="48.796116" lon="22.771893">
        <ele>1132.8833944142627</ele>
      </trkpt>
      <trkpt lat="48.796536" lon="22.771455">
        <ele>1112.4773259728274</ele>
      </trkpt>
      <trkpt lat="48.796889" lon="22.771262">
        <ele>1103.7183566933963</ele>
      </trkpt>
      <trkpt lat="48.7972" lon="22.771198">
        <ele>1099.1272360978605</ele>
      </trkpt>
      <trkpt lat="48.797228" lon="22.771477">
        <ele>1096.5213228898929</ele>
      </trkpt>
      <trkpt lat="48.797087" lon="22.771777">
        <ele>1101.203554848653</ele>
      </trkpt>
      <trkpt lat="48.797158" lon="22.772142">
        <ele>1109.0205317713774</ele>
      </trkpt>
      <trkpt lat="48.797356" lon="22.772013">
        <ele>1098.1929758696847</ele>
      </trkpt>
      <trkpt lat="48.797688" lon="22.771605">
        <ele>1087.119717056281</ele>
      </trkpt>
      <trkpt lat="48.797936" lon="22.771284">
        <ele>1083.9157457966357</ele>
      </trkpt>
      <trkpt lat="48.798197" lon="22.771209">
        <ele>1079.315678206987</ele>
      </trkpt>
      <trkpt lat="48.79824" lon="22.771842">
        <ele>1076.3763161507668</ele>
      </trkpt>
      <trkpt lat="48.798487" lon="22.77196">
        <ele>1071.810964849079</ele>
      </trkpt>
      <trkpt lat="48.798734" lon="22.771927">
        <ele>1069.4006283081835</ele>
      </trkpt>
      <trkpt lat="48.798918" lon="22.77167">
        <ele>1067.6138395022135</ele>
      </trkpt>
      <trkpt lat="48.798982" lon="22.771198">
        <ele>1066.9094054060915</ele>
      </trkpt>
      <trkpt lat="48.798854" lon="22.770908">
        <ele>1066.905413778848</ele>
      </trkpt>
      <trkpt lat="48.798713" lon="22.770812">
        <ele>1067.735025477159</ele>
      </trkpt>
      <trkpt lat="48.798508" lon="22.770425">
        <ele>1060.547984178993</ele>
      </trkpt>
      <trkpt lat="48.798487" lon="22.770211">
        <ele>1055.1743150070542</ele>
      </trkpt>
      <trkpt lat="48.79855" lon="22.770082">
        <ele>1050.984794074226</ele>
      </trkpt>
      <trkpt lat="48.798692" lon="22.770071">
        <ele>1049.2814457591114</ele>
      </trkpt>
      <trkpt lat="48.798847" lon="22.770297">
        <ele>1053.3427113511852</ele>
      </trkpt>
      <trkpt lat="48.798946" lon="22.770339">
        <ele>1053.3112348952536</ele>
      </trkpt>
      <trkpt lat="48.799151" lon="22.770372">
        <ele>1051.0220260533615</ele>
      </trkpt>
      <trkpt lat="48.799243" lon="22.770339">
        <ele>1049.3834312232007</ele>
      </trkpt>
      <trkpt lat="48.799278" lon="22.770189">
        <ele>1046.4048243228463</ele>
      </trkpt>
      <trkpt lat="48.799137" lon="22.769953">
        <ele>1041.6974093094468</ele>
      </trkpt>
      <trkpt lat="48.798932" lon="22.769825">
        <ele>1040.7550594361965</ele>
      </trkpt>
      <trkpt lat="48.798812" lon="22.769653">
        <ele>1039.1410148738046</ele>
      </trkpt>
      <trkpt lat="48.79884" lon="22.769438">
        <ele>1033.2868336075917</ele>
      </trkpt>
      <trkpt lat="48.798975" lon="22.769385">
        <ele>1029.7793858243967</ele>
      </trkpt>
      <trkpt lat="48.799257" lon="22.769578">
        <ele>1031.6008538616588</ele>
      </trkpt>
      <trkpt lat="48.799589" lon="22.769449">
        <ele>1024.6346716100295</ele>
      </trkpt>
      <trkpt lat="48.80031" lon="22.769417">
        <ele>1020.5688898111446</ele>
      </trkpt>
      <trkpt lat="48.800266" lon="22.769259">
        <ele>1015.926335773496</ele>
      </trkpt>
      <trkpt lat="48.800139" lon="22.769185">
        <ele>1013.6372268754287</ele>
      </trkpt>
      <trkpt lat="48.799916" lon="22.769212">
        <ele>1015.1913659802522</ele>
      </trkpt>
      <trkpt lat="48.799697" lon="22.769025">
        <ele>1008.9539378357091</ele>
      </trkpt>
      <trkpt lat="48.799591" lon="22.768869">
        <ele>1005.157925981446</ele>
      </trkpt>
      <trkpt lat="48.799411" lon="22.76874">
        <ele>1005.3805945793476</ele>
      </trkpt>
      <trkpt lat="48.799266" lon="22.768526">
        <ele>1004.6016458040631</ele>
      </trkpt>
      <trkpt lat="48.799128" lon="22.768338">
        <ele>1004.9843989466317</ele>
      </trkpt>
      <trkpt lat="48.799107" lon="22.768247">
        <ele>1003.4802919430019</ele>
      </trkpt>
      <trkpt lat="48.799164" lon="22.768204">
        <ele>1000.7380865973204</ele>
      </trkpt>
      <trkpt lat="48.799376" lon="22.768316">
        <ele>995.9961547239218</ele>
      </trkpt>
      <trkpt lat="48.799856" lon="22.768413">
        <ele>992.6930655363701</ele>
      </trkpt>
      <trkpt lat="48.800054" lon="22.768542">
        <ele>995.9683442595923</ele>
      </trkpt>
      <trkpt lat="48.800118" lon="22.768515">
        <ele>995.0242148046382</ele>
      </trkpt>
      <trkpt lat="48.800047" lon="22.768316">
        <ele>992.4984384798958</ele>
      </trkpt>
      <trkpt lat="48.799888" lon="22.768188">
        <ele>987.6049481164109</ele>
      </trkpt>
      <trkpt lat="48.7998" lon="22.767989">
        <ele>980.9735619944568</ele>
      </trkpt>
      <trkpt lat="48.799482" lon="22.767839">
        <ele>982.5710914115101</ele>
      </trkpt>
      <trkpt lat="48.799397" lon="22.767635">
        <ele>982.9015409616785</ele>
      </trkpt>
      <trkpt lat="48.799429" lon="22.767485">
        <ele>979.7232614301554</ele>
      </trkpt>
      <trkpt lat="48.799672" lon="22.767351">
        <ele>968.9819052751924</ele>
      </trkpt>
      <trkpt lat="48.799906" lon="22.766841">
        <ele>959.4229823998176</ele>
      </trkpt>
      <trkpt lat="48.799874" lon="22.766669">
        <ele>957.6402712168294</ele>
      </trkpt>
      <trkpt lat="48.799641" lon="22.766369">
        <ele>958.7479615795412</ele>
      </trkpt>
      <trkpt lat="48.799535" lon="22.766026">
        <ele>955.3525068528037</ele>
      </trkpt>
      <trkpt lat="48.799726" lon="22.765564">
        <ele>949.6913342914777</ele>
      </trkpt>
      <trkpt lat="48.800037" lon="22.765328">
        <ele>946.9026115637532</ele>
      </trkpt>
      <trkpt lat="48.800595" lon="22.765167">
        <ele>943.6241712627727</ele>
      </trkpt>
      <trkpt lat="48.800786" lon="22.765178">
        <ele>941.1185739841865</ele>
      </trkpt>
      <trkpt lat="48.801068" lon="22.765328">
        <ele>938.0444477895719</ele>
      </trkpt>
      <trkpt lat="48.801379" lon="22.76535">
        <ele>930.5195814327003</ele>
      </trkpt>
      <trkpt lat="48.801712" lon="22.765468">
        <ele>924.9148060430573</ele>
      </trkpt>
      <trkpt lat="48.801895" lon="22.765758">
        <ele>926.0839191530831</ele>
      </trkpt>
      <trkpt lat="48.802136" lon="22.76609">
        <ele>921.9829616067</ele>
      </trkpt>
      <trkpt lat="48.802369" lon="22.766262">
        <ele>914.673857361311</ele>
      </trkpt>
      <trkpt lat="48.802694" lon="22.766326">
        <ele>899.9898453474743</ele>
      </trkpt>
      <trkpt lat="48.802878" lon="22.76609">
        <ele>894.2195810705639</ele>
      </trkpt>
      <trkpt lat="48.803068" lon="22.7658">
        <ele>891.7420816284271</ele>
      </trkpt>
      <trkpt lat="48.803244" lon="22.765831">
        <ele>890.2985705207591</ele>
      </trkpt>
      <trkpt lat="48.803696" lon="22.765058">
        <ele>877.7848445981567</ele>
      </trkpt>
      <trkpt lat="48.804003" lon="22.764677">
        <ele>868.4934712887043</ele>
      </trkpt>
      <trkpt lat="48.804226" lon="22.763824">
        <ele>851.7734980692621</ele>
      </trkpt>
      <trkpt lat="48.804212" lon="22.763234">
        <ele>842.4957883524476</ele>
      </trkpt>
      <trkpt lat="48.804078" lon="22.762687">
        <ele>839.0442159193335</ele>
      </trkpt>
      <trkpt lat="48.803823" lon="22.762204">
        <ele>838.2417217375227</ele>
      </trkpt>
      <trkpt lat="48.803576" lon="22.761722">
        <ele>840.6404950051801</ele>
      </trkpt>
      <trkpt lat="48.803668" lon="22.761271">
        <ele>845.7226182096638</ele>
      </trkpt>
      <trkpt lat="48.803491" lon="22.760262">
        <ele>847.8872262427003</ele>
      </trkpt>
      <trkpt lat="48.803685" lon="22.759408">
        <ele>846.1462454595193</ele>
      </trkpt>
      <trkpt lat="48.803615" lon="22.758936">
        <ele>843.4903083268214</ele>
      </trkpt>
      <trkpt lat="48.803406" lon="22.75833">
        <ele>838.2825576941493</ele>
      </trkpt>
      <trkpt lat="48.803279" lon="22.75796">
        <ele>835.4875788685376</ele>
      </trkpt>
      <trkpt lat="48.803113" lon="22.757928">
        <ele>831.2089686128082</ele>
      </trkpt>
      <trkpt lat="48.802653" lon="22.757343">
        <ele>823.6819595821726</ele>
      </trkpt>
      <trkpt lat="48.80247" lon="22.757005">
        <ele>817.0473926311826</ele>
      </trkpt>
      <trkpt lat="48.802367" lon="22.756946">
        <ele>815.1169158084826</ele>
      </trkpt>
      <trkpt lat="48.802152" lon="22.757011">
        <ele>813.414507016814</ele>
      </trkpt>
      <trkpt lat="48.802053" lon="22.757064">
        <ele>813.2078715581779</ele>
      </trkpt>
      <trkpt lat="48.801689" lon="22.757016">
        <ele>812.4140936347809</ele>
      </trkpt>
      <trkpt lat="48.801547" lon="22.75686">
        <ele>809.3085721856746</ele>
      </trkpt>
      <trkpt lat="48.801183" lon="22.756635">
        <ele>815.1315405345706</ele>
      </trkpt>
      <trkpt lat="48.800936" lon="22.756479">
        <ele>814.2054785864894</ele>
      </trkpt>
      <trkpt lat="48.800452" lon="22.756275">
        <ele>819.6172037235519</ele>
      </trkpt>
      <trkpt lat="48.800099" lon="22.7559">
        <ele>811.5991308876546</ele>
      </trkpt>
      <trkpt lat="48.799858" lon="22.755685">
        <ele>808.5386844184059</ele>
      </trkpt>
      <trkpt lat="48.799554" lon="22.755551">
        <ele>804.8340266148437</ele>
      </trkpt>
      <trkpt lat="48.799367" lon="22.755288">
        <ele>793.5488160564563</ele>
      </trkpt>
      <trkpt lat="48.799321" lon="22.755031">
        <ele>786.4172311875376</ele>
      </trkpt>
      <trkpt lat="48.799413" lon="22.754875">
        <ele>787.5546101321578</ele>
      </trkpt>
      <trkpt lat="48.799523" lon="22.754821">
        <ele>789.7709401583973</ele>
      </trkpt>
      <trkpt lat="48.799805" lon="22.755079">
        <ele>796.1881367589676</ele>
      </trkpt>
      <trkpt lat="48.799971" lon="22.755251">
        <ele>797.2100302288738</ele>
      </trkpt>
      <trkpt lat="48.800342" lon="22.75517">
        <ele>789.9379004286859</ele>
      </trkpt>
      <trkpt lat="48.800391" lon="22.755098">
        <ele>788.4003949658481</ele>
      </trkpt>
      <trkpt lat="48.800659" lon="22.755178">
        <ele>787.6029797291062</ele>
      </trkpt>
      <trkpt lat="48.801126" lon="22.755092">
        <ele>774.5649978287847</ele>
      </trkpt>
      <trkpt lat="48.801391" lon="22.754937">
        <ele>762.6746583192512</ele>
      </trkpt>
      <trkpt lat="48.801486" lon="22.754829">
        <ele>760.0342694263559</ele>
      </trkpt>
      <trkpt lat="48.801511" lon="22.754733">
        <ele>758.4649065048657</ele>
      </trkpt>
      <trkpt lat="48.80149" lon="22.754395">
        <ele>753.3257156082987</ele>
      </trkpt>
      <trkpt lat="48.801529" lon="22.75425">
        <ele>752.6015719262987</ele>
      </trkpt>
      <trkpt lat="48.801355" lon="22.753392">
        <ele>742.2562123251846</ele>
      </trkpt>
      <trkpt lat="48.801253" lon="22.753258">
        <ele>740.8773001679219</ele>
      </trkpt>
      <trkpt lat="48.801235" lon="22.752517">
        <ele>736.9543532230891</ele>
      </trkpt>
      <trkpt lat="48.80126" lon="22.752405">
        <ele>736.74411485577</ele>
      </trkpt>
      <trkpt lat="48.801154" lon="22.752163">
        <ele>733.4466950980252</ele>
      </trkpt>
      <trkpt lat="48.801122" lon="22.751986">
        <ele>731.7529153592186</ele>
      </trkpt>
      <trkpt lat="48.801016" lon="22.751857">
        <ele>729.3604423205338</ele>
      </trkpt>
      <trkpt lat="48.800981" lon="22.75131">
        <ele>720.3678752841643</ele>
      </trkpt>
      <trkpt lat="48.800896" lon="22.751139">
        <ele>714.855514652073</ele>
      </trkpt>
      <trkpt lat="48.800864" lon="22.750736">
        <ele>707.691524208989</ele>
      </trkpt>
      <trkpt lat="48.800967" lon="22.750007">
        <ele>699.7324951885724</ele>
      </trkpt>
      <trkpt lat="48.801006" lon="22.749551">
        <ele>693.5552717848982</ele>
      </trkpt>
      <trkpt lat="48.801133" lon="22.749234">
        <ele>687.1609081371221</ele>
      </trkpt>
      <trkpt lat="48.801426" lon="22.748982">
        <ele>680.1530039627241</ele>
      </trkpt>
      <trkpt lat="48.801572" lon="22.748713">
        <ele>671.8901510002324</ele>
      </trkpt>
      <trkpt lat="48.801699" lon="22.748633">
        <ele>668.9446616357891</ele>
      </trkpt>
      <trkpt lat="48.801875" lon="22.748675">
        <ele>666.917404080277</ele>
      </trkpt>
      <trkpt lat="48.802084" lon="22.748413">
        <ele>663.7873733754341</ele>
      </trkpt>
      <trkpt lat="48.802437" lon="22.74816">
        <ele>665.2353389270124</ele>
      </trkpt>
      <trkpt lat="48.802677" lon="22.747935">
        <ele>663.9831176018662</ele>
      </trkpt>
      <trkpt lat="48.802722" lon="22.747772">
        <ele>661.4530177801846</ele>
      </trkpt>
      <trkpt lat="48.802865" lon="22.747769">
        <ele>660.7837190189695</ele>
      </trkpt>
      <trkpt lat="48.802897" lon="22.747849">
        <ele>661.684232827673</ele>
      </trkpt>
      <trkpt lat="48.802875" lon="22.748048">
        <ele>665.5837642687839</ele>
      </trkpt>
      <trkpt lat="48.80296" lon="22.748255">
        <ele>669.5460433949979</ele>
      </trkpt>
      <trkpt lat="48.803176" lon="22.748148">
        <ele>665.8990108046156</ele>
      </trkpt>
      <trkpt lat="48.803303" lon="22.748013">
        <ele>663.6706623998471</ele>
      </trkpt>
      <trkpt lat="48.803374" lon="22.747831">
        <ele>662.443570271997</ele>
      </trkpt>
      <trkpt lat="48.803331" lon="22.747166">
        <ele>655.276053515187</ele>
      </trkpt>
      <trkpt lat="48.80348" lon="22.746758">
        <ele>650.5733683374335</ele>
      </trkpt>
      <trkpt lat="48.80367" lon="22.746404">
        <ele>647.6075038397685</ele>
      </trkpt>
      <trkpt lat="48.803345" lon="22.745878">
        <ele>632.9457774176847</ele>
      </trkpt>
      <trkpt lat="48.803317" lon="22.745717">
        <ele>632.5439399963394</ele>
      </trkpt>
      <trkpt lat="48.803352" lon="22.745385">
        <ele>631.8069071473221</ele>
      </trkpt>
      <trkpt lat="48.803586" lon="22.745074">
        <ele>629.1771180841583</ele>
      </trkpt>
      <trkpt lat="48.803889" lon="22.744913">
        <ele>629.2251518972201</ele>
      </trkpt>
      <trkpt lat="48.804299" lon="22.744988">
        <ele>627.4746278188567</ele>
      </trkpt>
      <trkpt lat="48.804582" lon="22.745009">
        <ele>626.3453967099321</ele>
      </trkpt>
      <trkpt lat="48.804787" lon="22.74472">
        <ele>622.4773503335952</ele>
      </trkpt>
      <trkpt lat="48.804822" lon="22.744044">
        <ele>619.0564722527051</ele>
      </trkpt>
      <trkpt lat="48.804879" lon="22.743067">
        <ele>609.3154852112626</ele>
      </trkpt>
      <trkpt lat="48.804999" lon="22.742005">
        <ele>606.5248878661564</ele>
      </trkpt>
      <trkpt lat="48.805119" lon="22.741265">
        <ele>608.9501384599716</ele>
      </trkpt>
      <trkpt lat="48.804956" lon="22.739892">
        <ele>601.0061011222313</ele>
      </trkpt>
      <trkpt lat="48.804858" lon="22.739345">
        <ele>594.9265494225151</ele>
      </trkpt>
      <trkpt lat="48.80466" lon="22.738647">
        <ele>587.7276873069812</ele>
      </trkpt>
      <trkpt lat="48.804554" lon="22.738347">
        <ele>586.2359552000416</ele>
      </trkpt>
      <trkpt lat="48.804497" lon="22.737553">
        <ele>581.4920085738413</ele>
      </trkpt>
      <trkpt lat="48.804568" lon="22.736984">
        <ele>580.3916658754804</ele>
      </trkpt>
      <trkpt lat="48.804412" lon="22.736491">
        <ele>575.1367962697987</ele>
      </trkpt>
      <trkpt lat="48.804229" lon="22.736094">
        <ele>570.6420982301904</ele>
      </trkpt>
      <trkpt lat="48.804321" lon="22.735321">
        <ele>563.0102378985612</ele>
      </trkpt>
      <trkpt lat="48.804511" lon="22.735074">
        <ele>560.7042414668249</ele>
      </trkpt>
      <trkpt lat="48.804723" lon="22.735032">
        <ele>561.2463882546732</ele>
      </trkpt>
      <trkpt lat="48.805211" lon="22.734173">
        <ele>548.3838000323273</ele>
      </trkpt>
      <trkpt lat="48.80567" lon="22.733808">
        <ele>549.663312690288</ele>
      </trkpt>
      <trkpt lat="48.805578" lon="22.733508">
        <ele>543.7817941135145</ele>
      </trkpt>
      <trkpt lat="48.805154" lon="22.733111">
        <ele>535.0151065799291</ele>
      </trkpt>
      <trkpt lat="48.805105" lon="22.732524">
        <ele>529.6009535999037</ele>
      </trkpt>
      <trkpt lat="48.805147" lon="22.731966">
        <ele>524.6772549362224</ele>
      </trkpt>
      <trkpt lat="48.805479" lon="22.731869">
        <ele>524.6120137309772</ele>
      </trkpt>
      <trkpt lat="48.805515" lon="22.731526">
        <ele>522.8554801669916</ele>
      </trkpt>
      <trkpt lat="48.805423" lon="22.730946">
        <ele>519.2960022687912</ele>
      </trkpt>
      <trkpt lat="48.805437" lon="22.730528">
        <ele>515.8919154643977</ele>
      </trkpt>
      <trkpt lat="48.805698" lon="22.729992">
        <ele>515.0082847011746</ele>
      </trkpt>
      <trkpt lat="48.805946" lon="22.729562">
        <ele>510.976128377486</ele>
      </trkpt>
      <trkpt lat="48.805988" lon="22.729058">
        <ele>505.1499344399109</ele>
      </trkpt>
      <trkpt lat="48.806038" lon="22.728586">
        <ele>498.24170594758925</ele>
      </trkpt>
      <trkpt lat="48.806052" lon="22.728307">
        <ele>492.7716173829656</ele>
      </trkpt>
      <trkpt lat="48.80644" lon="22.728275">
        <ele>495.36407338117715</ele>
      </trkpt>
      <trkpt lat="48.806667" lon="22.7285">
        <ele>498.1348044062283</ele>
      </trkpt>
      <trkpt lat="48.806836" lon="22.729015">
        <ele>505.93910926132537</ele>
      </trkpt>
      <trkpt lat="48.806999" lon="22.728983">
        <ele>499.1602976669092</ele>
      </trkpt>
      <trkpt lat="48.807133" lon="22.728672">
        <ele>488.4096357351378</ele>
      </trkpt>
      <trkpt lat="48.807083" lon="22.728254">
        <ele>482.75817444093616</ele>
      </trkpt>
      <trkpt lat="48.806977" lon="22.727706">
        <ele>476.5042720097117</ele>
      </trkpt>
      <trkpt lat="48.806864" lon="22.727181">
        <ele>480.4368853333872</ele>
      </trkpt>
      <trkpt lat="48.806384" lon="22.727009">
        <ele>479.054731149497</ele>
      </trkpt>
      <trkpt lat="48.806073" lon="22.726505">
        <ele>482.04217143775816</ele>
      </trkpt>
      <trkpt lat="48.805727" lon="22.725915">
        <ele>482.9519548554582</ele>
      </trkpt>
      <trkpt lat="48.805352" lon="22.72497">
        <ele>484.6477622390016</ele>
      </trkpt>
      <trkpt lat="48.804631" lon="22.723758">
        <ele>481.7347347759591</ele>
      </trkpt>
      <trkpt lat="48.804193" lon="22.723082">
        <ele>474.39282854650486</ele>
      </trkpt>
      <trkpt lat="48.803755" lon="22.721698">
        <ele>472.69502923575743</ele>
      </trkpt>
      <trkpt lat="48.80314" lon="22.721226">
        <ele>467.1365707470894</ele>
      </trkpt>
      <trkpt lat="48.802257" lon="22.720432">
        <ele>459.07373693259433</ele>
      </trkpt>
      <trkpt lat="48.801614" lon="22.71996">
        <ele>457.2499964191811</ele>
      </trkpt>
      <trkpt lat="48.801141" lon="22.719198">
        <ele>459.9233306621206</ele>
      </trkpt>
      <trkpt lat="48.801035" lon="22.718233">
        <ele>453.01496444025554</ele>
      </trkpt>
      <trkpt lat="48.800943" lon="22.717278">
        <ele>450.2179831744168</ele>
      </trkpt>
      <trkpt lat="48.800823" lon="22.716409">
        <ele>449.6679914764253</ele>
      </trkpt>
      <trkpt lat="48.800865" lon="22.715744">
        <ele>449.9186577532673</ele>
      </trkpt>
      <trkpt lat="48.800653" lon="22.715154">
        <ele>448.80131706729134</ele>
      </trkpt>
      <trkpt lat="48.800427" lon="22.714263">
        <ele>449.9935760922963</ele>
      </trkpt>
      <trkpt lat="48.799551" lon="22.713469">
        <ele>444.488895569594</ele>
      </trkpt>
      <trkpt lat="48.799126" lon="22.712986">
        <ele>443.8339414882184</ele>
      </trkpt>
      <trkpt lat="48.798604" lon="22.712439">
        <ele>441.4142151251956</ele>
      </trkpt>
    </trkseg>
  </trk>
</gpx>
