<?xml version="1.0" encoding="UTF-8"?>
<gpx version="1.1" creator="phpGPX/1.0RC5" schemaLocation="http://www.topografix.com/GPX/1/1 http://www.topografix.com/GPX/1/1/gpx.xsd http://www.garmin.com/xmlschemas/GpxExtensions/v3 http://www.garmin.com/xmlschemas/GpxExtensionsv3.xsd http://www.garmin.com/xmlschemas/TrackPointExtension/v1 http://www.garmin.com/xmlschemas/TrackPointExtensionv1.xsd http://www.garmin.com/xmlschemas/PowerExtension/v1 http://www.garmin.com/xmlschemas/PowerExtensionv1.xsd http://www.topografix.com/GPX/gpx_style/0/2 http://www.topografix.com/GPX/gpx_style/0/2/gpx_style.xsd" xmlns="http://www.topografix.com/GPX/1/1" xmlns:xsi="http://www.w3.org/2001/XMLSchema-instance" xsi:schemaLocation="http://www.topografix.com/GPX/1/1 http://www.topografix.com/GPX/1/1/gpx.xsd http://www.garmin.com/xmlschemas/GpxExtensions/v3 http://www.garmin.com/xmlschemas/GpxExtensionsv3.xsd http://www.garmin.com/xmlschemas/TrackPointExtension/v1 http://www.garmin.com/xmlschemas/TrackPointExtensionv1.xsd http://www.garmin.com/xmlschemas/PowerExtension/v1 http://www.garmin.com/xmlschemas/PowerExtensionv1.xsd http://www.topografix.com/GPX/gpx_style/0/2 http://www.topografix.com/GPX/gpx_style/0/2/gpx_style.xsd" xmlns:gpxtpx="http://www.garmin.com/xmlschemas/TrackPointExtension/v1" xmlns:gpxx="http://www.garmin.com/xmlschemas/GpxExtensions/v3" xmlns:gpxpx="http://www.garmin.com/xmlschemas/PowerExtension/v1" xmlns:gpx_style="http://www.topografix.com/GPX/gpx_style/0/2">
  <metadata>
    <name>Похід до водоспаду Підгуркало</name>
    <author>
      <name>gpx.studio</name>
      <link href="https://gpx.studio"/>
    </author>
  </metadata>
  <trk>
    <name>Похід до водоспаду Підгуркало</name>
    <trkseg>
      <trkpt lat="48.825571" lon="24.145464">
        <ele>491.5</ele>
      </trkpt>
      <trkpt lat="48.825299" lon="24.145587">
        <ele>491.7276697147493</ele>
      </trkpt>
      <trkpt lat="48.824988" lon="24.145625">
        <ele>493.05842818686506</ele>
      </trkpt>
      <trkpt lat="48.824624" lon="24.145684">
        <ele>494.8406751556322</ele>
      </trkpt>
      <trkpt lat="48.824271" lon="24.145791">
        <ele>494.4273264728139</ele>
      </trkpt>
      <trkpt lat="48.824027" lon="24.145899">
        <ele>495.0798057226929</ele>
      </trkpt>
      <trkpt lat="48.823844" lon="24.145555">
        <ele>496.27882866805885</ele>
      </trkpt>
      <trkpt lat="48.823589" lon="24.145475">
        <ele>498.2169813170804</ele>
      </trkpt>
      <trkpt lat="48.823307" lon="24.145282">
        <ele>499.1225779825975</ele>
      </trkpt>
      <trkpt lat="48.823" lon="24.145078">
        <ele>500.12330868816935</ele>
      </trkpt>
      <trkpt lat="48.822634" lon="24.145207">
        <ele>501.9849795483751</ele>
      </trkpt>
      <trkpt lat="48.822485" lon="24.14482">
        <ele>502.2871509789256</ele>
      </trkpt>
      <trkpt lat="48.822122" lon="24.144429">
        <ele>505.5263874336147</ele>
      </trkpt>
      <trkpt lat="48.821952" lon="24.144091">
        <ele>506.91496776094885</ele>
      </trkpt>
      <trkpt lat="48.821883" lon="24.14339">
        <ele>507.87314161735907</ele>
      </trkpt>
      <trkpt lat="48.82189" lon="24.142796">
        <ele>509.04307386342333</ele>
      </trkpt>
      <trkpt lat="48.82179" lon="24.141682">
        <ele>512.2545976889087</ele>
      </trkpt>
      <trkpt lat="48.82169" lon="24.141287">
        <ele>513.4051185777644</ele>
      </trkpt>
      <trkpt lat="48.821587" lon="24.140963">
        <ele>514</ele>
      </trkpt>
      <trkpt lat="48.821487" lon="24.140171">
        <ele>517.472436228767</ele>
      </trkpt>
      <trkpt lat="48.821587" lon="24.139332">
        <ele>520.475246983325</ele>
      </trkpt>
      <trkpt lat="48.821487" lon="24.139526">
        <ele>519.6804768239342</ele>
      </trkpt>
      <trkpt lat="48.821384" lon="24.139229">
        <ele>522.0985656999526</ele>
      </trkpt>
      <trkpt lat="48.82128" lon="24.138973">
        <ele>523.6923982001467</ele>
      </trkpt>
      <trkpt lat="48.82118" lon="24.138515">
        <ele>524.3815772667979</ele>
      </trkpt>
      <trkpt lat="48.821075" lon="24.136477">
        <ele>537.6413301764276</ele>
      </trkpt>
      <trkpt lat="48.82118" lon="24.135986">
        <ele>534.2399447964272</ele>
      </trkpt>
      <trkpt lat="48.821075" lon="24.135277">
        <ele>536.9434934452497</ele>
      </trkpt>
      <trkpt lat="48.820972" lon="24.134596">
        <ele>544.6866298235453</ele>
      </trkpt>
      <trkpt lat="48.820866" lon="24.134495">
        <ele>548.3434571408324</ele>
      </trkpt>
      <trkpt lat="48.82076" lon="24.133432">
        <ele>551.9169038761119</ele>
      </trkpt>
      <trkpt lat="48.820656" lon="24.13327">
        <ele>551.2400578751897</ele>
      </trkpt>
      <trkpt lat="48.82055" lon="24.132936">
        <ele>553.5626709036505</ele>
      </trkpt>
      <trkpt lat="48.82044" lon="24.132786">
        <ele>556.4235404622741</ele>
      </trkpt>
      <trkpt lat="48.820335" lon="24.131931">
        <ele>556.3160809228806</ele>
      </trkpt>
      <trkpt lat="48.82023" lon="24.13169">
        <ele>560.1110445509765</ele>
      </trkpt>
      <trkpt lat="48.82013" lon="24.130344">
        <ele>565.534757120302</ele>
      </trkpt>
      <trkpt lat="48.820312" lon="24.130236">
        <ele>563.8126678880686</ele>
      </trkpt>
    </trkseg>
  </trk>
</gpx>
