<?xml version="1.0" encoding="UTF-8"?>
<gpx version="1.1" creator="phpGPX/1.0RC5" schemaLocation="http://www.topografix.com/GPX/1/1 http://www.topografix.com/GPX/1/1/gpx.xsd http://www.garmin.com/xmlschemas/GpxExtensions/v3 http://www.garmin.com/xmlschemas/GpxExtensionsv3.xsd http://www.garmin.com/xmlschemas/TrackPointExtension/v1 http://www.garmin.com/xmlschemas/TrackPointExtensionv1.xsd http://www.garmin.com/xmlschemas/PowerExtension/v1 http://www.garmin.com/xmlschemas/PowerExtensionv1.xsd http://www.topografix.com/GPX/gpx_style/0/2 http://www.topografix.com/GPX/gpx_style/0/2/gpx_style.xsd" xmlns="http://www.topografix.com/GPX/1/1" xmlns:xsi="http://www.w3.org/2001/XMLSchema-instance" xsi:schemaLocation="http://www.topografix.com/GPX/1/1 http://www.topografix.com/GPX/1/1/gpx.xsd http://www.garmin.com/xmlschemas/GpxExtensions/v3 http://www.garmin.com/xmlschemas/GpxExtensionsv3.xsd http://www.garmin.com/xmlschemas/TrackPointExtension/v1 http://www.garmin.com/xmlschemas/TrackPointExtensionv1.xsd http://www.garmin.com/xmlschemas/PowerExtension/v1 http://www.garmin.com/xmlschemas/PowerExtensionv1.xsd http://www.topografix.com/GPX/gpx_style/0/2 http://www.topografix.com/GPX/gpx_style/0/2/gpx_style.xsd" xmlns:gpxtpx="http://www.garmin.com/xmlschemas/TrackPointExtension/v1" xmlns:gpxx="http://www.garmin.com/xmlschemas/GpxExtensions/v3" xmlns:gpxpx="http://www.garmin.com/xmlschemas/PowerExtension/v1" xmlns:gpx_style="http://www.topografix.com/GPX/gpx_style/0/2">
  <metadata>
    <name>Полонина Довга, озеро Озірне біля Буковеля</name>
    <author>
      <name>gpx.studio</name>
      <link href="https://gpx.studio"/>
    </author>
  </metadata>
  <trk>
    <name>Полонина Довга, озеро Озірне біля Буковеля</name>
    <trkseg>
      <trkpt lat="48.358163" lon="24.407509">
        <ele>895.0826182550641</ele>
      </trkpt>
      <trkpt lat="48.360559" lon="24.405535">
        <ele>895.8314746064053</ele>
      </trkpt>
      <trkpt lat="48.362384" lon="24.40545">
        <ele>902.7664973131652</ele>
      </trkpt>
      <trkpt lat="48.364323" lon="24.406308">
        <ele>919.3608736507595</ele>
      </trkpt>
      <trkpt lat="48.366147" lon="24.405192">
        <ele>928.0404529958032</ele>
      </trkpt>
      <trkpt lat="48.367687" lon="24.404119">
        <ele>933.1689932305599</ele>
      </trkpt>
      <trkpt lat="48.36851" lon="24.403619">
        <ele>941.1938855453938</ele>
      </trkpt>
      <trkpt lat="48.369308" lon="24.401774">
        <ele>933.0204646268394</ele>
      </trkpt>
      <trkpt lat="48.370505" lon="24.400143">
        <ele>933.7025342065826</ele>
      </trkpt>
      <trkpt lat="48.371033" lon="24.399347">
        <ele>931.2479993589886</ele>
      </trkpt>
      <trkpt lat="48.371207" lon="24.398503">
        <ele>925.7969699827954</ele>
      </trkpt>
      <trkpt lat="48.370936" lon="24.398031">
        <ele>921.3509286786525</ele>
      </trkpt>
      <trkpt lat="48.371506" lon="24.397044">
        <ele>922.6767495611459</ele>
      </trkpt>
      <trkpt lat="48.37192" lon="24.396684">
        <ele>922.0341947936054</ele>
      </trkpt>
      <trkpt lat="48.372511" lon="24.397191">
        <ele>926.3952089927152</ele>
      </trkpt>
      <trkpt lat="48.373046" lon="24.397097">
        <ele>927.5597199875629</ele>
      </trkpt>
      <trkpt lat="48.373224" lon="24.396722">
        <ele>927.9085899918298</ele>
      </trkpt>
      <trkpt lat="48.373701" lon="24.395434">
        <ele>934.3269088255315</ele>
      </trkpt>
      <trkpt lat="48.374043" lon="24.394329">
        <ele>936.2199611800811</ele>
      </trkpt>
      <trkpt lat="48.374307" lon="24.39331">
        <ele>941.8461911361665</ele>
      </trkpt>
      <trkpt lat="48.374457" lon="24.391937">
        <ele>941.3290215768211</ele>
      </trkpt>
      <trkpt lat="48.374899" lon="24.391293">
        <ele>940.2120870605816</ele>
      </trkpt>
      <trkpt lat="48.375739" lon="24.390602">
        <ele>940.6978592951275</ele>
      </trkpt>
      <trkpt lat="48.376295" lon="24.390195">
        <ele>944.9096588371323</ele>
      </trkpt>
      <trkpt lat="48.377146" lon="24.389298">
        <ele>954.7018762221364</ele>
      </trkpt>
      <trkpt lat="48.377624" lon="24.38874">
        <ele>955.4021316336236</ele>
      </trkpt>
      <trkpt lat="48.377745" lon="24.387796">
        <ele>954.74565145942</ele>
      </trkpt>
      <trkpt lat="48.377852" lon="24.386316">
        <ele>955.0220151322297</ele>
      </trkpt>
      <trkpt lat="48.377987" lon="24.384406">
        <ele>957.8417842396364</ele>
      </trkpt>
      <trkpt lat="48.378344" lon="24.383591">
        <ele>963.103023106727</ele>
      </trkpt>
      <trkpt lat="48.378586" lon="24.382722">
        <ele>969.594892567014</ele>
      </trkpt>
      <trkpt lat="48.379021" lon="24.382228">
        <ele>978.9776387095914</ele>
      </trkpt>
      <trkpt lat="48.378985" lon="24.381659">
        <ele>980.4344701310116</ele>
      </trkpt>
      <trkpt lat="48.379384" lon="24.380887">
        <ele>981.110467498506</ele>
      </trkpt>
      <trkpt lat="48.379854" lon="24.380522">
        <ele>983.5839323296918</ele>
      </trkpt>
      <trkpt lat="48.38004" lon="24.380179">
        <ele>982.6385043994546</ele>
      </trkpt>
      <trkpt lat="48.380004" lon="24.379782">
        <ele>984.6536053073216</ele>
      </trkpt>
      <trkpt lat="48.380061" lon="24.379331">
        <ele>982.5265925361688</ele>
      </trkpt>
      <trkpt lat="48.380018" lon="24.37917">
        <ele>982.6122676327359</ele>
      </trkpt>
      <trkpt lat="48.38009" lon="24.378966">
        <ele>980.3914281093203</ele>
      </trkpt>
      <trkpt lat="48.380061" lon="24.378677">
        <ele>980.2083118015128</ele>
      </trkpt>
      <trkpt lat="48.380467" lon="24.377861">
        <ele>984.2366299857968</ele>
      </trkpt>
      <trkpt lat="48.380745" lon="24.37769">
        <ele>988.4324514602968</ele>
      </trkpt>
      <trkpt lat="48.381087" lon="24.376907">
        <ele>992.4817792870012</ele>
      </trkpt>
      <trkpt lat="48.381408" lon="24.376402">
        <ele>991.0588610830756</ele>
      </trkpt>
      <trkpt lat="48.381429" lon="24.37607">
        <ele>991.4746767764683</ele>
      </trkpt>
      <trkpt lat="48.38185" lon="24.375351">
        <ele>993.4404488713449</ele>
      </trkpt>
      <trkpt lat="48.381935" lon="24.375018">
        <ele>996.3627099019094</ele>
      </trkpt>
      <trkpt lat="48.3819" lon="24.374385">
        <ele>995.301738584815</ele>
      </trkpt>
      <trkpt lat="48.382035" lon="24.374031">
        <ele>991.0230788584591</ele>
      </trkpt>
      <trkpt lat="48.382299" lon="24.373645">
        <ele>995.2468330248851</ele>
      </trkpt>
      <trkpt lat="48.382576" lon="24.372862">
        <ele>998.2187099569769</ele>
      </trkpt>
      <trkpt lat="48.382605" lon="24.372411">
        <ele>994.8121059422847</ele>
      </trkpt>
      <trkpt lat="48.382994" lon="24.371651">
        <ele>1003.9456301694736</ele>
      </trkpt>
      <trkpt lat="48.383713" lon="24.370664">
        <ele>1012.0085274273297</ele>
      </trkpt>
      <trkpt lat="48.384333" lon="24.369548">
        <ele>1024.3641589205945</ele>
      </trkpt>
      <trkpt lat="48.385169" lon="24.368851">
        <ele>1033.6181992265545</ele>
      </trkpt>
      <trkpt lat="48.385925" lon="24.367264">
        <ele>1041.3213884795996</ele>
      </trkpt>
      <trkpt lat="48.387236" lon="24.365354">
        <ele>1050.6126460041826</ele>
      </trkpt>
      <trkpt lat="48.387706" lon="24.363508">
        <ele>1074.08828796438</ele>
      </trkpt>
      <trkpt lat="48.387834" lon="24.362543">
        <ele>1078.451754497015</ele>
      </trkpt>
      <trkpt lat="48.388732" lon="24.36132">
        <ele>1092.7764069928403</ele>
      </trkpt>
      <trkpt lat="48.389231" lon="24.360655">
        <ele>1105.0597438616096</ele>
      </trkpt>
      <trkpt lat="48.389615" lon="24.360011">
        <ele>1113.9515864275163</ele>
      </trkpt>
      <trkpt lat="48.389701" lon="24.359067">
        <ele>1112.1736009667675</ele>
      </trkpt>
      <trkpt lat="48.390268" lon="24.358767">
        <ele>1111.2428633403033</ele>
      </trkpt>
      <trkpt lat="48.391436" lon="24.357308">
        <ele>1101.0229848448944</ele>
      </trkpt>
      <trkpt lat="48.39175" lon="24.355591">
        <ele>1067.9699307515984</ele>
      </trkpt>
      <trkpt lat="48.392604" lon="24.354776">
        <ele>1067.8255967672449</ele>
      </trkpt>
      <trkpt lat="48.393516" lon="24.351772">
        <ele>1046.6750226256734</ele>
      </trkpt>
      <trkpt lat="48.393516" lon="24.348853">
        <ele>1032.7336001407054</ele>
      </trkpt>
      <trkpt lat="48.394257" lon="24.347008">
        <ele>1034.3310982984258</ele>
      </trkpt>
      <trkpt lat="48.394485" lon="24.34439">
        <ele>1023.4600596806798</ele>
      </trkpt>
      <trkpt lat="48.394913" lon="24.34336">
        <ele>1021.8150589116267</ele>
      </trkpt>
      <trkpt lat="48.395027" lon="24.341729">
        <ele>1010.2946715114675</ele>
      </trkpt>
      <trkpt lat="48.395967" lon="24.33894">
        <ele>1004.525776987391</ele>
      </trkpt>
      <trkpt lat="48.396052" lon="24.337824">
        <ele>993.1891750568757</ele>
      </trkpt>
      <trkpt lat="48.396594" lon="24.335507">
        <ele>979.0667870654725</ele>
      </trkpt>
      <trkpt lat="48.396366" lon="24.335245">
        <ele>977.3844954911888</ele>
      </trkpt>
      <trkpt lat="48.396337" lon="24.334752">
        <ele>975.6295424861403</ele>
      </trkpt>
      <trkpt lat="48.396964" lon="24.333572">
        <ele>978.0513743829481</ele>
      </trkpt>
      <trkpt lat="48.397264" lon="24.332091">
        <ele>975.1523500196256</ele>
      </trkpt>
      <trkpt lat="48.397591" lon="24.330739">
        <ele>969.4238814285663</ele>
      </trkpt>
      <trkpt lat="48.397933" lon="24.329302">
        <ele>964.2207883444129</ele>
      </trkpt>
      <trkpt lat="48.398033" lon="24.328443">
        <ele>961.041713708255</ele>
      </trkpt>
      <trkpt lat="48.398531" lon="24.327199">
        <ele>954.2569458906895</ele>
      </trkpt>
      <trkpt lat="48.399201" lon="24.326426">
        <ele>953.4948752047649</ele>
      </trkpt>
      <trkpt lat="48.399543" lon="24.325439">
        <ele>953.3971558093326</ele>
      </trkpt>
      <trkpt lat="48.399479" lon="24.324742">
        <ele>948.0996951946169</ele>
      </trkpt>
      <trkpt lat="48.399721" lon="24.323969">
        <ele>948.703645073126</ele>
      </trkpt>
      <trkpt lat="48.400091" lon="24.322736">
        <ele>944.5</ele>
      </trkpt>
      <trkpt lat="48.400761" lon="24.321652">
        <ele>937.655056626164</ele>
      </trkpt>
      <trkpt lat="48.401704" lon="24.320338">
        <ele>941.3552415022859</ele>
      </trkpt>
      <trkpt lat="48.40179" lon="24.321271">
        <ele>952.8406634705846</ele>
      </trkpt>
      <trkpt lat="48.401918" lon="24.322087">
        <ele>964.2565787064959</ele>
      </trkpt>
      <trkpt lat="48.402018" lon="24.322183">
        <ele>968.6569299930707</ele>
      </trkpt>
      <trkpt lat="48.402559" lon="24.321722">
        <ele>982.7400750622618</ele>
      </trkpt>
      <trkpt lat="48.40268" lon="24.321851">
        <ele>986.8457136337186</ele>
      </trkpt>
      <trkpt lat="48.402673" lon="24.322505">
        <ele>990.2684210785665</ele>
      </trkpt>
      <trkpt lat="48.40278" lon="24.322645">
        <ele>992.3408854872389</ele>
      </trkpt>
      <trkpt lat="48.403962" lon="24.32243">
        <ele>1022.1775101340907</ele>
      </trkpt>
      <trkpt lat="48.404277" lon="24.3224">
        <ele>1024.7408347783494</ele>
      </trkpt>
      <trkpt lat="48.404505" lon="24.322496">
        <ele>1028.0844502554974</ele>
      </trkpt>
      <trkpt lat="48.40506" lon="24.322636">
        <ele>1036.9527008850782</ele>
      </trkpt>
      <trkpt lat="48.405345" lon="24.322507">
        <ele>1042.7308848826215</ele>
      </trkpt>
      <trkpt lat="48.405758" lon="24.322625">
        <ele>1051.9919113894587</ele>
      </trkpt>
      <trkpt lat="48.406" lon="24.323033">
        <ele>1061.6765734065557</ele>
      </trkpt>
      <trkpt lat="48.4063" lon="24.323333">
        <ele>1075.1951654986108</ele>
      </trkpt>
      <trkpt lat="48.407055" lon="24.323451">
        <ele>1099.7895723059921</ele>
      </trkpt>
      <trkpt lat="48.407596" lon="24.323526">
        <ele>1113.5110169446689</ele>
      </trkpt>
      <trkpt lat="48.40875" lon="24.324406">
        <ele>1116.6269030193216</ele>
      </trkpt>
      <trkpt lat="48.409633" lon="24.324867">
        <ele>1118.69995287776</ele>
      </trkpt>
      <trkpt lat="48.410128" lon="24.325498">
        <ele>1120.7018813934317</ele>
      </trkpt>
      <trkpt lat="48.410491" lon="24.325423">
        <ele>1114.5734675202261</ele>
      </trkpt>
      <trkpt lat="48.410579" lon="24.325845">
        <ele>1117.606322708283</ele>
      </trkpt>
      <trkpt lat="48.410871" lon="24.326252">
        <ele>1124.6009996888265</ele>
      </trkpt>
      <trkpt lat="48.411405" lon="24.326349">
        <ele>1133.939737285371</ele>
      </trkpt>
      <trkpt lat="48.412295" lon="24.326059">
        <ele>1143.3244732591727</ele>
      </trkpt>
      <trkpt lat="48.412737" lon="24.326102">
        <ele>1151.399500650994</ele>
      </trkpt>
      <trkpt lat="48.413406" lon="24.326424">
        <ele>1165.1283470057665</ele>
      </trkpt>
      <trkpt lat="48.414595" lon="24.327465">
        <ele>1197.010979503044</ele>
      </trkpt>
      <trkpt lat="48.414983" lon="24.327686">
        <ele>1205.6545607547432</ele>
      </trkpt>
      <trkpt lat="48.415303" lon="24.328587">
        <ele>1201.2702442193693</ele>
      </trkpt>
      <trkpt lat="48.416001" lon="24.329446">
        <ele>1208.3691024403429</ele>
      </trkpt>
      <trkpt lat="48.416407" lon="24.330315">
        <ele>1235.133868910838</ele>
      </trkpt>
      <trkpt lat="48.417525" lon="24.33127">
        <ele>1255.6066793679552</ele>
      </trkpt>
      <trkpt lat="48.418566" lon="24.330735">
        <ele>1235.7683299609653</ele>
      </trkpt>
      <trkpt lat="48.418687" lon="24.331175">
        <ele>1243.0778840695275</ele>
      </trkpt>
      <trkpt lat="48.419313" lon="24.330939">
        <ele>1234.468059408209</ele>
      </trkpt>
      <trkpt lat="48.420652" lon="24.331712">
        <ele>1271.3567901544739</ele>
      </trkpt>
      <trkpt lat="48.421072" lon="24.331379">
        <ele>1284.414480751291</ele>
      </trkpt>
      <trkpt lat="48.421577" lon="24.331304">
        <ele>1303.8945175595743</ele>
      </trkpt>
      <trkpt lat="48.421827" lon="24.332441">
        <ele>1317.4935051098</ele>
      </trkpt>
      <trkpt lat="48.422005" lon="24.332731">
        <ele>1314.1475875675847</ele>
      </trkpt>
      <trkpt lat="48.422532" lon="24.334029">
        <ele>1309.2276746626344</ele>
      </trkpt>
      <trkpt lat="48.422631" lon="24.337098">
        <ele>1314.135112686074</ele>
      </trkpt>
      <trkpt lat="48.42481" lon="24.339608">
        <ele>1342.5683722696003</ele>
      </trkpt>
      <trkpt lat="48.425522" lon="24.3386">
        <ele>1320.770257504948</ele>
      </trkpt>
      <trkpt lat="48.426234" lon="24.33875">
        <ele>1309.1815689677792</ele>
      </trkpt>
      <trkpt lat="48.427017" lon="24.33742">
        <ele>1269.5995265523168</ele>
      </trkpt>
      <trkpt lat="48.427045" lon="24.336368">
        <ele>1252.7807300424902</ele>
      </trkpt>
      <trkpt lat="48.427401" lon="24.33448">
        <ele>1214.9847649113963</ele>
      </trkpt>
      <trkpt lat="48.426552" lon="24.330318">
        <ele>1113.7488995066378</ele>
      </trkpt>
      <trkpt lat="48.426794" lon="24.329213">
        <ele>1098.7353177390626</ele>
      </trkpt>
      <trkpt lat="48.42809" lon="24.326906">
        <ele>1061.2481343909308</ele>
      </trkpt>
      <trkpt lat="48.428574" lon="24.324589">
        <ele>1035.502290510222</ele>
      </trkpt>
      <trkpt lat="48.428631" lon="24.32343">
        <ele>1025.9995234489907</ele>
      </trkpt>
      <trkpt lat="48.428289" lon="24.321971">
        <ele>1011.628222573665</ele>
      </trkpt>
      <trkpt lat="48.428588" lon="24.320491">
        <ele>1004.604414060545</ele>
      </trkpt>
      <trkpt lat="48.428887" lon="24.317551">
        <ele>993.8614956138462</ele>
      </trkpt>
      <trkpt lat="48.427791" lon="24.312144">
        <ele>977.1499008543854</ele>
      </trkpt>
      <trkpt lat="48.427392" lon="24.311564">
        <ele>974.2909997299096</ele>
      </trkpt>
      <trkpt lat="48.427264" lon="24.310448">
        <ele>968.9954808272711</ele>
      </trkpt>
      <trkpt lat="48.425911" lon="24.305749">
        <ele>947.2906889449805</ele>
      </trkpt>
      <trkpt lat="48.425157" lon="24.303882">
        <ele>925.5948543394117</ele>
      </trkpt>
      <trkpt lat="48.424986" lon="24.302595">
        <ele>918.7474554374348</ele>
      </trkpt>
      <trkpt lat="48.424473" lon="24.299934">
        <ele>909.320252700059</ele>
      </trkpt>
      <trkpt lat="48.424345" lon="24.297703">
        <ele>898.9982899206225</ele>
      </trkpt>
      <trkpt lat="48.42369" lon="24.295514">
        <ele>887.1704004120338</ele>
      </trkpt>
      <trkpt lat="48.422209" lon="24.293325">
        <ele>877.4754086916314</ele>
      </trkpt>
      <trkpt lat="48.421155" lon="24.292403">
        <ele>870.9379895558814</ele>
      </trkpt>
      <trkpt lat="48.420899" lon="24.291845">
        <ele>869.8244145762194</ele>
      </trkpt>
      <trkpt lat="48.420059" lon="24.291308">
        <ele>862.2502146203769</ele>
      </trkpt>
      <trkpt lat="48.41976" lon="24.289852">
        <ele>858.9485834435327</ele>
      </trkpt>
      <trkpt lat="48.421896" lon="24.287578">
        <ele>868.5290852528997</ele>
      </trkpt>
      <trkpt lat="48.426111" lon="24.284316">
        <ele>851.4904841169407</ele>
      </trkpt>
      <trkpt lat="48.426937" lon="24.282471">
        <ele>846.8076455278788</ele>
      </trkpt>
      <trkpt lat="48.427535" lon="24.281827">
        <ele>839.8419029333163</ele>
      </trkpt>
      <trkpt lat="48.427364" lon="24.279639">
        <ele>834.025303796865</ele>
      </trkpt>
      <trkpt lat="48.430269" lon="24.276763">
        <ele>834.9696954890615</ele>
      </trkpt>
      <trkpt lat="48.43323" lon="24.27363">
        <ele>816.8320510915946</ele>
      </trkpt>
      <trkpt lat="48.431949" lon="24.273459">
        <ele>813.4446233307228</ele>
      </trkpt>
      <trkpt lat="48.430867" lon="24.273888">
        <ele>821.9891416423728</ele>
      </trkpt>
      <trkpt lat="48.429785" lon="24.273287">
        <ele>853.4012247916543</ele>
      </trkpt>
      <trkpt lat="48.427564" lon="24.273459">
        <ele>925.8224749856163</ele>
      </trkpt>
      <trkpt lat="48.426396" lon="24.273373">
        <ele>950.5846762393355</ele>
      </trkpt>
      <trkpt lat="48.424659" lon="24.274832">
        <ele>977.6645821116144</ele>
      </trkpt>
      <trkpt lat="48.423292" lon="24.277149">
        <ele>997.7739248097695</ele>
      </trkpt>
      <trkpt lat="48.421355" lon="24.280196">
        <ele>1018.5610045700549</ele>
      </trkpt>
      <trkpt lat="48.420131" lon="24.280969">
        <ele>1014.4836306672062</ele>
      </trkpt>
      <trkpt lat="48.418877" lon="24.282471">
        <ele>1008.5441707573916</ele>
      </trkpt>
      <trkpt lat="48.41788" lon="24.282728">
        <ele>1006.7322101031406</ele>
      </trkpt>
      <trkpt lat="48.416599" lon="24.281656">
        <ele>1028.628148130335</ele>
      </trkpt>
      <trkpt lat="48.415545" lon="24.281613">
        <ele>1041.8039838428376</ele>
      </trkpt>
      <trkpt lat="48.414491" lon="24.280626">
        <ele>1069.6664484055916</ele>
      </trkpt>
      <trkpt lat="48.413864" lon="24.279295">
        <ele>1091.0092417732442</ele>
      </trkpt>
      <trkpt lat="48.409933" lon="24.282943">
        <ele>1147.3445984767552</ele>
      </trkpt>
      <trkpt lat="48.409363" lon="24.281484">
        <ele>1179.9724066014978</ele>
      </trkpt>
      <trkpt lat="48.407711" lon="24.282857">
        <ele>1211.0644781261217</ele>
      </trkpt>
      <trkpt lat="48.406515" lon="24.282385">
        <ele>1238.8133488472085</ele>
      </trkpt>
      <trkpt lat="48.404122" lon="24.283844">
        <ele>1289.6297144167952</ele>
      </trkpt>
      <trkpt lat="48.401814" lon="24.285561">
        <ele>1318.1276493361802</ele>
      </trkpt>
      <trkpt lat="48.40113" lon="24.287063">
        <ele>1320.4868285976117</ele>
      </trkpt>
      <trkpt lat="48.400769" lon="24.289022">
        <ele>1320.4245686177164</ele>
      </trkpt>
      <trkpt lat="48.398176" lon="24.293743">
        <ele>1316.3103331555612</ele>
      </trkpt>
      <trkpt lat="48.398033" lon="24.297348">
        <ele>1298.172682577453</ele>
      </trkpt>
      <trkpt lat="48.397236" lon="24.300996">
        <ele>1280.098481502966</ele>
      </trkpt>
      <trkpt lat="48.396751" lon="24.305073">
        <ele>1272.291834516218</ele>
      </trkpt>
      <trkpt lat="48.395326" lon="24.308206">
        <ele>1270.0193678671233</ele>
      </trkpt>
      <trkpt lat="48.393663" lon="24.31254">
        <ele>1252.4053973333212</ele>
      </trkpt>
      <trkpt lat="48.393492" lon="24.315158">
        <ele>1268.0926250665216</ele>
      </trkpt>
      <trkpt lat="48.392809" lon="24.316445">
        <ele>1271.6938882048707</ele>
      </trkpt>
      <trkpt lat="48.390044" lon="24.318548">
        <ele>1282.8511866283216</ele>
      </trkpt>
      <trkpt lat="48.388933" lon="24.323998">
        <ele>1312.0302216251232</ele>
      </trkpt>
      <trkpt lat="48.388847" lon="24.328118">
        <ele>1294.204535321537</ele>
      </trkpt>
      <trkpt lat="48.389275" lon="24.330693">
        <ele>1317.3878808514607</ele>
      </trkpt>
      <trkpt lat="48.387479" lon="24.33477">
        <ele>1318.7432386197615</ele>
      </trkpt>
      <trkpt lat="48.386396" lon="24.335457">
        <ele>1313.0818990975968</ele>
      </trkpt>
      <trkpt lat="48.385969" lon="24.339856">
        <ele>1309.5163278094603</ele>
      </trkpt>
      <trkpt lat="48.383803" lon="24.343847">
        <ele>1327.975361708221</ele>
      </trkpt>
      <trkpt lat="48.381437" lon="24.344577">
        <ele>1363.2694659082917</ele>
      </trkpt>
      <trkpt lat="48.381665" lon="24.34874">
        <ele>1349.4490820590838</ele>
      </trkpt>
      <trkpt lat="48.381722" lon="24.349684">
        <ele>1347.7687672194684</ele>
      </trkpt>
      <trkpt lat="48.380411" lon="24.351615">
        <ele>1312.9879942203395</ele>
      </trkpt>
      <trkpt lat="48.380288" lon="24.35177">
        <ele>1312.364642158472</ele>
      </trkpt>
      <trkpt lat="48.376874" lon="24.356185">
        <ele>1335.1276379160918</ele>
      </trkpt>
      <trkpt lat="48.374054" lon="24.357663">
        <ele>1360.9351003035513</ele>
      </trkpt>
      <trkpt lat="48.372203" lon="24.362736">
        <ele>1330.7988821030171</ele>
      </trkpt>
      <trkpt lat="48.371577" lon="24.364527">
        <ele>1339.4747262430346</ele>
      </trkpt>
      <trkpt lat="48.369801" lon="24.366165">
        <ele>1344.9386851313961</ele>
      </trkpt>
      <trkpt lat="48.368425" lon="24.366709">
        <ele>1342.02699040883</ele>
      </trkpt>
      <trkpt lat="48.36791" lon="24.369097">
        <ele>1366.5653417071978</ele>
      </trkpt>
      <trkpt lat="48.367879" lon="24.371995">
        <ele>1343.1129766686352</ele>
      </trkpt>
      <trkpt lat="48.368007" lon="24.373507">
        <ele>1311.5340641063988</ele>
      </trkpt>
      <trkpt lat="48.367998" lon="24.374232">
        <ele>1296.3041672590664</ele>
      </trkpt>
      <trkpt lat="48.36911" lon="24.374215">
        <ele>1276.977108622319</ele>
      </trkpt>
      <trkpt lat="48.369488" lon="24.37485">
        <ele>1256.3182029347922</ele>
      </trkpt>
      <trkpt lat="48.369903" lon="24.375782">
        <ele>1240.1662336243585</ele>
      </trkpt>
      <trkpt lat="48.369943" lon="24.377188">
        <ele>1219.8285036932211</ele>
      </trkpt>
      <trkpt lat="48.369783" lon="24.377994">
        <ele>1205.9294064389285</ele>
      </trkpt>
      <trkpt lat="48.369147" lon="24.379385">
        <ele>1188.1821084647765</ele>
      </trkpt>
      <trkpt lat="48.366948" lon="24.382399">
        <ele>1149.5175816519186</ele>
      </trkpt>
      <trkpt lat="48.366002" lon="24.383273">
        <ele>1152.9908001583535</ele>
      </trkpt>
      <trkpt lat="48.36415" lon="24.38681">
        <ele>1150.2094341009</ele>
      </trkpt>
      <trkpt lat="48.363951" lon="24.387606">
        <ele>1142.7277356797792</ele>
      </trkpt>
      <trkpt lat="48.363607" lon="24.388274">
        <ele>1148.7082016199129</ele>
      </trkpt>
      <trkpt lat="48.363264" lon="24.389903">
        <ele>1137.6416144645025</ele>
      </trkpt>
      <trkpt lat="48.363436" lon="24.391549">
        <ele>1113.862033097772</ele>
      </trkpt>
      <trkpt lat="48.364015" lon="24.392631">
        <ele>1103.5245397433364</ele>
      </trkpt>
      <trkpt lat="48.364352" lon="24.393918">
        <ele>1097.1863377771156</ele>
      </trkpt>
      <trkpt lat="48.363991" lon="24.396926">
        <ele>1073.630171658988</ele>
      </trkpt>
      <trkpt lat="48.36287" lon="24.399533">
        <ele>1042.9574579883483</ele>
      </trkpt>
      <trkpt lat="48.361963" lon="24.40091">
        <ele>1011.3235921481402</ele>
      </trkpt>
      <trkpt lat="48.359354" lon="24.404478">
        <ele>950.78865597062</ele>
      </trkpt>
      <trkpt lat="48.357865" lon="24.406139">
        <ele>927.3284078722584</ele>
      </trkpt>
      <trkpt lat="48.357239" lon="24.407141">
        <ele>908.5545207131654</ele>
      </trkpt>
      <trkpt lat="48.357168" lon="24.407658">
        <ele>897.9031554656103</ele>
      </trkpt>
      <trkpt lat="48.357502" lon="24.407904">
        <ele>893.3096615664947</ele>
      </trkpt>
      <trkpt lat="48.357657" lon="24.407762">
        <ele>894.9478831161265</ele>
      </trkpt>
      <trkpt lat="48.357925" lon="24.408109">
        <ele>893.4226259846473</ele>
      </trkpt>
    </trkseg>
  </trk>
</gpx>
