<?xml version="1.0" encoding="UTF-8"?>
<gpx version="1.1" creator="phpGPX/1.0RC5" schemaLocation="http://www.topografix.com/GPX/1/1 http://www.topografix.com/GPX/1/1/gpx.xsd http://www.garmin.com/xmlschemas/GpxExtensions/v3 http://www.garmin.com/xmlschemas/GpxExtensionsv3.xsd http://www.garmin.com/xmlschemas/TrackPointExtension/v1 http://www.garmin.com/xmlschemas/TrackPointExtensionv1.xsd http://www.garmin.com/xmlschemas/PowerExtension/v1 http://www.garmin.com/xmlschemas/PowerExtensionv1.xsd http://www.topografix.com/GPX/gpx_style/0/2 http://www.topografix.com/GPX/gpx_style/0/2/gpx_style.xsd" xmlns="http://www.topografix.com/GPX/1/1" xmlns:xsi="http://www.w3.org/2001/XMLSchema-instance" xsi:schemaLocation="http://www.topografix.com/GPX/1/1 http://www.topografix.com/GPX/1/1/gpx.xsd http://www.garmin.com/xmlschemas/GpxExtensions/v3 http://www.garmin.com/xmlschemas/GpxExtensionsv3.xsd http://www.garmin.com/xmlschemas/TrackPointExtension/v1 http://www.garmin.com/xmlschemas/TrackPointExtensionv1.xsd http://www.garmin.com/xmlschemas/PowerExtension/v1 http://www.garmin.com/xmlschemas/PowerExtensionv1.xsd http://www.topografix.com/GPX/gpx_style/0/2 http://www.topografix.com/GPX/gpx_style/0/2/gpx_style.xsd" xmlns:gpxtpx="http://www.garmin.com/xmlschemas/TrackPointExtension/v1" xmlns:gpxx="http://www.garmin.com/xmlschemas/GpxExtensions/v3" xmlns:gpxpx="http://www.garmin.com/xmlschemas/PowerExtension/v1" xmlns:gpx_style="http://www.topografix.com/GPX/gpx_style/0/2">
  <metadata>
    <name>Прогулянка по Боржаві: Пилипець - Великий Верх - Гимба</name>
    <author>
      <name>gpx.studio</name>
      <link href="https://gpx.studio"/>
    </author>
  </metadata>
  <trk>
    <name>Прогулянка по Боржаві: Пилипець - Великий Верх - Гимба</name>
    <trkseg>
      <trkpt lat="48.660961" lon="23.286896">
        <ele>683.0100096237147</ele>
      </trkpt>
      <trkpt lat="48.661528" lon="23.28784">
        <ele>690.699217206116</ele>
      </trkpt>
      <trkpt lat="48.662152" lon="23.289385">
        <ele>696.6604616295081</ele>
      </trkpt>
      <trkpt lat="48.662804" lon="23.290329">
        <ele>705.5950366206458</ele>
      </trkpt>
      <trkpt lat="48.662577" lon="23.288398">
        <ele>716.0140175426495</ele>
      </trkpt>
      <trkpt lat="48.662265" lon="23.286467">
        <ele>719.050286104916</ele>
      </trkpt>
      <trkpt lat="48.661897" lon="23.284321">
        <ele>725.5951598257524</ele>
      </trkpt>
      <trkpt lat="48.661698" lon="23.282519">
        <ele>729.1283299298583</ele>
      </trkpt>
      <trkpt lat="48.66201" lon="23.281145">
        <ele>740.8990722674266</ele>
      </trkpt>
      <trkpt lat="48.662407" lon="23.2796">
        <ele>758.071165666862</ele>
      </trkpt>
      <trkpt lat="48.662662" lon="23.277498">
        <ele>773.9172597561846</ele>
      </trkpt>
      <trkpt lat="48.662662" lon="23.276038">
        <ele>787.5957419126062</ele>
      </trkpt>
      <trkpt lat="48.662662" lon="23.274622">
        <ele>807.0780817545601</ele>
      </trkpt>
      <trkpt lat="48.662549" lon="23.273592">
        <ele>833.259456433145</ele>
      </trkpt>
      <trkpt lat="48.661727" lon="23.27282">
        <ele>840.3231922176743</ele>
      </trkpt>
      <trkpt lat="48.661897" lon="23.27209">
        <ele>856.986215696212</ele>
      </trkpt>
      <trkpt lat="48.662577" lon="23.271489">
        <ele>884.3790079447713</ele>
      </trkpt>
      <trkpt lat="48.663116" lon="23.270974">
        <ele>906.6887054478458</ele>
      </trkpt>
      <trkpt lat="48.663172" lon="23.269816">
        <ele>934.2219033221919</ele>
      </trkpt>
      <trkpt lat="48.663626" lon="23.269258">
        <ele>948.28479601051</ele>
      </trkpt>
      <trkpt lat="48.663397" lon="23.268138">
        <ele>965.819358556309</ele>
      </trkpt>
      <trkpt lat="48.663255" lon="23.267323">
        <ele>975.6547142006456</ele>
      </trkpt>
      <trkpt lat="48.662773" lon="23.26698">
        <ele>992.3977659037769</ele>
      </trkpt>
      <trkpt lat="48.662745" lon="23.265606">
        <ele>1010.2342255452731</ele>
      </trkpt>
      <trkpt lat="48.663028" lon="23.264233">
        <ele>1022.7054536459348</ele>
      </trkpt>
      <trkpt lat="48.663822" lon="23.262946">
        <ele>1039.9044535022695</ele>
      </trkpt>
      <trkpt lat="48.664361" lon="23.261487">
        <ele>1061.4053689856773</ele>
      </trkpt>
      <trkpt lat="48.664786" lon="23.26007">
        <ele>1083.0251707619511</ele>
      </trkpt>
      <trkpt lat="48.665239" lon="23.258611">
        <ele>1098.41475841566</ele>
      </trkpt>
      <trkpt lat="48.665919" lon="23.257281">
        <ele>1118.4006248702935</ele>
      </trkpt>
      <trkpt lat="48.666175" lon="23.255993">
        <ele>1143.5746714447434</ele>
      </trkpt>
      <trkpt lat="48.665948" lon="23.254406">
        <ele>1176.2447080060183</ele>
      </trkpt>
      <trkpt lat="48.665693" lon="23.253333">
        <ele>1189.6848125224674</ele>
      </trkpt>
      <trkpt lat="48.665826" lon="23.252404">
        <ele>1207.0455192883699</ele>
      </trkpt>
      <trkpt lat="48.665936" lon="23.251926">
        <ele>1213.4919162168135</ele>
      </trkpt>
      <trkpt lat="48.665677" lon="23.251578">
        <ele>1214.8297178737098</ele>
      </trkpt>
      <trkpt lat="48.665149" lon="23.250812">
        <ele>1215.3139577098673</ele>
      </trkpt>
      <trkpt lat="48.664681" lon="23.249932">
        <ele>1218.804690472697</ele>
      </trkpt>
      <trkpt lat="48.664199" lon="23.249181">
        <ele>1223.1389665670279</ele>
      </trkpt>
      <trkpt lat="48.663349" lon="23.248087">
        <ele>1221.5744949991854</ele>
      </trkpt>
      <trkpt lat="48.662768" lon="23.247228">
        <ele>1223.39056149308</ele>
      </trkpt>
      <trkpt lat="48.662158" lon="23.246799">
        <ele>1225.139128624578</ele>
      </trkpt>
      <trkpt lat="48.661677" lon="23.246392">
        <ele>1228.6820307845483</ele>
      </trkpt>
      <trkpt lat="48.660713" lon="23.244911">
        <ele>1257.3835833000267</ele>
      </trkpt>
      <trkpt lat="48.6596" lon="23.244039">
        <ele>1286.740066857678</ele>
      </trkpt>
      <trkpt lat="48.659146" lon="23.24318">
        <ele>1311.6587919634767</ele>
      </trkpt>
      <trkpt lat="48.658437" lon="23.242322">
        <ele>1341.0802470692433</ele>
      </trkpt>
      <trkpt lat="48.656992" lon="23.242022">
        <ele>1380.8828443499515</ele>
      </trkpt>
      <trkpt lat="48.655744" lon="23.242022">
        <ele>1416.5273436290445</ele>
      </trkpt>
      <trkpt lat="48.654865" lon="23.241378">
        <ele>1442.6440268071938</ele>
      </trkpt>
      <trkpt lat="48.65427" lon="23.239747">
        <ele>1461.433303588724</ele>
      </trkpt>
      <trkpt lat="48.653561" lon="23.237902">
        <ele>1463.5211544451838</ele>
      </trkpt>
      <trkpt lat="48.652768" lon="23.236099">
        <ele>1464.329321576366</ele>
      </trkpt>
      <trkpt lat="48.651917" lon="23.234555">
        <ele>1476.1136255469087</ele>
      </trkpt>
      <trkpt lat="48.651145" lon="23.233506">
        <ele>1487.4278579890017</ele>
      </trkpt>
      <trkpt lat="48.65021" lon="23.232219">
        <ele>1517.9973794957007</ele>
      </trkpt>
      <trkpt lat="48.649359" lon="23.23136">
        <ele>1545.26068382745</ele>
      </trkpt>
      <trkpt lat="48.648565" lon="23.230502">
        <ele>1574.7635586964254</ele>
      </trkpt>
      <trkpt lat="48.647516" lon="23.229729">
        <ele>1593.9320232153696</ele>
      </trkpt>
      <trkpt lat="48.64742" lon="23.229699">
        <ele>1593.9536633118987</ele>
      </trkpt>
      <trkpt lat="48.64277" lon="23.229056">
        <ele>1568.1855268286893</ele>
      </trkpt>
      <trkpt lat="48.640501" lon="23.233433">
        <ele>1477.2881212506911</ele>
      </trkpt>
      <trkpt lat="48.640983" lon="23.237982">
        <ele>1426.5986421759558</ele>
      </trkpt>
      <trkpt lat="48.641125" lon="23.241973">
        <ele>1387.7988118148414</ele>
      </trkpt>
      <trkpt lat="48.640139" lon="23.244881">
        <ele>1377.4838469753738</ele>
      </trkpt>
      <trkpt lat="48.638325" lon="23.2484">
        <ele>1345.7140350123652</ele>
      </trkpt>
      <trkpt lat="48.637219" lon="23.251447">
        <ele>1362.2392088176875</ele>
      </trkpt>
      <trkpt lat="48.635715" lon="23.256168">
        <ele>1412.9965277008898</ele>
      </trkpt>
      <trkpt lat="48.634439" lon="23.260717">
        <ele>1413.624239613493</ele>
      </trkpt>
      <trkpt lat="48.633887" lon="23.262413">
        <ele>1418.0065388172504</ele>
      </trkpt>
      <trkpt lat="48.633575" lon="23.262563">
        <ele>1415.5627970494097</ele>
      </trkpt>
      <trkpt lat="48.633291" lon="23.262992">
        <ele>1414.2283611028724</ele>
      </trkpt>
      <trkpt lat="48.633026" lon="23.263967">
        <ele>1421.3184568387583</ele>
      </trkpt>
      <trkpt lat="48.633041" lon="23.26519">
        <ele>1446.1729417539643</ele>
      </trkpt>
      <trkpt lat="48.633097" lon="23.266392">
        <ele>1467.231665203115</ele>
      </trkpt>
      <trkpt lat="48.632998" lon="23.267679">
        <ele>1486.6086122668348</ele>
      </trkpt>
      <trkpt lat="48.633041" lon="23.268817">
        <ele>1488.8163633777294</ele>
      </trkpt>
      <trkpt lat="48.634076" lon="23.270147">
        <ele>1471.185744933715</ele>
      </trkpt>
      <trkpt lat="48.634685" lon="23.271027">
        <ele>1457.731352372418</ele>
      </trkpt>
      <trkpt lat="48.635153" lon="23.271928">
        <ele>1441.090107577249</ele>
      </trkpt>
      <trkpt lat="48.635437" lon="23.272722">
        <ele>1422.7623110396921</ele>
      </trkpt>
      <trkpt lat="48.635758" lon="23.273023">
        <ele>1415.7448513302477</ele>
      </trkpt>
      <trkpt lat="48.636112" lon="23.273581">
        <ele>1402.6739056609488</ele>
      </trkpt>
      <trkpt lat="48.636509" lon="23.274203">
        <ele>1390.0938136879806</ele>
      </trkpt>
      <trkpt lat="48.637062" lon="23.274868">
        <ele>1375.532233781943</ele>
      </trkpt>
      <trkpt lat="48.637672" lon="23.275233">
        <ele>1365.425481642512</ele>
      </trkpt>
      <trkpt lat="48.638097" lon="23.275898">
        <ele>1352.9055576087533</ele>
      </trkpt>
      <trkpt lat="48.638636" lon="23.276413">
        <ele>1343.8678126878222</ele>
      </trkpt>
      <trkpt lat="48.639132" lon="23.276756">
        <ele>1334.7776016260032</ele>
      </trkpt>
      <trkpt lat="48.639487" lon="23.27725">
        <ele>1324.306649215132</ele>
      </trkpt>
      <trkpt lat="48.639657" lon="23.277915">
        <ele>1313.736757226409</ele>
      </trkpt>
      <trkpt lat="48.6396" lon="23.27828">
        <ele>1307.681416823301</ele>
      </trkpt>
      <trkpt lat="48.639373" lon="23.278666">
        <ele>1298.7088995552622</ele>
      </trkpt>
      <trkpt lat="48.639062" lon="23.278795">
        <ele>1293.7668837179922</ele>
      </trkpt>
      <trkpt lat="48.638494" lon="23.278795">
        <ele>1286.9963803731237</ele>
      </trkpt>
      <trkpt lat="48.637984" lon="23.278795">
        <ele>1277.82662330453</ele>
      </trkpt>
      <trkpt lat="48.637984" lon="23.279031">
        <ele>1271.2979805682553</ele>
      </trkpt>
      <trkpt lat="48.63831" lon="23.279546">
        <ele>1262.498082779872</ele>
      </trkpt>
      <trkpt lat="48.638735" lon="23.279911">
        <ele>1254.3151069188025</ele>
      </trkpt>
      <trkpt lat="48.639132" lon="23.280318">
        <ele>1241.4762356675867</ele>
      </trkpt>
      <trkpt lat="48.639629" lon="23.280726">
        <ele>1230.9196797882905</ele>
      </trkpt>
      <trkpt lat="48.640211" lon="23.281214">
        <ele>1224.453545892029</ele>
      </trkpt>
      <trkpt lat="48.640735" lon="23.281578">
        <ele>1219.912601600401</ele>
      </trkpt>
      <trkpt lat="48.641189" lon="23.281943">
        <ele>1212.478946923453</ele>
      </trkpt>
      <trkpt lat="48.641685" lon="23.282093">
        <ele>1209.217465013731</ele>
      </trkpt>
      <trkpt lat="48.64221" lon="23.281986">
        <ele>1206.1126180296994</ele>
      </trkpt>
      <trkpt lat="48.642479" lon="23.281557">
        <ele>1205.345365085995</ele>
      </trkpt>
      <trkpt lat="48.642508" lon="23.280634">
        <ele>1204.684092691979</ele>
      </trkpt>
      <trkpt lat="48.642465" lon="23.27969">
        <ele>1200.8254000602756</ele>
      </trkpt>
      <trkpt lat="48.642465" lon="23.27881">
        <ele>1193.6484119337622</ele>
      </trkpt>
      <trkpt lat="48.642621" lon="23.277931">
        <ele>1183.5672318718882</ele>
      </trkpt>
      <trkpt lat="48.642975" lon="23.277201">
        <ele>1176.8308437986998</ele>
      </trkpt>
      <trkpt lat="48.643387" lon="23.276686">
        <ele>1171.4126277393661</ele>
      </trkpt>
      <trkpt lat="48.64401" lon="23.276171">
        <ele>1160.9422352099791</ele>
      </trkpt>
      <trkpt lat="48.644521" lon="23.275849">
        <ele>1154.3604394051986</ele>
      </trkpt>
      <trkpt lat="48.645201" lon="23.275635">
        <ele>1144.7605511974543</ele>
      </trkpt>
      <trkpt lat="48.645683" lon="23.275441">
        <ele>1141.6873265636436</ele>
      </trkpt>
      <trkpt lat="48.646208" lon="23.275205">
        <ele>1137.6857730763786</ele>
      </trkpt>
      <trkpt lat="48.64669" lon="23.274798">
        <ele>1129.753183684661</ele>
      </trkpt>
      <trkpt lat="48.647044" lon="23.274369">
        <ele>1123.9469737650363</ele>
      </trkpt>
      <trkpt lat="48.646945" lon="23.273768">
        <ele>1120.692999018589</ele>
      </trkpt>
      <trkpt lat="48.647186" lon="23.273789">
        <ele>1116.102097884614</ele>
      </trkpt>
      <trkpt lat="48.64764" lon="23.274154">
        <ele>1108.1610393148148</ele>
      </trkpt>
      <trkpt lat="48.647725" lon="23.275012">
        <ele>1100.8549577752715</ele>
      </trkpt>
      <trkpt lat="48.647285" lon="23.275592">
        <ele>1099.8739378125529</ele>
      </trkpt>
      <trkpt lat="48.646888" lon="23.27615">
        <ele>1090.7607720694532</ele>
      </trkpt>
      <trkpt lat="48.64618" lon="23.276793">
        <ele>1084.2696189327298</ele>
      </trkpt>
      <trkpt lat="48.645372" lon="23.277308">
        <ele>1074.2010360294046</ele>
      </trkpt>
      <trkpt lat="48.64479" lon="23.277931">
        <ele>1069.1445989434724</ele>
      </trkpt>
      <trkpt lat="48.644365" lon="23.278639">
        <ele>1069.224649621284</ele>
      </trkpt>
      <trkpt lat="48.645031" lon="23.280505">
        <ele>1054.9549523178327</ele>
      </trkpt>
      <trkpt lat="48.645471" lon="23.281557">
        <ele>1046.5406401909422</ele>
      </trkpt>
      <trkpt lat="48.64608" lon="23.282161">
        <ele>1036.6583349769967</ele>
      </trkpt>
      <trkpt lat="48.646448" lon="23.282933">
        <ele>1033.875821827849</ele>
      </trkpt>
      <trkpt lat="48.646675" lon="23.283984">
        <ele>1022.6441701737931</ele>
      </trkpt>
      <trkpt lat="48.646817" lon="23.285379">
        <ele>1009.8747182161143</ele>
      </trkpt>
      <trkpt lat="48.646647" lon="23.28628">
        <ele>1000.3804530062055</ele>
      </trkpt>
      <trkpt lat="48.646406" lon="23.28716">
        <ele>993.665621252614</ele>
      </trkpt>
      <trkpt lat="48.646236" lon="23.288147">
        <ele>982.039720862289</ele>
      </trkpt>
      <trkpt lat="48.646831" lon="23.287825">
        <ele>977.7732635144494</ele>
      </trkpt>
      <trkpt lat="48.647327" lon="23.287396">
        <ele>971.449325049296</ele>
      </trkpt>
      <trkpt lat="48.647724" lon="23.287074">
        <ele>968.8366931275232</ele>
      </trkpt>
      <trkpt lat="48.648249" lon="23.286688">
        <ele>965.0835758884303</ele>
      </trkpt>
      <trkpt lat="48.64866" lon="23.28613">
        <ele>957.3397118670401</ele>
      </trkpt>
      <trkpt lat="48.648986" lon="23.285338">
        <ele>944.030734685759</ele>
      </trkpt>
      <trkpt lat="48.649383" lon="23.285531">
        <ele>939.6843603685111</ele>
      </trkpt>
      <trkpt lat="48.64944" lon="23.286196">
        <ele>938.2208151335362</ele>
      </trkpt>
      <trkpt lat="48.649298" lon="23.28699">
        <ele>930.4778984350676</ele>
      </trkpt>
      <trkpt lat="48.64883" lon="23.287977">
        <ele>922.57402005711</ele>
      </trkpt>
      <trkpt lat="48.648348" lon="23.288643">
        <ele>917.8633848680454</ele>
      </trkpt>
      <trkpt lat="48.647951" lon="23.288964">
        <ele>915.7787768385386</ele>
      </trkpt>
      <trkpt lat="48.647498" lon="23.28963">
        <ele>905.0159668930744</ele>
      </trkpt>
      <trkpt lat="48.647242" lon="23.290252">
        <ele>900.1846449893364</ele>
      </trkpt>
      <trkpt lat="48.647157" lon="23.29096">
        <ele>892.8570618242957</ele>
      </trkpt>
      <trkpt lat="48.647583" lon="23.291303">
        <ele>885.8046899023466</ele>
      </trkpt>
      <trkpt lat="48.647951" lon="23.290853">
        <ele>888</ele>
      </trkpt>
      <trkpt lat="48.648575" lon="23.290509">
        <ele>882.2182547144611</ele>
      </trkpt>
      <trkpt lat="48.649199" lon="23.290123">
        <ele>872.6186615781814</ele>
      </trkpt>
      <trkpt lat="48.649681" lon="23.289501">
        <ele>867.4678153445548</ele>
      </trkpt>
      <trkpt lat="48.649978" lon="23.2889">
        <ele>868.5864433444326</ele>
      </trkpt>
      <trkpt lat="48.650276" lon="23.288364">
        <ele>865.3565075696004</ele>
      </trkpt>
      <trkpt lat="48.650645" lon="23.28802">
        <ele>857.674713328985</ele>
      </trkpt>
      <trkpt lat="48.651042" lon="23.287355">
        <ele>849.7863076248321</ele>
      </trkpt>
      <trkpt lat="48.651226" lon="23.287999">
        <ele>840.0338875519305</ele>
      </trkpt>
      <trkpt lat="48.651183" lon="23.289029">
        <ele>836.738669558079</ele>
      </trkpt>
      <trkpt lat="48.651254" lon="23.290209">
        <ele>822.9864729898983</ele>
      </trkpt>
      <trkpt lat="48.651694" lon="23.290273">
        <ele>813.3833845291254</ele>
      </trkpt>
      <trkpt lat="48.652062" lon="23.289694">
        <ele>812.1526197901661</ele>
      </trkpt>
      <trkpt lat="48.652488" lon="23.289093">
        <ele>809.0911066760045</ele>
      </trkpt>
      <trkpt lat="48.652898" lon="23.288653">
        <ele>802.2960205391865</ele>
      </trkpt>
      <trkpt lat="48.653139" lon="23.28801">
        <ele>798.5266367758159</ele>
      </trkpt>
      <trkpt lat="48.65331" lon="23.287151">
        <ele>792.0428332567826</ele>
      </trkpt>
      <trkpt lat="48.653664" lon="23.287044">
        <ele>784.5267850949839</ele>
      </trkpt>
      <trkpt lat="48.65416" lon="23.287473">
        <ele>778.8184174047783</ele>
      </trkpt>
      <trkpt lat="48.65467" lon="23.287988">
        <ele>772.9862674482015</ele>
      </trkpt>
      <trkpt lat="48.655138" lon="23.288589">
        <ele>765.9573599882424</ele>
      </trkpt>
      <trkpt lat="48.655563" lon="23.289147">
        <ele>759.457253200454</ele>
      </trkpt>
      <trkpt lat="48.656116" lon="23.289855">
        <ele>748.7969479689452</ele>
      </trkpt>
      <trkpt lat="48.656711" lon="23.290306">
        <ele>741.1503984209521</ele>
      </trkpt>
      <trkpt lat="48.657009" lon="23.289962">
        <ele>737.2005275655538</ele>
      </trkpt>
      <trkpt lat="48.657293" lon="23.288954">
        <ele>730.0077173286126</ele>
      </trkpt>
      <trkpt lat="48.657491" lon="23.288117">
        <ele>724.1809452903965</ele>
      </trkpt>
      <trkpt lat="48.657236" lon="23.287387">
        <ele>718.4320001979358</ele>
      </trkpt>
      <trkpt lat="48.657359" lon="23.286928">
        <ele>711.0806022830898</ele>
      </trkpt>
      <trkpt lat="48.6577" lon="23.286928">
        <ele>705.7619310601228</ele>
      </trkpt>
      <trkpt lat="48.658018" lon="23.287122">
        <ele>702.8012357179371</ele>
      </trkpt>
      <trkpt lat="48.658316" lon="23.287132">
        <ele>700.0509417619323</ele>
      </trkpt>
      <trkpt lat="48.658656" lon="23.286918">
        <ele>696.0580694290135</ele>
      </trkpt>
      <trkpt lat="48.658954" lon="23.286896">
        <ele>694.6795225699483</ele>
      </trkpt>
      <trkpt lat="48.659358" lon="23.287057">
        <ele>689.9183287636843</ele>
      </trkpt>
      <trkpt lat="48.659705" lon="23.287164">
        <ele>686.1164806558787</ele>
      </trkpt>
      <trkpt lat="48.659868" lon="23.286864">
        <ele>685.7556231800888</ele>
      </trkpt>
      <trkpt lat="48.660024" lon="23.286252">
        <ele>685.807982092034</ele>
      </trkpt>
      <trkpt lat="48.66052" lon="23.286027">
        <ele>682.8186024963393</ele>
      </trkpt>
    </trkseg>
  </trk>
</gpx>
