<?xml version="1.0" encoding="UTF-8"?>
<gpx version="1.1" creator="phpGPX/1.0RC5" schemaLocation="http://www.topografix.com/GPX/1/1 http://www.topografix.com/GPX/1/1/gpx.xsd http://www.garmin.com/xmlschemas/GpxExtensions/v3 http://www.garmin.com/xmlschemas/GpxExtensionsv3.xsd http://www.garmin.com/xmlschemas/TrackPointExtension/v1 http://www.garmin.com/xmlschemas/TrackPointExtensionv1.xsd http://www.garmin.com/xmlschemas/PowerExtension/v1 http://www.garmin.com/xmlschemas/PowerExtensionv1.xsd http://www.topografix.com/GPX/gpx_style/0/2 http://www.topografix.com/GPX/gpx_style/0/2/gpx_style.xsd" xmlns="http://www.topografix.com/GPX/1/1" xmlns:xsi="http://www.w3.org/2001/XMLSchema-instance" xsi:schemaLocation="http://www.topografix.com/GPX/1/1 http://www.topografix.com/GPX/1/1/gpx.xsd http://www.garmin.com/xmlschemas/GpxExtensions/v3 http://www.garmin.com/xmlschemas/GpxExtensionsv3.xsd http://www.garmin.com/xmlschemas/TrackPointExtension/v1 http://www.garmin.com/xmlschemas/TrackPointExtensionv1.xsd http://www.garmin.com/xmlschemas/PowerExtension/v1 http://www.garmin.com/xmlschemas/PowerExtensionv1.xsd http://www.topografix.com/GPX/gpx_style/0/2 http://www.topografix.com/GPX/gpx_style/0/2/gpx_style.xsd" xmlns:gpxtpx="http://www.garmin.com/xmlschemas/TrackPointExtension/v1" xmlns:gpxx="http://www.garmin.com/xmlschemas/GpxExtensions/v3" xmlns:gpxpx="http://www.garmin.com/xmlschemas/PowerExtension/v1" xmlns:gpx_style="http://www.topografix.com/GPX/gpx_style/0/2">
  <metadata>
    <name>Піп Іван Мармароський з с Ділове</name>
    <author>
      <name>gpx.studio</name>
      <link href="https://gpx.studio"/>
    </author>
  </metadata>
  <trk>
    <name>Піп Іван Мармароський з с Ділове</name>
    <trkseg>
      <trkpt lat="47.937946" lon="24.177196">
        <ele>359.4431291037067</ele>
      </trkpt>
      <trkpt lat="47.937349" lon="24.178816">
        <ele>352.3092284190934</ele>
      </trkpt>
      <trkpt lat="47.937215" lon="24.178942">
        <ele>355.4072651392198</ele>
      </trkpt>
      <trkpt lat="47.936554" lon="24.179071">
        <ele>358.0041682929773</ele>
      </trkpt>
      <trkpt lat="47.936317" lon="24.179457">
        <ele>358.75707187533703</ele>
      </trkpt>
      <trkpt lat="47.936252" lon="24.180047">
        <ele>359.08737341832114</ele>
      </trkpt>
      <trkpt lat="47.935986" lon="24.18053">
        <ele>359.89840355562046</ele>
      </trkpt>
      <trkpt lat="47.935289" lon="24.180997">
        <ele>362.33369084756566</ele>
      </trkpt>
      <trkpt lat="47.935052" lon="24.182107">
        <ele>363.4892080504394</ele>
      </trkpt>
      <trkpt lat="47.934182" lon="24.182751">
        <ele>366.8290286034762</ele>
      </trkpt>
      <trkpt lat="47.933593" lon="24.183645">
        <ele>369.62438195741777</ele>
      </trkpt>
      <trkpt lat="47.933065" lon="24.185136">
        <ele>372.12054191815</ele>
      </trkpt>
      <trkpt lat="47.932612" lon="24.186241">
        <ele>371.7995422237408</ele>
      </trkpt>
      <trkpt lat="47.932045" lon="24.187758">
        <ele>377.8712295402173</ele>
      </trkpt>
      <trkpt lat="47.931581" lon="24.1886">
        <ele>377.9544310195217</ele>
      </trkpt>
      <trkpt lat="47.931042" lon="24.189625">
        <ele>379.80705721002494</ele>
      </trkpt>
      <trkpt lat="47.930974" lon="24.190437">
        <ele>382.2956492967787</ele>
      </trkpt>
      <trkpt lat="47.931017" lon="24.191537">
        <ele>385.5355121406201</ele>
      </trkpt>
      <trkpt lat="47.930877" lon="24.192009">
        <ele>387.47193892182986</ele>
      </trkpt>
      <trkpt lat="47.930287" lon="24.193012">
        <ele>390.5075724852481</ele>
      </trkpt>
      <trkpt lat="47.930158" lon="24.193425">
        <ele>391.8316296068085</ele>
      </trkpt>
      <trkpt lat="47.929892" lon="24.19511">
        <ele>396.1800966217826</ele>
      </trkpt>
      <trkpt lat="47.929651" lon="24.197153">
        <ele>399.4660334958137</ele>
      </trkpt>
      <trkpt lat="47.929551" lon="24.199434">
        <ele>407.6818341341568</ele>
      </trkpt>
      <trkpt lat="47.929202" lon="24.201124">
        <ele>411.1034850362674</ele>
      </trkpt>
      <trkpt lat="47.928961" lon="24.201714">
        <ele>411.0556079027401</ele>
      </trkpt>
      <trkpt lat="47.928684" lon="24.20217">
        <ele>405.8449993693121</ele>
      </trkpt>
      <trkpt lat="47.928591" lon="24.202427">
        <ele>405.7315856963979</ele>
      </trkpt>
      <trkpt lat="47.928584" lon="24.203039">
        <ele>409.2968784922268</ele>
      </trkpt>
      <trkpt lat="47.92867" lon="24.20379">
        <ele>409.8899715489859</ele>
      </trkpt>
      <trkpt lat="47.928789" lon="24.204171">
        <ele>411.8015565807</ele>
      </trkpt>
      <trkpt lat="47.928846" lon="24.204563">
        <ele>413.353661315319</ele>
      </trkpt>
      <trkpt lat="47.928792" lon="24.205389">
        <ele>411.5981376884738</ele>
      </trkpt>
      <trkpt lat="47.928889" lon="24.206016">
        <ele>414.85674504574854</ele>
      </trkpt>
      <trkpt lat="47.928882" lon="24.206639">
        <ele>416.90163286565803</ele>
      </trkpt>
      <trkpt lat="47.928541" lon="24.20849">
        <ele>417.3892815252651</ele>
      </trkpt>
      <trkpt lat="47.928573" lon="24.209493">
        <ele>423.9291301866464</ele>
      </trkpt>
      <trkpt lat="47.928508" lon="24.209777">
        <ele>427.74683006592795</ele>
      </trkpt>
      <trkpt lat="47.928249" lon="24.210217">
        <ele>432.40461811978736</ele>
      </trkpt>
      <trkpt lat="47.927786" lon="24.210636">
        <ele>429.2021115064217</ele>
      </trkpt>
      <trkpt lat="47.927477" lon="24.211521">
        <ele>438.294931467134</ele>
      </trkpt>
      <trkpt lat="47.927279" lon="24.211875">
        <ele>434.276207351317</ele>
      </trkpt>
      <trkpt lat="47.926851" lon="24.213055">
        <ele>440.62226258133325</ele>
      </trkpt>
      <trkpt lat="47.926916" lon="24.213473">
        <ele>435.0163931481556</ele>
      </trkpt>
      <trkpt lat="47.926941" lon="24.214037">
        <ele>432.90808306611143</ele>
      </trkpt>
      <trkpt lat="47.926926" lon="24.21442">
        <ele>433.23100621916336</ele>
      </trkpt>
      <trkpt lat="47.927177" lon="24.215839">
        <ele>435.00043677864596</ele>
      </trkpt>
      <trkpt lat="47.926951" lon="24.218335">
        <ele>440.1874275533342</ele>
      </trkpt>
      <trkpt lat="47.92704" lon="24.223026">
        <ele>457.080583743046</ele>
      </trkpt>
      <trkpt lat="47.927266" lon="24.224418">
        <ele>472.86977911651695</ele>
      </trkpt>
      <trkpt lat="47.9275" lon="24.225402">
        <ele>475.7195570194126</ele>
      </trkpt>
      <trkpt lat="47.927522" lon="24.22637">
        <ele>488.07204832555465</ele>
      </trkpt>
      <trkpt lat="47.927561" lon="24.227193">
        <ele>491.3698191761458</ele>
      </trkpt>
      <trkpt lat="47.92775" lon="24.228307">
        <ele>498.7405242265536</ele>
      </trkpt>
      <trkpt lat="47.928663" lon="24.231686">
        <ele>496.622619251439</ele>
      </trkpt>
      <trkpt lat="47.928564" lon="24.238692">
        <ele>519.6095987754491</ele>
      </trkpt>
      <trkpt lat="47.928451" lon="24.239523">
        <ele>533.5349459578283</ele>
      </trkpt>
      <trkpt lat="47.929325" lon="24.242047">
        <ele>526.7358005079623</ele>
      </trkpt>
      <trkpt lat="47.929578" lon="24.24423">
        <ele>522.2918682730801</ele>
      </trkpt>
      <trkpt lat="47.929923" lon="24.245495">
        <ele>534.4836932998682</ele>
      </trkpt>
      <trkpt lat="47.929688" lon="24.246609">
        <ele>550.9834261871896</ele>
      </trkpt>
      <trkpt lat="47.929759" lon="24.248359">
        <ele>557.032055823905</ele>
      </trkpt>
      <trkpt lat="47.93016" lon="24.249937">
        <ele>558.4007503676818</ele>
      </trkpt>
      <trkpt lat="47.929856" lon="24.251418">
        <ele>558.4179855426812</ele>
      </trkpt>
      <trkpt lat="47.930129" lon="24.252749">
        <ele>586.628780582862</ele>
      </trkpt>
      <trkpt lat="47.92994" lon="24.254486">
        <ele>589.7193791921467</ele>
      </trkpt>
      <trkpt lat="47.930546" lon="24.256004">
        <ele>597.3485243727008</ele>
      </trkpt>
      <trkpt lat="47.931238" lon="24.256707">
        <ele>611.4195109863495</ele>
      </trkpt>
      <trkpt lat="47.932311" lon="24.257473">
        <ele>615.829516401951</ele>
      </trkpt>
      <trkpt lat="47.933724" lon="24.259709">
        <ele>626.2254098024454</ele>
      </trkpt>
      <trkpt lat="47.93418" lon="24.261391">
        <ele>636.4792933900644</ele>
      </trkpt>
      <trkpt lat="47.934135" lon="24.262881">
        <ele>658.7729188025235</ele>
      </trkpt>
      <trkpt lat="47.934557" lon="24.264903">
        <ele>670.7379443448734</ele>
      </trkpt>
      <trkpt lat="47.934265" lon="24.266567">
        <ele>685.1055224152487</ele>
      </trkpt>
      <trkpt lat="47.934419" lon="24.268146">
        <ele>694.8549209457548</ele>
      </trkpt>
      <trkpt lat="47.933747" lon="24.270995">
        <ele>717.8483815991219</ele>
      </trkpt>
      <trkpt lat="47.934528" lon="24.27467">
        <ele>739.2169659116421</ele>
      </trkpt>
      <trkpt lat="47.934569" lon="24.274839">
        <ele>746.6093791855353</ele>
      </trkpt>
      <trkpt lat="47.934635" lon="24.275114">
        <ele>755.0830868491491</ele>
      </trkpt>
      <trkpt lat="47.934676" lon="24.275281">
        <ele>756.5053845248663</ele>
      </trkpt>
      <trkpt lat="47.934743" lon="24.275603">
        <ele>757.0414753415971</ele>
      </trkpt>
      <trkpt lat="47.934837" lon="24.275995">
        <ele>757.1272472725756</ele>
      </trkpt>
      <trkpt lat="47.934924" lon="24.276332">
        <ele>750.4279192976103</ele>
      </trkpt>
      <trkpt lat="47.934981" lon="24.276635">
        <ele>749.2519884092379</ele>
      </trkpt>
      <trkpt lat="47.935008" lon="24.27678">
        <ele>751.0279734479398</ele>
      </trkpt>
      <trkpt lat="47.935031" lon="24.276969">
        <ele>754.4105242730004</ele>
      </trkpt>
      <trkpt lat="47.935096" lon="24.277136">
        <ele>753.5824596850788</ele>
      </trkpt>
      <trkpt lat="47.935126" lon="24.277226">
        <ele>754.087837018111</ele>
      </trkpt>
      <trkpt lat="47.93514" lon="24.277338">
        <ele>755.8665000480621</ele>
      </trkpt>
      <trkpt lat="47.935175" lon="24.277461">
        <ele>756.4417037944122</ele>
      </trkpt>
      <trkpt lat="47.935216" lon="24.277624">
        <ele>756.7420508412185</ele>
      </trkpt>
      <trkpt lat="47.93522" lon="24.277764">
        <ele>758.6227104642492</ele>
      </trkpt>
      <trkpt lat="47.935244" lon="24.277841">
        <ele>757.8668405873103</ele>
      </trkpt>
      <trkpt lat="47.935257" lon="24.2779">
        <ele>757.5407061777894</ele>
      </trkpt>
      <trkpt lat="47.935278" lon="24.277967">
        <ele>756.7380757111913</ele>
      </trkpt>
      <trkpt lat="47.935287" lon="24.278059">
        <ele>756.9810691278299</ele>
      </trkpt>
      <trkpt lat="47.935312" lon="24.278167">
        <ele>755.8231886971944</ele>
      </trkpt>
      <trkpt lat="47.935327" lon="24.27834">
        <ele>755.6873396778471</ele>
      </trkpt>
      <trkpt lat="47.93534" lon="24.278504">
        <ele>755.8729917220771</ele>
      </trkpt>
      <trkpt lat="47.935338" lon="24.278553">
        <ele>756.0591898874263</ele>
      </trkpt>
      <trkpt lat="47.935338" lon="24.278824">
        <ele>758.5234495603352</ele>
      </trkpt>
      <trkpt lat="47.935253" lon="24.278944">
        <ele>766.1846259244485</ele>
      </trkpt>
      <trkpt lat="47.935277" lon="24.27904">
        <ele>765.9842163368594</ele>
      </trkpt>
      <trkpt lat="47.935289" lon="24.279162">
        <ele>767.7320325515466</ele>
      </trkpt>
      <trkpt lat="47.935322" lon="24.279301">
        <ele>768.7981656436448</ele>
      </trkpt>
      <trkpt lat="47.935397" lon="24.279475">
        <ele>768.9936406521309</ele>
      </trkpt>
      <trkpt lat="47.935427" lon="24.279647">
        <ele>770.734231900559</ele>
      </trkpt>
      <trkpt lat="47.935477" lon="24.279847">
        <ele>771.2305977716744</ele>
      </trkpt>
      <trkpt lat="47.935522" lon="24.279964">
        <ele>769.9682510565036</ele>
      </trkpt>
      <trkpt lat="47.93555" lon="24.280063">
        <ele>769.2059228621656</ele>
      </trkpt>
      <trkpt lat="47.93556" lon="24.280175">
        <ele>769.745100924517</ele>
      </trkpt>
      <trkpt lat="47.935475" lon="24.280495">
        <ele>775.7536484710649</ele>
      </trkpt>
      <trkpt lat="47.935247" lon="24.281385">
        <ele>793.0795829272419</ele>
      </trkpt>
      <trkpt lat="47.935154" lon="24.282313">
        <ele>818.7421832127309</ele>
      </trkpt>
      <trkpt lat="47.935329" lon="24.282872">
        <ele>820.0263533401575</ele>
      </trkpt>
      <trkpt lat="47.935716" lon="24.282814">
        <ele>813.442794646887</ele>
      </trkpt>
      <trkpt lat="47.935929" lon="24.281726">
        <ele>815.3348552529751</ele>
      </trkpt>
      <trkpt lat="47.93668" lon="24.281546">
        <ele>833.1836758303689</ele>
      </trkpt>
      <trkpt lat="47.937213" lon="24.281087">
        <ele>847.2247921317047</ele>
      </trkpt>
      <trkpt lat="47.937317" lon="24.281237">
        <ele>850.2033838726213</ele>
      </trkpt>
      <trkpt lat="47.936594" lon="24.282916">
        <ele>867.3628078552192</ele>
      </trkpt>
      <trkpt lat="47.936583" lon="24.283201">
        <ele>871.6624378670822</ele>
      </trkpt>
      <trkpt lat="47.936715" lon="24.283658">
        <ele>879.3294874673303</ele>
      </trkpt>
      <trkpt lat="47.936602" lon="24.284497">
        <ele>881.864882812888</ele>
      </trkpt>
      <trkpt lat="47.936612" lon="24.284771">
        <ele>882.3450562093534</ele>
      </trkpt>
      <trkpt lat="47.936962" lon="24.285018">
        <ele>886.702005101996</ele>
      </trkpt>
      <trkpt lat="47.937107" lon="24.285168">
        <ele>890.2931879906203</ele>
      </trkpt>
      <trkpt lat="47.936763" lon="24.285536">
        <ele>891.785220422782</ele>
      </trkpt>
      <trkpt lat="47.936664" lon="24.285808">
        <ele>896.9701881356305</ele>
      </trkpt>
      <trkpt lat="47.93696" lon="24.286008">
        <ele>903.9594994987153</ele>
      </trkpt>
      <trkpt lat="47.937205" lon="24.286006">
        <ele>907.4437240813622</ele>
      </trkpt>
      <trkpt lat="47.937443" lon="24.286258">
        <ele>911.1663606045186</ele>
      </trkpt>
      <trkpt lat="47.93754" lon="24.286042">
        <ele>912.2084012834355</ele>
      </trkpt>
      <trkpt lat="47.937451" lon="24.285737">
        <ele>909.3709772474988</ele>
      </trkpt>
      <trkpt lat="47.937482" lon="24.285552">
        <ele>906.646772737964</ele>
      </trkpt>
      <trkpt lat="47.938076" lon="24.284966">
        <ele>908.7725243040691</ele>
      </trkpt>
      <trkpt lat="47.938785" lon="24.284702">
        <ele>922.8409286895767</ele>
      </trkpt>
      <trkpt lat="47.938915" lon="24.283993">
        <ele>925.0510081694335</ele>
      </trkpt>
      <trkpt lat="47.939483" lon="24.283183">
        <ele>933.4466669148533</ele>
      </trkpt>
      <trkpt lat="47.93955" lon="24.282127">
        <ele>940.0935346881162</ele>
      </trkpt>
      <trkpt lat="47.939531" lon="24.281586">
        <ele>943.1638850965027</ele>
      </trkpt>
      <trkpt lat="47.939797" lon="24.281095">
        <ele>957.775948035647</ele>
      </trkpt>
      <trkpt lat="47.940019" lon="24.282003">
        <ele>960.0245453192057</ele>
      </trkpt>
      <trkpt lat="47.940465" lon="24.282503">
        <ele>975.2019854960381</ele>
      </trkpt>
      <trkpt lat="47.94036" lon="24.283814">
        <ele>977.9635522363719</ele>
      </trkpt>
      <trkpt lat="47.940277" lon="24.28491">
        <ele>982.8521724264247</ele>
      </trkpt>
      <trkpt lat="47.940537" lon="24.285113">
        <ele>988.7766000591697</ele>
      </trkpt>
      <trkpt lat="47.941303" lon="24.282806">
        <ele>1016.8586460814007</ele>
      </trkpt>
      <trkpt lat="47.941331" lon="24.28183">
        <ele>1019.0406928281639</ele>
      </trkpt>
      <trkpt lat="47.940762" lon="24.280686">
        <ele>1022.9092440719251</ele>
      </trkpt>
      <trkpt lat="47.940818" lon="24.280145">
        <ele>1029.9495223218485</ele>
      </trkpt>
      <trkpt lat="47.94104" lon="24.279894">
        <ele>1035.589475367934</ele>
      </trkpt>
      <trkpt lat="47.941333" lon="24.279861">
        <ele>1043.7746596293487</ele>
      </trkpt>
      <trkpt lat="47.941679" lon="24.280994">
        <ele>1045.9002145935176</ele>
      </trkpt>
      <trkpt lat="47.942581" lon="24.28225">
        <ele>1083.5454770614679</ele>
      </trkpt>
      <trkpt lat="47.942575" lon="24.28295">
        <ele>1083.1350017131774</ele>
      </trkpt>
      <trkpt lat="47.942801" lon="24.283471">
        <ele>1089.6849202672079</ele>
      </trkpt>
      <trkpt lat="47.943002" lon="24.283858">
        <ele>1094.882962177614</ele>
      </trkpt>
      <trkpt lat="47.944022" lon="24.286942">
        <ele>1135.025134867581</ele>
      </trkpt>
      <trkpt lat="47.943406" lon="24.288143">
        <ele>1148.1559415851827</ele>
      </trkpt>
      <trkpt lat="47.943565" lon="24.289413">
        <ele>1171.2358478624956</ele>
      </trkpt>
      <trkpt lat="47.94362" lon="24.290085">
        <ele>1181.5594046739325</ele>
      </trkpt>
      <trkpt lat="47.943672" lon="24.29068">
        <ele>1191.3400166401407</ele>
      </trkpt>
      <trkpt lat="47.943533" lon="24.29157">
        <ele>1195.4566017307807</ele>
      </trkpt>
      <trkpt lat="47.943699" lon="24.292021">
        <ele>1198.7182043443315</ele>
      </trkpt>
      <trkpt lat="47.944062" lon="24.292245">
        <ele>1201.3380929324776</ele>
      </trkpt>
      <trkpt lat="47.945172" lon="24.292158">
        <ele>1222.3967681197032</ele>
      </trkpt>
      <trkpt lat="47.946479" lon="24.291499">
        <ele>1252.7399014503208</ele>
      </trkpt>
      <trkpt lat="47.947126" lon="24.290634">
        <ele>1264.835752285929</ele>
      </trkpt>
      <trkpt lat="47.947517" lon="24.289483">
        <ele>1271.2593999016099</ele>
      </trkpt>
      <trkpt lat="47.948103" lon="24.288932">
        <ele>1286.9662239182658</ele>
      </trkpt>
      <trkpt lat="47.947837" lon="24.290233">
        <ele>1300.7420152145787</ele>
      </trkpt>
      <trkpt lat="47.948031" lon="24.291524">
        <ele>1322.823459653766</ele>
      </trkpt>
      <trkpt lat="47.947698" lon="24.291989">
        <ele>1320.3391219945624</ele>
      </trkpt>
      <trkpt lat="47.947667" lon="24.292466">
        <ele>1325.5812416675035</ele>
      </trkpt>
      <trkpt lat="47.948693" lon="24.293273">
        <ele>1350.7245221185356</ele>
      </trkpt>
      <trkpt lat="47.948897" lon="24.294385">
        <ele>1357.579907790985</ele>
      </trkpt>
      <trkpt lat="47.949166" lon="24.29541">
        <ele>1356.4941492424111</ele>
      </trkpt>
      <trkpt lat="47.950598" lon="24.298236">
        <ele>1377.151231633835</ele>
      </trkpt>
      <trkpt lat="47.950719" lon="24.299276">
        <ele>1380.125014299022</ele>
      </trkpt>
      <trkpt lat="47.950947" lon="24.300278">
        <ele>1391.0016504922908</ele>
      </trkpt>
      <trkpt lat="47.950607" lon="24.301634">
        <ele>1403.0923683396645</ele>
      </trkpt>
      <trkpt lat="47.950605" lon="24.303086">
        <ele>1411.7939583303344</ele>
      </trkpt>
      <trkpt lat="47.950983" lon="24.304331">
        <ele>1421.3871818796001</ele>
      </trkpt>
      <trkpt lat="47.950988" lon="24.305352">
        <ele>1431.7768712652176</ele>
      </trkpt>
      <trkpt lat="47.950318" lon="24.306725">
        <ele>1441.5055098147304</ele>
      </trkpt>
      <trkpt lat="47.950302" lon="24.30757">
        <ele>1440.316447336376</ele>
      </trkpt>
      <trkpt lat="47.950818" lon="24.309327">
        <ele>1468.0934431447795</ele>
      </trkpt>
      <trkpt lat="47.950517" lon="24.310893">
        <ele>1484.325983673858</ele>
      </trkpt>
      <trkpt lat="47.950158" lon="24.311568">
        <ele>1480.6416613120714</ele>
      </trkpt>
      <trkpt lat="47.950108" lon="24.312362">
        <ele>1492.5123538449989</ele>
      </trkpt>
      <trkpt lat="47.949807" lon="24.312879">
        <ele>1489.0697994527548</ele>
      </trkpt>
      <trkpt lat="47.949406" lon="24.313117">
        <ele>1486.6635706729724</ele>
      </trkpt>
      <trkpt lat="47.948041" lon="24.313554">
        <ele>1498.9772896325642</ele>
      </trkpt>
      <trkpt lat="47.946945" lon="24.31587">
        <ele>1518.1150225353038</ele>
      </trkpt>
      <trkpt lat="47.946083" lon="24.315281">
        <ele>1521.9683613853786</ele>
      </trkpt>
      <trkpt lat="47.944667" lon="24.313111">
        <ele>1513.2940056226216</ele>
      </trkpt>
      <trkpt lat="47.94433" lon="24.312911">
        <ele>1504.989983875042</ele>
      </trkpt>
      <trkpt lat="47.943885" lon="24.313225">
        <ele>1502.5132092151678</ele>
      </trkpt>
      <trkpt lat="47.943576" lon="24.314307">
        <ele>1503.6476299068675</ele>
      </trkpt>
      <trkpt lat="47.943216" lon="24.315791">
        <ele>1498.319048862631</ele>
      </trkpt>
      <trkpt lat="47.943711" lon="24.318497">
        <ele>1502.058753529706</ele>
      </trkpt>
      <trkpt lat="47.943397" lon="24.319617">
        <ele>1505.9831463739822</ele>
      </trkpt>
      <trkpt lat="47.942706" lon="24.320878">
        <ele>1510.4694308787416</ele>
      </trkpt>
      <trkpt lat="47.941885" lon="24.321289">
        <ele>1530.6145276956377</ele>
      </trkpt>
      <trkpt lat="47.941736" lon="24.321352">
        <ele>1533.206281955634</ele>
      </trkpt>
      <trkpt lat="47.940916" lon="24.321354">
        <ele>1533.3407070067096</ele>
      </trkpt>
      <trkpt lat="47.940156" lon="24.321731">
        <ele>1541.757171367976</ele>
      </trkpt>
      <trkpt lat="47.938566" lon="24.322598">
        <ele>1604.2046455943723</ele>
      </trkpt>
      <trkpt lat="47.936435" lon="24.324341">
        <ele>1650.0378244239478</ele>
      </trkpt>
      <trkpt lat="47.934366" lon="24.324133">
        <ele>1668.7583527459064</ele>
      </trkpt>
      <trkpt lat="47.932986" lon="24.324863">
        <ele>1692.9403781228937</ele>
      </trkpt>
      <trkpt lat="47.931893" lon="24.324971">
        <ele>1722.8716740167001</ele>
      </trkpt>
      <trkpt lat="47.931148" lon="24.32473">
        <ele>1750.765962666599</ele>
      </trkpt>
      <trkpt lat="47.93058" lon="24.325563">
        <ele>1775.1473139812006</ele>
      </trkpt>
      <trkpt lat="47.930141" lon="24.326739">
        <ele>1787.0489083394357</ele>
      </trkpt>
      <trkpt lat="47.929152" lon="24.325745">
        <ele>1864.2238995608614</ele>
      </trkpt>
      <trkpt lat="47.927884" lon="24.325732">
        <ele>1911.745104442436</ele>
      </trkpt>
      <trkpt lat="47.927156" lon="24.325093">
        <ele>1904.03428914996</ele>
      </trkpt>
      <trkpt lat="47.92605" lon="24.324982">
        <ele>1924.0388563111803</ele>
      </trkpt>
      <trkpt lat="47.925461" lon="24.325326">
        <ele>1915.655406502891</ele>
      </trkpt>
      <trkpt lat="47.924035" lon="24.3273">
        <ele>1922.4452690998921</ele>
      </trkpt>
      <trkpt lat="47.923749" lon="24.328015">
        <ele>1925.9869417137234</ele>
      </trkpt>
      <trkpt lat="47.923803" lon="24.327902">
        <ele>1928.102051992435</ele>
      </trkpt>
    </trkseg>
  </trk>
</gpx>
