<?xml version="1.0" encoding="UTF-8"?>
<gpx version="1.1" creator="phpGPX/1.0RC5" schemaLocation="http://www.topografix.com/GPX/1/1 http://www.topografix.com/GPX/1/1/gpx.xsd http://www.garmin.com/xmlschemas/GpxExtensions/v3 http://www.garmin.com/xmlschemas/GpxExtensionsv3.xsd http://www.garmin.com/xmlschemas/TrackPointExtension/v1 http://www.garmin.com/xmlschemas/TrackPointExtensionv1.xsd http://www.garmin.com/xmlschemas/PowerExtension/v1 http://www.garmin.com/xmlschemas/PowerExtensionv1.xsd http://www.topografix.com/GPX/gpx_style/0/2 http://www.topografix.com/GPX/gpx_style/0/2/gpx_style.xsd" xmlns="http://www.topografix.com/GPX/1/1" xmlns:xsi="http://www.w3.org/2001/XMLSchema-instance" xsi:schemaLocation="http://www.topografix.com/GPX/1/1 http://www.topografix.com/GPX/1/1/gpx.xsd http://www.garmin.com/xmlschemas/GpxExtensions/v3 http://www.garmin.com/xmlschemas/GpxExtensionsv3.xsd http://www.garmin.com/xmlschemas/TrackPointExtension/v1 http://www.garmin.com/xmlschemas/TrackPointExtensionv1.xsd http://www.garmin.com/xmlschemas/PowerExtension/v1 http://www.garmin.com/xmlschemas/PowerExtensionv1.xsd http://www.topografix.com/GPX/gpx_style/0/2 http://www.topografix.com/GPX/gpx_style/0/2/gpx_style.xsd" xmlns:gpxtpx="http://www.garmin.com/xmlschemas/TrackPointExtension/v1" xmlns:gpxx="http://www.garmin.com/xmlschemas/GpxExtensions/v3" xmlns:gpxpx="http://www.garmin.com/xmlschemas/PowerExtension/v1" xmlns:gpx_style="http://www.topografix.com/GPX/gpx_style/0/2">
  <metadata>
    <name>Підйом на Хом&apos;як</name>
    <author>
      <name>gpx.studio</name>
      <link href="https://gpx.studio"/>
    </author>
  </metadata>
  <trk>
    <name>Підйом на Хом&apos;як</name>
    <trkseg>
      <trkpt lat="48.346942" lon="24.506624">
        <ele>781.7912994199701</ele>
      </trkpt>
      <trkpt lat="48.347584" lon="24.506731">
        <ele>800.3967533950927</ele>
      </trkpt>
      <trkpt lat="48.348653" lon="24.507375">
        <ele>819.544325118768</ele>
      </trkpt>
      <trkpt lat="48.349081" lon="24.507396">
        <ele>822.8285325852921</ele>
      </trkpt>
      <trkpt lat="48.349537" lon="24.508469">
        <ele>847.2672086526353</ele>
      </trkpt>
      <trkpt lat="48.350379" lon="24.508727">
        <ele>842.9150362322889</ele>
      </trkpt>
      <trkpt lat="48.351234" lon="24.508598">
        <ele>858.1299561401677</ele>
      </trkpt>
      <trkpt lat="48.351448" lon="24.508512">
        <ele>859.054228575551</ele>
      </trkpt>
      <trkpt lat="48.353216" lon="24.510229">
        <ele>898.7843726752326</ele>
      </trkpt>
      <trkpt lat="48.3549" lon="24.510615">
        <ele>905.1011632851607</ele>
      </trkpt>
      <trkpt lat="48.355213" lon="24.510722">
        <ele>905.299064049148</ele>
      </trkpt>
      <trkpt lat="48.357652" lon="24.511302">
        <ele>930.6992031444346</ele>
      </trkpt>
      <trkpt lat="48.356996" lon="24.510551">
        <ele>916.2162795790917</ele>
      </trkpt>
      <trkpt lat="48.356311" lon="24.509092">
        <ele>926.5747469079477</ele>
      </trkpt>
      <trkpt lat="48.359776" lon="24.512804">
        <ele>980.072734658723</ele>
      </trkpt>
      <trkpt lat="48.360646" lon="24.513962">
        <ele>991.8560131416332</ele>
      </trkpt>
      <trkpt lat="48.361002" lon="24.514177">
        <ele>997.4790900135806</ele>
      </trkpt>
      <trkpt lat="48.358821" lon="24.510315">
        <ele>1009.4428775039171</ele>
      </trkpt>
      <trkpt lat="48.36123" lon="24.512203">
        <ele>1051.6148575094994</ele>
      </trkpt>
      <trkpt lat="48.359904" lon="24.510315">
        <ele>1067.1114335577004</ele>
      </trkpt>
      <trkpt lat="48.361857" lon="24.51143">
        <ele>1094.4355427366681</ele>
      </trkpt>
      <trkpt lat="48.360745" lon="24.510186">
        <ele>1106.0649355200585</ele>
      </trkpt>
      <trkpt lat="48.362411" lon="24.510345">
        <ele>1138.122971965451</ele>
      </trkpt>
      <trkpt lat="48.3608" lon="24.509272">
        <ele>1145.4913711338731</ele>
      </trkpt>
      <trkpt lat="48.363423" lon="24.50925">
        <ele>1178.9353083798196</ele>
      </trkpt>
      <trkpt lat="48.363908" lon="24.509143">
        <ele>1184.0217407996533</ele>
      </trkpt>
      <trkpt lat="48.362311" lon="24.508349">
        <ele>1198.5014997234102</ele>
      </trkpt>
      <trkpt lat="48.364136" lon="24.507705">
        <ele>1232.7380472979553</ele>
      </trkpt>
      <trkpt lat="48.366518" lon="24.505903">
        <ele>1266.046477701419</ele>
      </trkpt>
      <trkpt lat="48.367772" lon="24.504122">
        <ele>1302.55794263992</ele>
      </trkpt>
      <trkpt lat="48.368499" lon="24.502792">
        <ele>1328.8397243877093</ele>
      </trkpt>
      <trkpt lat="48.370338" lon="24.501526">
        <ele>1348.2586740629167</ele>
      </trkpt>
      <trkpt lat="48.370408" lon="24.501396">
        <ele>1349.0332218441613</ele>
      </trkpt>
      <trkpt lat="48.369927" lon="24.500979">
        <ele>1367.0952690839442</ele>
      </trkpt>
      <trkpt lat="48.369532" lon="24.500348">
        <ele>1388.3914110264518</ele>
      </trkpt>
      <trkpt lat="48.369084" lon="24.499458">
        <ele>1411.6306757839611</ele>
      </trkpt>
      <trkpt lat="48.368722" lon="24.498907">
        <ele>1434.900908637338</ele>
      </trkpt>
      <trkpt lat="48.368382" lon="24.498711">
        <ele>1455.4523434036528</ele>
      </trkpt>
      <trkpt lat="48.368336" lon="24.498341">
        <ele>1467.812534677421</ele>
      </trkpt>
      <trkpt lat="48.36805" lon="24.497953">
        <ele>1491.3390020171064</ele>
      </trkpt>
      <trkpt lat="48.367878" lon="24.497909">
        <ele>1498.994626390515</ele>
      </trkpt>
      <trkpt lat="48.367713" lon="24.497307">
        <ele>1523.386587387593</ele>
      </trkpt>
      <trkpt lat="48.367435" lon="24.496813">
        <ele>1535.4514577398277</ele>
      </trkpt>
    </trkseg>
  </trk>
</gpx>
