<?xml version="1.0" encoding="UTF-8"?>
<gpx version="1.1" creator="phpGPX/1.0RC5" schemaLocation="http://www.topografix.com/GPX/1/1 http://www.topografix.com/GPX/1/1/gpx.xsd http://www.garmin.com/xmlschemas/GpxExtensions/v3 http://www.garmin.com/xmlschemas/GpxExtensionsv3.xsd http://www.garmin.com/xmlschemas/TrackPointExtension/v1 http://www.garmin.com/xmlschemas/TrackPointExtensionv1.xsd http://www.garmin.com/xmlschemas/PowerExtension/v1 http://www.garmin.com/xmlschemas/PowerExtensionv1.xsd http://www.topografix.com/GPX/gpx_style/0/2 http://www.topografix.com/GPX/gpx_style/0/2/gpx_style.xsd" xmlns="http://www.topografix.com/GPX/1/1" xmlns:xsi="http://www.w3.org/2001/XMLSchema-instance" xsi:schemaLocation="http://www.topografix.com/GPX/1/1 http://www.topografix.com/GPX/1/1/gpx.xsd http://www.garmin.com/xmlschemas/GpxExtensions/v3 http://www.garmin.com/xmlschemas/GpxExtensionsv3.xsd http://www.garmin.com/xmlschemas/TrackPointExtension/v1 http://www.garmin.com/xmlschemas/TrackPointExtensionv1.xsd http://www.garmin.com/xmlschemas/PowerExtension/v1 http://www.garmin.com/xmlschemas/PowerExtensionv1.xsd http://www.topografix.com/GPX/gpx_style/0/2 http://www.topografix.com/GPX/gpx_style/0/2/gpx_style.xsd" xmlns:gpxtpx="http://www.garmin.com/xmlschemas/TrackPointExtension/v1" xmlns:gpxx="http://www.garmin.com/xmlschemas/GpxExtensions/v3" xmlns:gpxpx="http://www.garmin.com/xmlschemas/PowerExtension/v1" xmlns:gpx_style="http://www.topografix.com/GPX/gpx_style/0/2">
  <metadata>
    <name>Південні Горгани  Негровець, Гропа та ін</name>
    <author>
      <name>gpx.studio</name>
      <link href="https://gpx.studio"/>
    </author>
  </metadata>
  <trk>
    <name>Південні Горгани  Негровець, Гропа та ін</name>
    <trkseg>
      <trkpt lat="48.425883" lon="23.700468">
        <ele>558.6019600325855</ele>
      </trkpt>
      <trkpt lat="48.426339" lon="23.701154">
        <ele>569.5136744454503</ele>
      </trkpt>
      <trkpt lat="48.426581" lon="23.702098">
        <ele>579.3728430257179</ele>
      </trkpt>
      <trkpt lat="48.42688" lon="23.703922">
        <ele>582.6495094587752</ele>
      </trkpt>
      <trkpt lat="48.428617" lon="23.707956">
        <ele>590.6601387773298</ele>
      </trkpt>
      <trkpt lat="48.42883" lon="23.708364">
        <ele>592.7047729101581</ele>
      </trkpt>
      <trkpt lat="48.429201" lon="23.708192">
        <ele>593.6069050374574</ele>
      </trkpt>
      <trkpt lat="48.431151" lon="23.711647">
        <ele>600.3693988936769</ele>
      </trkpt>
      <trkpt lat="48.431558" lon="23.712226">
        <ele>603.5388740704689</ele>
      </trkpt>
      <trkpt lat="48.4318" lon="23.713106">
        <ele>605.0891323504038</ele>
      </trkpt>
      <trkpt lat="48.431943" lon="23.714093">
        <ele>607.3407874658005</ele>
      </trkpt>
      <trkpt lat="48.432484" lon="23.714651">
        <ele>612.3284633876029</ele>
      </trkpt>
      <trkpt lat="48.432953" lon="23.715166">
        <ele>620.3447609610739</ele>
      </trkpt>
      <trkpt lat="48.433537" lon="23.715316">
        <ele>630.8525413062889</ele>
      </trkpt>
      <trkpt lat="48.433808" lon="23.714308">
        <ele>644.0486213611626</ele>
      </trkpt>
      <trkpt lat="48.434192" lon="23.714801">
        <ele>654.7053179255233</ele>
      </trkpt>
      <trkpt lat="48.43469" lon="23.715273">
        <ele>671.4711652575907</ele>
      </trkpt>
      <trkpt lat="48.435288" lon="23.715488">
        <ele>686.40032931522</ele>
      </trkpt>
      <trkpt lat="48.435889" lon="23.715804">
        <ele>694.7885215528581</ele>
      </trkpt>
      <trkpt lat="48.436444" lon="23.716405">
        <ele>709.4164135437411</ele>
      </trkpt>
      <trkpt lat="48.436985" lon="23.717006">
        <ele>713.4718296738965</ele>
      </trkpt>
      <trkpt lat="48.437142" lon="23.717392">
        <ele>718.1600774191027</ele>
      </trkpt>
      <trkpt lat="48.437284" lon="23.718701">
        <ele>729.1404223955469</ele>
      </trkpt>
      <trkpt lat="48.437953" lon="23.719624">
        <ele>734.7288903876546</ele>
      </trkpt>
      <trkpt lat="48.438793" lon="23.719731">
        <ele>735.4476534052691</ele>
      </trkpt>
      <trkpt lat="48.44006" lon="23.72104">
        <ele>736.071386443787</ele>
      </trkpt>
      <trkpt lat="48.441284" lon="23.72134">
        <ele>744.2816062534694</ele>
      </trkpt>
      <trkpt lat="48.442704" lon="23.72089">
        <ele>764.8052739320476</ele>
      </trkpt>
      <trkpt lat="48.444426" lon="23.721984">
        <ele>809.843970712385</ele>
      </trkpt>
      <trkpt lat="48.445266" lon="23.722156">
        <ele>819.4714040218355</ele>
      </trkpt>
      <trkpt lat="48.445992" lon="23.721941">
        <ele>830.5706254256071</ele>
      </trkpt>
      <trkpt lat="48.447202" lon="23.72237">
        <ele>854.9106808889192</ele>
      </trkpt>
      <trkpt lat="48.447899" lon="23.723979">
        <ele>849.5931882823743</ele>
      </trkpt>
      <trkpt lat="48.448497" lon="23.724752">
        <ele>855.1212009579906</ele>
      </trkpt>
      <trkpt lat="48.449084" lon="23.727246">
        <ele>866.1870727549516</ele>
      </trkpt>
      <trkpt lat="48.449383" lon="23.728684">
        <ele>876.8633031209706</ele>
      </trkpt>
      <trkpt lat="48.450137" lon="23.729371">
        <ele>902.7387063965637</ele>
      </trkpt>
      <trkpt lat="48.450877" lon="23.729564">
        <ele>921.3390147432775</ele>
      </trkpt>
      <trkpt lat="48.450707" lon="23.730915">
        <ele>950.0292607737093</ele>
      </trkpt>
      <trkpt lat="48.451006" lon="23.731967">
        <ele>976.741843977361</ele>
      </trkpt>
      <trkpt lat="48.451575" lon="23.732696">
        <ele>992.72663450817</ele>
      </trkpt>
      <trkpt lat="48.451532" lon="23.734284">
        <ele>1009.3196454137104</ele>
      </trkpt>
      <trkpt lat="48.451931" lon="23.736065">
        <ele>1003.7603253256611</ele>
      </trkpt>
      <trkpt lat="48.452756" lon="23.737524">
        <ele>1021.6687217631259</ele>
      </trkpt>
      <trkpt lat="48.454041" lon="23.737812">
        <ele>1026.0636727134117</ele>
      </trkpt>
      <trkpt lat="48.455792" lon="23.738498">
        <ele>1063.9422216976527</ele>
      </trkpt>
      <trkpt lat="48.456503" lon="23.738112">
        <ele>1093.0870665665716</ele>
      </trkpt>
      <trkpt lat="48.456646" lon="23.738692">
        <ele>1098.5939358004835</ele>
      </trkpt>
      <trkpt lat="48.458154" lon="23.738477">
        <ele>1136.413828655146</ele>
      </trkpt>
      <trkpt lat="48.458965" lon="23.738069">
        <ele>1154.9258957034908</ele>
      </trkpt>
      <trkpt lat="48.459022" lon="23.73852">
        <ele>1166.2673347219825</ele>
      </trkpt>
      <trkpt lat="48.459847" lon="23.741116">
        <ele>1232.6426959057887</ele>
      </trkpt>
      <trkpt lat="48.460992" lon="23.742376">
        <ele>1265.6683505360998</ele>
      </trkpt>
      <trkpt lat="48.462024" lon="23.743063">
        <ele>1315.9967158519166</ele>
      </trkpt>
      <trkpt lat="48.462714" lon="23.744157">
        <ele>1358.897325816994</ele>
      </trkpt>
      <trkpt lat="48.462927" lon="23.74567">
        <ele>1389.859057088117</ele>
      </trkpt>
      <trkpt lat="48.463753" lon="23.74802">
        <ele>1404.0421363578128</ele>
      </trkpt>
      <trkpt lat="48.464066" lon="23.748803">
        <ele>1425.5029855906032</ele>
      </trkpt>
      <trkpt lat="48.464436" lon="23.751603">
        <ele>1458.8075433586075</ele>
      </trkpt>
      <trkpt lat="48.465282" lon="23.753502">
        <ele>1492.566638273054</ele>
      </trkpt>
      <trkpt lat="48.465787" lon="23.754586">
        <ele>1498.0146214602537</ele>
      </trkpt>
      <trkpt lat="48.466307" lon="23.755165">
        <ele>1486.3771838695764</ele>
      </trkpt>
      <trkpt lat="48.467018" lon="23.756088">
        <ele>1475.663698945542</ele>
      </trkpt>
      <trkpt lat="48.467993" lon="23.756979">
        <ele>1480.2867572117943</ele>
      </trkpt>
      <trkpt lat="48.468647" lon="23.758266">
        <ele>1474.696043399605</ele>
      </trkpt>
      <trkpt lat="48.469493" lon="23.759521">
        <ele>1474.4539733562076</ele>
      </trkpt>
      <trkpt lat="48.469956" lon="23.76039">
        <ele>1471.9896204781253</ele>
      </trkpt>
      <trkpt lat="48.470127" lon="23.760476">
        <ele>1471.7489511587344</ele>
      </trkpt>
      <trkpt lat="48.470674" lon="23.760208">
        <ele>1468.2384847967187</ele>
      </trkpt>
      <trkpt lat="48.471715" lon="23.760797">
        <ele>1472.9859575743112</ele>
      </trkpt>
      <trkpt lat="48.472128" lon="23.760786">
        <ele>1474.913157925783</ele>
      </trkpt>
      <trkpt lat="48.474076" lon="23.762986">
        <ele>1473.2951017203948</ele>
      </trkpt>
      <trkpt lat="48.47498" lon="23.763544">
        <ele>1484.4591426114907</ele>
      </trkpt>
      <trkpt lat="48.475282" lon="23.764107">
        <ele>1484.7000647384798</ele>
      </trkpt>
      <trkpt lat="48.477985" lon="23.767046">
        <ele>1555.336259629627</ele>
      </trkpt>
      <trkpt lat="48.478429" lon="23.767686">
        <ele>1557.6552424610416</ele>
      </trkpt>
      <trkpt lat="48.480221" lon="23.767128">
        <ele>1512.234776757106</ele>
      </trkpt>
      <trkpt lat="48.481925" lon="23.767103">
        <ele>1515.3942090795608</ele>
      </trkpt>
      <trkpt lat="48.482899" lon="23.766341">
        <ele>1540.5655584080832</ele>
      </trkpt>
      <trkpt lat="48.484161" lon="23.766005">
        <ele>1565.4745944882882</ele>
      </trkpt>
      <trkpt lat="48.484638" lon="23.766091">
        <ele>1569.4145130776992</ele>
      </trkpt>
      <trkpt lat="48.485797" lon="23.765329">
        <ele>1574.857504558866</ele>
      </trkpt>
      <trkpt lat="48.486295" lon="23.765265">
        <ele>1569.166219950188</ele>
      </trkpt>
      <trkpt lat="48.486501" lon="23.764922">
        <ele>1573.6943548008771</ele>
      </trkpt>
      <trkpt lat="48.488096" lon="23.76408">
        <ele>1557.3158741623993</ele>
      </trkpt>
      <trkpt lat="48.489866" lon="23.765249">
        <ele>1480.3745616589374</ele>
      </trkpt>
      <trkpt lat="48.490821" lon="23.766687">
        <ele>1428.5621702194412</ele>
      </trkpt>
      <trkpt lat="48.49257" lon="23.768425">
        <ele>1399.9903104681766</ele>
      </trkpt>
      <trkpt lat="48.491518" lon="23.764455">
        <ele>1388.722296966225</ele>
      </trkpt>
      <trkpt lat="48.491291" lon="23.760314">
        <ele>1310.9875047025066</ele>
      </trkpt>
      <trkpt lat="48.491276" lon="23.757954">
        <ele>1331.5395004941622</ele>
      </trkpt>
      <trkpt lat="48.491945" lon="23.756301">
        <ele>1346.4154295884264</ele>
      </trkpt>
      <trkpt lat="48.491902" lon="23.755271">
        <ele>1349.8403844101163</ele>
      </trkpt>
      <trkpt lat="48.494231" lon="23.753837">
        <ele>1410.919123073936</ele>
      </trkpt>
      <trkpt lat="48.495994" lon="23.751284">
        <ele>1428.098185160896</ele>
      </trkpt>
      <trkpt lat="48.498682" lon="23.746713">
        <ele>1441.111082860427</ele>
      </trkpt>
      <trkpt lat="48.498876" lon="23.74579">
        <ele>1456.8763866590034</ele>
      </trkpt>
      <trkpt lat="48.499359" lon="23.745168">
        <ele>1459.4634264140643</ele>
      </trkpt>
      <trkpt lat="48.499402" lon="23.742228">
        <ele>1457.9884918755224</ele>
      </trkpt>
      <trkpt lat="48.49943" lon="23.741027">
        <ele>1471.2012347548346</ele>
      </trkpt>
      <trkpt lat="48.500312" lon="23.737915">
        <ele>1548.4271021840395</ele>
      </trkpt>
      <trkpt lat="48.499942" lon="23.735512">
        <ele>1585.388735700235</ele>
      </trkpt>
      <trkpt lat="48.499445" lon="23.735018">
        <ele>1602.425061508431</ele>
      </trkpt>
      <trkpt lat="48.498975" lon="23.734052">
        <ele>1606.2361270397057</ele>
      </trkpt>
      <trkpt lat="48.497923" lon="23.733129">
        <ele>1620.721224263776</ele>
      </trkpt>
      <trkpt lat="48.497454" lon="23.731563">
        <ele>1615.146452729936</ele>
      </trkpt>
      <trkpt lat="48.496814" lon="23.73049">
        <ele>1622.4599975436142</ele>
      </trkpt>
      <trkpt lat="48.495534" lon="23.724923">
        <ele>1622.967266512254</ele>
      </trkpt>
      <trkpt lat="48.495022" lon="23.723809">
        <ele>1631.8872159315185</ele>
      </trkpt>
      <trkpt lat="48.494766" lon="23.72132">
        <ele>1641.4737590782613</ele>
      </trkpt>
      <trkpt lat="48.495476" lon="23.719347">
        <ele>1598.3238198088268</ele>
      </trkpt>
      <trkpt lat="48.495761" lon="23.718059">
        <ele>1600.385760227237</ele>
      </trkpt>
      <trkpt lat="48.498007" lon="23.715442">
        <ele>1692.1367771977414</ele>
      </trkpt>
      <trkpt lat="48.49795" lon="23.713425">
        <ele>1681.2242143476615</ele>
      </trkpt>
      <trkpt lat="48.498235" lon="23.711665">
        <ele>1672.0003039675362</ele>
      </trkpt>
      <trkpt lat="48.497296" lon="23.708103">
        <ele>1640.4062331548193</ele>
      </trkpt>
      <trkpt lat="48.49704" lon="23.705271">
        <ele>1620.7693230961554</ele>
      </trkpt>
      <trkpt lat="48.497467" lon="23.702567">
        <ele>1629.6634966862644</ele>
      </trkpt>
      <trkpt lat="48.497666" lon="23.700421">
        <ele>1649.2819564661477</ele>
      </trkpt>
      <trkpt lat="48.49869" lon="23.69849">
        <ele>1646.7972844367796</ele>
      </trkpt>
      <trkpt lat="48.500538" lon="23.695872">
        <ele>1595.267359260984</ele>
      </trkpt>
      <trkpt lat="48.501619" lon="23.693469">
        <ele>1618.6432069409298</ele>
      </trkpt>
      <trkpt lat="48.502557" lon="23.692181">
        <ele>1609.7157138539496</ele>
      </trkpt>
      <trkpt lat="48.503154" lon="23.688791">
        <ele>1564.9989967683796</ele>
      </trkpt>
      <trkpt lat="48.503893" lon="23.684714">
        <ele>1547.1697858796867</ele>
      </trkpt>
      <trkpt lat="48.505344" lon="23.679736">
        <ele>1536.1501115815904</ele>
      </trkpt>
      <trkpt lat="48.506964" lon="23.678406">
        <ele>1497.5204707457938</ele>
      </trkpt>
      <trkpt lat="48.508731" lon="23.674961">
        <ele>1479.1836354269226</ele>
      </trkpt>
      <trkpt lat="48.509726" lon="23.672172">
        <ele>1481.2247628320893</ele>
      </trkpt>
      <trkpt lat="48.511005" lon="23.66994">
        <ele>1460.2491060298462</ele>
      </trkpt>
      <trkpt lat="48.511972" lon="23.66655">
        <ele>1467.94008807512</ele>
      </trkpt>
      <trkpt lat="48.513194" lon="23.663073">
        <ele>1445.9817363268894</ele>
      </trkpt>
      <trkpt lat="48.512825" lon="23.660949">
        <ele>1410.080609337993</ele>
      </trkpt>
      <trkpt lat="48.510579" lon="23.657881">
        <ele>1329.4041488936093</ele>
      </trkpt>
      <trkpt lat="48.508276" lon="23.651401">
        <ele>1178.0550031691903</ele>
      </trkpt>
      <trkpt lat="48.507451" lon="23.646594">
        <ele>1029.3926397097025</ele>
      </trkpt>
      <trkpt lat="48.504836" lon="23.642131">
        <ele>851.470153659455</ele>
      </trkpt>
      <trkpt lat="48.503186" lon="23.639335">
        <ele>803.7292400136357</ele>
      </trkpt>
      <trkpt lat="48.50239" lon="23.636503">
        <ele>756.2252503117779</ele>
      </trkpt>
      <trkpt lat="48.500002" lon="23.631568">
        <ele>702.6013298854823</ele>
      </trkpt>
      <trkpt lat="48.498438" lon="23.62998">
        <ele>683.400339604239</ele>
      </trkpt>
      <trkpt lat="48.497786" lon="23.629671">
        <ele>673.4039424824659</ele>
      </trkpt>
      <trkpt lat="48.497455" lon="23.629317">
        <ele>668.7825348812839</ele>
      </trkpt>
      <trkpt lat="48.495116" lon="23.628481">
        <ele>669.2171755813833</ele>
      </trkpt>
      <trkpt lat="48.494582" lon="23.627691">
        <ele>665.1832083715126</ele>
      </trkpt>
      <trkpt lat="48.494077" lon="23.627048">
        <ele>659.0609294222669</ele>
      </trkpt>
      <trkpt lat="48.4938" lon="23.626447">
        <ele>649.8431025836065</ele>
      </trkpt>
      <trkpt lat="48.493387" lon="23.62634">
        <ele>643.8937091296865</ele>
      </trkpt>
      <trkpt lat="48.492861" lon="23.625889">
        <ele>634.0842465547073</ele>
      </trkpt>
      <trkpt lat="48.492235" lon="23.626048">
        <ele>635.5000000000001</ele>
      </trkpt>
      <trkpt lat="48.491095" lon="23.626217">
        <ele>634.970189414189</ele>
      </trkpt>
      <trkpt lat="48.490661" lon="23.625863">
        <ele>633.9695020614349</ele>
      </trkpt>
      <trkpt lat="48.490564" lon="23.625636">
        <ele>633.6699132909833</ele>
      </trkpt>
      <trkpt lat="48.490237" lon="23.625416">
        <ele>632.5020556298222</ele>
      </trkpt>
      <trkpt lat="48.490088" lon="23.625078">
        <ele>632.4963617545462</ele>
      </trkpt>
      <trkpt lat="48.489772" lon="23.624781">
        <ele>632.5</ele>
      </trkpt>
      <trkpt lat="48.489491" lon="23.624432">
        <ele>632</ele>
      </trkpt>
      <trkpt lat="48.4891" lon="23.624298">
        <ele>631.955464670854</ele>
      </trkpt>
      <trkpt lat="48.488894" lon="23.624202">
        <ele>631.210006989073</ele>
      </trkpt>
      <trkpt lat="48.488688" lon="23.624207">
        <ele>629.7760429737768</ele>
      </trkpt>
      <trkpt lat="48.48846" lon="23.624021">
        <ele>627.7039393705021</ele>
      </trkpt>
      <trkpt lat="48.48793" lon="23.624053">
        <ele>623.6023347941723</ele>
      </trkpt>
      <trkpt lat="48.487779" lon="23.624354">
        <ele>625.7096108464793</ele>
      </trkpt>
      <trkpt lat="48.487505" lon="23.624606">
        <ele>627.3185425597692</ele>
      </trkpt>
      <trkpt lat="48.487221" lon="23.624681">
        <ele>628.6500724012731</ele>
      </trkpt>
      <trkpt lat="48.486563" lon="23.624456">
        <ele>627.1464554667473</ele>
      </trkpt>
      <trkpt lat="48.486144" lon="23.624241">
        <ele>626.1785045333672</ele>
      </trkpt>
      <trkpt lat="48.485847" lon="23.624225">
        <ele>626.5426488888916</ele>
      </trkpt>
      <trkpt lat="48.48568" lon="23.624091">
        <ele>625.8046911999118</ele>
      </trkpt>
      <trkpt lat="48.486298" lon="23.623726">
        <ele>622.3566307657031</ele>
      </trkpt>
      <trkpt lat="48.487308" lon="23.623061">
        <ele>626.5432405332103</ele>
      </trkpt>
      <trkpt lat="48.488369" lon="23.622294">
        <ele>631.5924739241207</ele>
      </trkpt>
      <trkpt lat="48.489274" lon="23.621513">
        <ele>633.4678763292196</ele>
      </trkpt>
      <trkpt lat="48.489822" lon="23.621422">
        <ele>635.5074227382429</ele>
      </trkpt>
      <trkpt lat="48.491105" lon="23.621668">
        <ele>634.9815517108863</ele>
      </trkpt>
      <trkpt lat="48.491663" lon="23.621711">
        <ele>636</ele>
      </trkpt>
      <trkpt lat="48.4924" lon="23.621447">
        <ele>636.0034100796329</ele>
      </trkpt>
    </trkseg>
  </trk>
</gpx>
