<?xml version="1.0" encoding="UTF-8"?>
<gpx version="1.1" creator="phpGPX/1.0RC5" schemaLocation="http://www.topografix.com/GPX/1/1 http://www.topografix.com/GPX/1/1/gpx.xsd http://www.garmin.com/xmlschemas/GpxExtensions/v3 http://www.garmin.com/xmlschemas/GpxExtensionsv3.xsd http://www.garmin.com/xmlschemas/TrackPointExtension/v1 http://www.garmin.com/xmlschemas/TrackPointExtensionv1.xsd http://www.garmin.com/xmlschemas/PowerExtension/v1 http://www.garmin.com/xmlschemas/PowerExtensionv1.xsd http://www.topografix.com/GPX/gpx_style/0/2 http://www.topografix.com/GPX/gpx_style/0/2/gpx_style.xsd" xmlns="http://www.topografix.com/GPX/1/1" xmlns:xsi="http://www.w3.org/2001/XMLSchema-instance" xsi:schemaLocation="http://www.topografix.com/GPX/1/1 http://www.topografix.com/GPX/1/1/gpx.xsd http://www.garmin.com/xmlschemas/GpxExtensions/v3 http://www.garmin.com/xmlschemas/GpxExtensionsv3.xsd http://www.garmin.com/xmlschemas/TrackPointExtension/v1 http://www.garmin.com/xmlschemas/TrackPointExtensionv1.xsd http://www.garmin.com/xmlschemas/PowerExtension/v1 http://www.garmin.com/xmlschemas/PowerExtensionv1.xsd http://www.topografix.com/GPX/gpx_style/0/2 http://www.topografix.com/GPX/gpx_style/0/2/gpx_style.xsd" xmlns:gpxtpx="http://www.garmin.com/xmlschemas/TrackPointExtension/v1" xmlns:gpxx="http://www.garmin.com/xmlschemas/GpxExtensions/v3" xmlns:gpxpx="http://www.garmin.com/xmlschemas/PowerExtension/v1" xmlns:gpx_style="http://www.topografix.com/GPX/gpx_style/0/2">
  <metadata>
    <name>Піп-Іван Чорногірський з села Шибене</name>
    <author>
      <name>gpx.studio</name>
      <link href="https://gpx.studio"/>
    </author>
  </metadata>
  <trk>
    <name>Піп-Іван Чорногірський з села Шибене</name>
    <trkseg>
      <trkpt lat="47.990015" lon="24.704297">
        <ele>853</ele>
      </trkpt>
      <trkpt lat="47.989843" lon="24.703675">
        <ele>853.5</ele>
      </trkpt>
      <trkpt lat="47.989843" lon="24.702602">
        <ele>854.1576295812847</ele>
      </trkpt>
      <trkpt lat="47.9898" lon="24.701615">
        <ele>855.3119593384066</ele>
      </trkpt>
      <trkpt lat="47.990159" lon="24.700242">
        <ele>857.7680332493037</ele>
      </trkpt>
      <trkpt lat="47.99036" lon="24.699212">
        <ele>858.6379844389039</ele>
      </trkpt>
      <trkpt lat="47.990514" lon="24.696808">
        <ele>862.1558444097171</ele>
      </trkpt>
      <trkpt lat="47.991031" lon="24.695242">
        <ele>865.9840288996929</ele>
      </trkpt>
      <trkpt lat="47.991361" lon="24.692882">
        <ele>870.7409892783963</ele>
      </trkpt>
      <trkpt lat="47.99205" lon="24.691079">
        <ele>876.280188609664</ele>
      </trkpt>
      <trkpt lat="47.992567" lon="24.689298">
        <ele>874.3758144972171</ele>
      </trkpt>
      <trkpt lat="47.993127" lon="24.687388">
        <ele>876.6302357171662</ele>
      </trkpt>
      <trkpt lat="47.993685" lon="24.684714">
        <ele>883.0307419655123</ele>
      </trkpt>
      <trkpt lat="47.994216" lon="24.682847">
        <ele>887.8383012442454</ele>
      </trkpt>
      <trkpt lat="47.993699" lon="24.680444">
        <ele>889.0564963240176</ele>
      </trkpt>
      <trkpt lat="47.994101" lon="24.679907">
        <ele>891.2957786638437</ele>
      </trkpt>
      <trkpt lat="47.995394" lon="24.679049">
        <ele>901.2410509344027</ele>
      </trkpt>
      <trkpt lat="47.995796" lon="24.67789">
        <ele>895.8047104973011</ele>
      </trkpt>
      <trkpt lat="47.996226" lon="24.675358">
        <ele>895.0379281709269</ele>
      </trkpt>
      <trkpt lat="47.997131" lon="24.673599">
        <ele>899.5559093985356</ele>
      </trkpt>
      <trkpt lat="47.998696" lon="24.671925">
        <ele>903.3803479714552</ele>
      </trkpt>
      <trkpt lat="47.999084" lon="24.671882">
        <ele>904.8791872723377</ele>
      </trkpt>
      <trkpt lat="48.000563" lon="24.67126">
        <ele>932.8993543315353</ele>
      </trkpt>
      <trkpt lat="48.00131" lon="24.670957">
        <ele>949.1036202630494</ele>
      </trkpt>
      <trkpt lat="48.002071" lon="24.670978">
        <ele>971.8991627954133</ele>
      </trkpt>
      <trkpt lat="48.002789" lon="24.670474">
        <ele>984.5591133460885</ele>
      </trkpt>
      <trkpt lat="48.003464" lon="24.669745">
        <ele>1006.2463696454652</ele>
      </trkpt>
      <trkpt lat="48.004024" lon="24.66923">
        <ele>1026.031199889269</ele>
      </trkpt>
      <trkpt lat="48.00467" lon="24.668371">
        <ele>1053.8557535941945</ele>
      </trkpt>
      <trkpt lat="48.005524" lon="24.66776">
        <ele>1076.4684374892065</ele>
      </trkpt>
      <trkpt lat="48.005689" lon="24.667513">
        <ele>1080.0430507628325</ele>
      </trkpt>
      <trkpt lat="48.006178" lon="24.667105">
        <ele>1072.8371203175523</ele>
      </trkpt>
      <trkpt lat="48.006889" lon="24.666794">
        <ele>1084.1369068973</ele>
      </trkpt>
      <trkpt lat="48.007757" lon="24.666376">
        <ele>1106.310437321663</ele>
      </trkpt>
      <trkpt lat="48.008346" lon="24.665904">
        <ele>1122.1044866681</ele>
      </trkpt>
      <trkpt lat="48.009035" lon="24.665311">
        <ele>1148.5085017796841</ele>
      </trkpt>
      <trkpt lat="48.009422" lon="24.665118">
        <ele>1158.8632554666838</ele>
      </trkpt>
      <trkpt lat="48.010449" lon="24.664431">
        <ele>1161.5219250003186</ele>
      </trkpt>
      <trkpt lat="48.010893" lon="24.664282">
        <ele>1167.521431006966</ele>
      </trkpt>
      <trkpt lat="48.01174" lon="24.663917">
        <ele>1185.9355151908778</ele>
      </trkpt>
      <trkpt lat="48.012458" lon="24.663455">
        <ele>1213.4427039032612</ele>
      </trkpt>
      <trkpt lat="48.012867" lon="24.663134">
        <ele>1232.6629642585879</ele>
      </trkpt>
      <trkpt lat="48.013391" lon="24.663016">
        <ele>1236.642872141387</ele>
      </trkpt>
      <trkpt lat="48.013743" lon="24.662801">
        <ele>1240.7223147305988</ele>
      </trkpt>
      <trkpt lat="48.015063" lon="24.661428">
        <ele>1280.3528948924243</ele>
      </trkpt>
      <trkpt lat="48.015246" lon="24.661392">
        <ele>1282.7358899752144</ele>
      </trkpt>
      <trkpt lat="48.016222" lon="24.660265">
        <ele>1297.7377959513635</ele>
      </trkpt>
      <trkpt lat="48.01671" lon="24.659589">
        <ele>1307.0481414800586</ele>
      </trkpt>
      <trkpt lat="48.016781" lon="24.659257">
        <ele>1307.3584694296626</ele>
      </trkpt>
      <trkpt lat="48.017284" lon="24.658881">
        <ele>1321.4898060978157</ele>
      </trkpt>
      <trkpt lat="48.017463" lon="24.658355">
        <ele>1328.973136206399</ele>
      </trkpt>
      <trkpt lat="48.018505" lon="24.657635">
        <ele>1343.9506896715739</ele>
      </trkpt>
      <trkpt lat="48.019194" lon="24.657141">
        <ele>1362.126516700373</ele>
      </trkpt>
      <trkpt lat="48.020543" lon="24.657624">
        <ele>1387.8517853785308</ele>
      </trkpt>
      <trkpt lat="48.02068" lon="24.657731">
        <ele>1389.2987637518243</ele>
      </trkpt>
      <trkpt lat="48.021383" lon="24.658568">
        <ele>1403.0622377550656</ele>
      </trkpt>
      <trkpt lat="48.021627" lon="24.658707">
        <ele>1407.2500344142306</ele>
      </trkpt>
      <trkpt lat="48.022015" lon="24.658804">
        <ele>1412.7912808540277</ele>
      </trkpt>
      <trkpt lat="48.022302" lon="24.658568">
        <ele>1419.7628028666368</ele>
      </trkpt>
      <trkpt lat="48.02251" lon="24.658793">
        <ele>1421.1056235886062</ele>
      </trkpt>
      <trkpt lat="48.022768" lon="24.659362">
        <ele>1423.9933533770516</ele>
      </trkpt>
      <trkpt lat="48.023058" lon="24.659638">
        <ele>1431.1224777008174</ele>
      </trkpt>
      <trkpt lat="48.023173" lon="24.659595">
        <ele>1434.2610868710835</ele>
      </trkpt>
      <trkpt lat="48.023804" lon="24.659434">
        <ele>1452.0695597287267</ele>
      </trkpt>
      <trkpt lat="48.023969" lon="24.659531">
        <ele>1457.908091942896</ele>
      </trkpt>
      <trkpt lat="48.024077" lon="24.659799">
        <ele>1461.6856594826095</ele>
      </trkpt>
      <trkpt lat="48.024371" lon="24.659853">
        <ele>1468.8608777179807</ele>
      </trkpt>
      <trkpt lat="48.024801" lon="24.660003">
        <ele>1478.7097472120076</ele>
      </trkpt>
      <trkpt lat="48.025049" lon="24.659935">
        <ele>1484.1561882891692</ele>
      </trkpt>
      <trkpt lat="48.025501" lon="24.659806">
        <ele>1493.251322644297</ele>
      </trkpt>
      <trkpt lat="48.025681" lon="24.659924">
        <ele>1496.3987792604253</ele>
      </trkpt>
      <trkpt lat="48.026219" lon="24.662327">
        <ele>1502.2683848274173</ele>
      </trkpt>
      <trkpt lat="48.026513" lon="24.66296">
        <ele>1515.245745090356</ele>
      </trkpt>
      <trkpt lat="48.026712" lon="24.663671">
        <ele>1522.107896614362</ele>
      </trkpt>
      <trkpt lat="48.026999" lon="24.664261">
        <ele>1528.143314228742</ele>
      </trkpt>
      <trkpt lat="48.027372" lon="24.664947">
        <ele>1529.913245450065</ele>
      </trkpt>
      <trkpt lat="48.027637" lon="24.665162">
        <ele>1532.8336985688657</ele>
      </trkpt>
      <trkpt lat="48.028125" lon="24.665183">
        <ele>1537.9100202056775</ele>
      </trkpt>
      <trkpt lat="48.028412" lon="24.664883">
        <ele>1543.5287802200764</ele>
      </trkpt>
      <trkpt lat="48.028929" lon="24.664293">
        <ele>1546.0530583147192</ele>
      </trkpt>
      <trkpt lat="48.029417" lon="24.663778">
        <ele>1545.920363692101</ele>
      </trkpt>
      <trkpt lat="48.030192" lon="24.663038">
        <ele>1549.6555818783816</ele>
      </trkpt>
      <trkpt lat="48.030737" lon="24.66233">
        <ele>1549.252852145466</ele>
      </trkpt>
      <trkpt lat="48.031411" lon="24.662115">
        <ele>1535.8348014110425</ele>
      </trkpt>
      <trkpt lat="48.031759" lon="24.66212">
        <ele>1529.64872691118</ele>
      </trkpt>
      <trkpt lat="48.032706" lon="24.661015">
        <ele>1529.7583684026458</ele>
      </trkpt>
      <trkpt lat="48.033108" lon="24.660983">
        <ele>1528.9575677542105</ele>
      </trkpt>
      <trkpt lat="48.033345" lon="24.660876">
        <ele>1526.881523171301</ele>
      </trkpt>
      <trkpt lat="48.033546" lon="24.660586">
        <ele>1525.16284871113</ele>
      </trkpt>
      <trkpt lat="48.034041" lon="24.660167">
        <ele>1523.7897077812231</ele>
      </trkpt>
      <trkpt lat="48.034443" lon="24.659856">
        <ele>1519.3554233189382</ele>
      </trkpt>
      <trkpt lat="48.03483" lon="24.659341">
        <ele>1509.513772982638</ele>
      </trkpt>
      <trkpt lat="48.03534" lon="24.659052">
        <ele>1506.8494888721038</ele>
      </trkpt>
      <trkpt lat="48.035548" lon="24.658365">
        <ele>1509.3570503057613</ele>
      </trkpt>
      <trkpt lat="48.03572" lon="24.657678">
        <ele>1517.1044760742222</ele>
      </trkpt>
      <trkpt lat="48.035978" lon="24.657067">
        <ele>1519.734029177875</ele>
      </trkpt>
      <trkpt lat="48.036279" lon="24.65652">
        <ele>1523.6406310679224</ele>
      </trkpt>
      <trkpt lat="48.036846" lon="24.656047">
        <ele>1527.5454272115603</ele>
      </trkpt>
      <trkpt lat="48.036896" lon="24.655704">
        <ele>1532.3734853558708</ele>
      </trkpt>
      <trkpt lat="48.036868" lon="24.655339">
        <ele>1539.1521050382978</ele>
      </trkpt>
      <trkpt lat="48.03719" lon="24.655189">
        <ele>1542.0047348342757</ele>
      </trkpt>
      <trkpt lat="48.037434" lon="24.654352">
        <ele>1547.9849770667497</ele>
      </trkpt>
      <trkpt lat="48.037743" lon="24.653623">
        <ele>1556.3358952634064</ele>
      </trkpt>
      <trkpt lat="48.038008" lon="24.65329">
        <ele>1563.4857707510685</ele>
      </trkpt>
      <trkpt lat="48.038116" lon="24.652947">
        <ele>1568.3224915348596</ele>
      </trkpt>
      <trkpt lat="48.038101" lon="24.652443">
        <ele>1573.2029811807006</ele>
      </trkpt>
      <trkpt lat="48.038108" lon="24.651434">
        <ele>1583.972813864911</ele>
      </trkpt>
      <trkpt lat="48.038029" lon="24.650876">
        <ele>1593.9236398233827</ele>
      </trkpt>
      <trkpt lat="48.038165" lon="24.649835">
        <ele>1611.8753127246596</ele>
      </trkpt>
      <trkpt lat="48.038237" lon="24.648923">
        <ele>1627.7535217703132</ele>
      </trkpt>
      <trkpt lat="48.038552" lon="24.648494">
        <ele>1631.6877001089447</ele>
      </trkpt>
      <trkpt lat="48.038696" lon="24.64799">
        <ele>1641.061969147995</ele>
      </trkpt>
      <trkpt lat="48.038588" lon="24.647486">
        <ele>1652.3473593448289</ele>
      </trkpt>
      <trkpt lat="48.038739" lon="24.647046">
        <ele>1660.1092482370977</ele>
      </trkpt>
      <trkpt lat="48.038839" lon="24.646617">
        <ele>1667.6533812981797</ele>
      </trkpt>
      <trkpt lat="48.039162" lon="24.646198">
        <ele>1673.5210745002482</ele>
      </trkpt>
      <trkpt lat="48.039506" lon="24.645705">
        <ele>1683.3779861796033</ele>
      </trkpt>
      <trkpt lat="48.039887" lon="24.645673">
        <ele>1684.5519571555085</ele>
      </trkpt>
      <trkpt lat="48.040138" lon="24.645952">
        <ele>1677.5410545435734</ele>
      </trkpt>
      <trkpt lat="48.040439" lon="24.646649">
        <ele>1670.4817879483214</ele>
      </trkpt>
      <trkpt lat="48.040722" lon="24.646622">
        <ele>1675.5272223953139</ele>
      </trkpt>
      <trkpt lat="48.041231" lon="24.647502">
        <ele>1679.9878713059006</ele>
      </trkpt>
      <trkpt lat="48.041367" lon="24.647373">
        <ele>1685.2620652690348</ele>
      </trkpt>
      <trkpt lat="48.041339" lon="24.647223">
        <ele>1688.177898891276</ele>
      </trkpt>
      <trkpt lat="48.041238" lon="24.647201">
        <ele>1686.8724685258362</ele>
      </trkpt>
      <trkpt lat="48.041238" lon="24.646965">
        <ele>1692.0959641517838</ele>
      </trkpt>
      <trkpt lat="48.041798" lon="24.646257">
        <ele>1710.2178014758697</ele>
      </trkpt>
      <trkpt lat="48.041697" lon="24.64601">
        <ele>1716.8965983111411</ele>
      </trkpt>
      <trkpt lat="48.04173" lon="24.645828">
        <ele>1721.2586866217455</ele>
      </trkpt>
      <trkpt lat="48.04192" lon="24.645731">
        <ele>1722.5317425884423</ele>
      </trkpt>
      <trkpt lat="48.041791" lon="24.645345">
        <ele>1733.049098086737</ele>
      </trkpt>
      <trkpt lat="48.041848" lon="24.645109">
        <ele>1738.2335874243872</ele>
      </trkpt>
      <trkpt lat="48.041733" lon="24.644862">
        <ele>1744.2506189491833</ele>
      </trkpt>
      <trkpt lat="48.041834" lon="24.644476">
        <ele>1751.3041187831454</ele>
      </trkpt>
      <trkpt lat="48.04187" lon="24.644051">
        <ele>1757.6945556766173</ele>
      </trkpt>
      <trkpt lat="48.042013" lon="24.643729">
        <ele>1761.8006703287265</ele>
      </trkpt>
      <trkpt lat="48.042264" lon="24.643332">
        <ele>1767.9814702597394</ele>
      </trkpt>
      <trkpt lat="48.042587" lon="24.643514">
        <ele>1774.5229727589713</ele>
      </trkpt>
      <trkpt lat="48.042773" lon="24.643246">
        <ele>1780.6572277650962</ele>
      </trkpt>
      <trkpt lat="48.043082" lon="24.64331">
        <ele>1786.5279131851858</ele>
      </trkpt>
      <trkpt lat="48.043283" lon="24.643149">
        <ele>1791.215471298201</ele>
      </trkpt>
      <trkpt lat="48.043455" lon="24.642645">
        <ele>1795.5941013332922</ele>
      </trkpt>
      <trkpt lat="48.043534" lon="24.641916">
        <ele>1800.19490837147</ele>
      </trkpt>
      <trkpt lat="48.04372" lon="24.641175">
        <ele>1810.529783225269</ele>
      </trkpt>
      <trkpt lat="48.043892" lon="24.640639">
        <ele>1815.8991531873503</ele>
      </trkpt>
      <trkpt lat="48.044136" lon="24.640178">
        <ele>1825.1227018316413</ele>
      </trkpt>
      <trkpt lat="48.044258" lon="24.639276">
        <ele>1845.542770754607</ele>
      </trkpt>
      <trkpt lat="48.044402" lon="24.638954">
        <ele>1855.5677920965247</ele>
      </trkpt>
      <trkpt lat="48.044473" lon="24.638568">
        <ele>1864.9445763973054</ele>
      </trkpt>
      <trkpt lat="48.045192" lon="24.636111">
        <ele>1919.4270502694417</ele>
      </trkpt>
      <trkpt lat="48.045235" lon="24.635414">
        <ele>1930.639435078949</ele>
      </trkpt>
      <trkpt lat="48.045335" lon="24.635146">
        <ele>1934.9781483880945</ele>
      </trkpt>
      <trkpt lat="48.045579" lon="24.634802">
        <ele>1940.6924728888553</ele>
      </trkpt>
      <trkpt lat="48.045637" lon="24.634073">
        <ele>1952.5305553769094</ele>
      </trkpt>
      <trkpt lat="48.045995" lon="24.633386">
        <ele>1964.0352598677855</ele>
      </trkpt>
      <trkpt lat="48.046211" lon="24.632657">
        <ele>1973.1329043913865</ele>
      </trkpt>
      <trkpt lat="48.046376" lon="24.63226">
        <ele>1976.912032853836</ele>
      </trkpt>
      <trkpt lat="48.046584" lon="24.631906">
        <ele>1978.450224962424</ele>
      </trkpt>
      <trkpt lat="48.046799" lon="24.631326">
        <ele>1978.8890420565704</ele>
      </trkpt>
      <trkpt lat="48.046792" lon="24.630983">
        <ele>1980.8372800580692</ele>
      </trkpt>
      <trkpt lat="48.046627" lon="24.630232">
        <ele>1984.622197242803</ele>
      </trkpt>
      <trkpt lat="48.046756" lon="24.629781">
        <ele>1988.5131883478543</ele>
      </trkpt>
      <trkpt lat="48.046913" lon="24.629395">
        <ele>1991.204359476571</ele>
      </trkpt>
      <trkpt lat="48.046971" lon="24.629116">
        <ele>1993.1538990060797</ele>
      </trkpt>
      <trkpt lat="48.046763" lon="24.629041">
        <ele>1995.5684715478696</ele>
      </trkpt>
      <trkpt lat="48.046519" lon="24.629138">
        <ele>1993.456619123015</ele>
      </trkpt>
      <trkpt lat="48.046469" lon="24.628955">
        <ele>1994.5575345882683</ele>
      </trkpt>
      <trkpt lat="48.046641" lon="24.628419">
        <ele>2003.0190016138367</ele>
      </trkpt>
      <trkpt lat="48.046705" lon="24.628108">
        <ele>2007.0380676601196</ele>
      </trkpt>
    </trkseg>
  </trk>
</gpx>
