<?xml version="1.0" encoding="UTF-8"?>
<gpx version="1.1" creator="phpGPX/1.0RC5" schemaLocation="http://www.topografix.com/GPX/1/1 http://www.topografix.com/GPX/1/1/gpx.xsd http://www.garmin.com/xmlschemas/GpxExtensions/v3 http://www.garmin.com/xmlschemas/GpxExtensionsv3.xsd http://www.garmin.com/xmlschemas/TrackPointExtension/v1 http://www.garmin.com/xmlschemas/TrackPointExtensionv1.xsd http://www.garmin.com/xmlschemas/PowerExtension/v1 http://www.garmin.com/xmlschemas/PowerExtensionv1.xsd http://www.topografix.com/GPX/gpx_style/0/2 http://www.topografix.com/GPX/gpx_style/0/2/gpx_style.xsd" xmlns="http://www.topografix.com/GPX/1/1" xmlns:xsi="http://www.w3.org/2001/XMLSchema-instance" xsi:schemaLocation="http://www.topografix.com/GPX/1/1 http://www.topografix.com/GPX/1/1/gpx.xsd http://www.garmin.com/xmlschemas/GpxExtensions/v3 http://www.garmin.com/xmlschemas/GpxExtensionsv3.xsd http://www.garmin.com/xmlschemas/TrackPointExtension/v1 http://www.garmin.com/xmlschemas/TrackPointExtensionv1.xsd http://www.garmin.com/xmlschemas/PowerExtension/v1 http://www.garmin.com/xmlschemas/PowerExtensionv1.xsd http://www.topografix.com/GPX/gpx_style/0/2 http://www.topografix.com/GPX/gpx_style/0/2/gpx_style.xsd" xmlns:gpxtpx="http://www.garmin.com/xmlschemas/TrackPointExtension/v1" xmlns:gpxx="http://www.garmin.com/xmlschemas/GpxExtensions/v3" xmlns:gpxpx="http://www.garmin.com/xmlschemas/PowerExtension/v1" xmlns:gpx_style="http://www.topografix.com/GPX/gpx_style/0/2">
  <metadata>
    <name>Піп-Іван Чорногірський з села Дземброня</name>
    <author>
      <name>gpx.studio</name>
      <link href="https://gpx.studio"/>
    </author>
  </metadata>
  <trk>
    <name>Піп-Іван Чорногірський з села Дземброня</name>
    <trkseg>
      <trkpt lat="48.096347" lon="24.691612">
        <ele>817.8346644035965</ele>
      </trkpt>
      <trkpt lat="48.096175" lon="24.691236">
        <ele>820.7523644156754</ele>
      </trkpt>
      <trkpt lat="48.096118" lon="24.691064">
        <ele>821.7505175342085</ele>
      </trkpt>
      <trkpt lat="48.096032" lon="24.690936">
        <ele>823.0641855461694</ele>
      </trkpt>
      <trkpt lat="48.095874" lon="24.690828">
        <ele>825.6782958168267</ele>
      </trkpt>
      <trkpt lat="48.095659" lon="24.690689">
        <ele>830.7261413333472</ele>
      </trkpt>
      <trkpt lat="48.095437" lon="24.690571">
        <ele>835.5664283101214</ele>
      </trkpt>
      <trkpt lat="48.095265" lon="24.690517">
        <ele>840.2143998194363</ele>
      </trkpt>
      <trkpt lat="48.095143" lon="24.690657">
        <ele>842.6187852854476</ele>
      </trkpt>
      <trkpt lat="48.095057" lon="24.690785">
        <ele>843.7189793568557</ele>
      </trkpt>
      <trkpt lat="48.094878" lon="24.690936">
        <ele>844.0566760248669</ele>
      </trkpt>
      <trkpt lat="48.094771" lon="24.690936">
        <ele>844.6533365496889</ele>
      </trkpt>
      <trkpt lat="48.094656" lon="24.690839">
        <ele>847.7850483110442</ele>
      </trkpt>
      <trkpt lat="48.094527" lon="24.690549">
        <ele>855.6911722925508</ele>
      </trkpt>
      <trkpt lat="48.094405" lon="24.690238">
        <ele>861.3166485335678</ele>
      </trkpt>
      <trkpt lat="48.094305" lon="24.68982">
        <ele>868.1217279997654</ele>
      </trkpt>
      <trkpt lat="48.094284" lon="24.689552">
        <ele>872.8053674669936</ele>
      </trkpt>
      <trkpt lat="48.094284" lon="24.689208">
        <ele>879.0100950234145</ele>
      </trkpt>
      <trkpt lat="48.094327" lon="24.688983">
        <ele>882.1731697849655</ele>
      </trkpt>
      <trkpt lat="48.09419" lon="24.688715">
        <ele>887.077559130516</ele>
      </trkpt>
      <trkpt lat="48.094004" lon="24.6885">
        <ele>890.7483241650662</ele>
      </trkpt>
      <trkpt lat="48.093739" lon="24.688146">
        <ele>896.3141653334023</ele>
      </trkpt>
      <trkpt lat="48.093581" lon="24.687803">
        <ele>901.8094648889964</ele>
      </trkpt>
      <trkpt lat="48.093488" lon="24.68761">
        <ele>904.4961848887615</ele>
      </trkpt>
      <trkpt lat="48.093252" lon="24.687234">
        <ele>908.2269168125013</ele>
      </trkpt>
      <trkpt lat="48.0929" lon="24.686794">
        <ele>911.6263748037234</ele>
      </trkpt>
      <trkpt lat="48.092284" lon="24.686183">
        <ele>918.4024248888018</ele>
      </trkpt>
      <trkpt lat="48.091768" lon="24.685657">
        <ele>927.5704741321144</ele>
      </trkpt>
      <trkpt lat="48.091087" lon="24.685099">
        <ele>941.5029105776921</ele>
      </trkpt>
      <trkpt lat="48.090636" lon="24.684659">
        <ele>949.0669223022414</ele>
      </trkpt>
      <trkpt lat="48.09027" lon="24.684348">
        <ele>951.598885951013</ele>
      </trkpt>
      <trkpt lat="48.089984" lon="24.68408">
        <ele>953.249617692316</ele>
      </trkpt>
      <trkpt lat="48.089611" lon="24.683629">
        <ele>956.1588766661007</ele>
      </trkpt>
      <trkpt lat="48.089267" lon="24.683222">
        <ele>958.9912124179536</ele>
      </trkpt>
      <trkpt lat="48.088701" lon="24.682567">
        <ele>967.57261577788</ele>
      </trkpt>
      <trkpt lat="48.088536" lon="24.682374">
        <ele>971.6395351190079</ele>
      </trkpt>
      <trkpt lat="48.088149" lon="24.681687">
        <ele>984.5298122487919</ele>
      </trkpt>
      <trkpt lat="48.087963" lon="24.681344">
        <ele>991.1288638012485</ele>
      </trkpt>
      <trkpt lat="48.087762" lon="24.681162">
        <ele>994.0416072837735</ele>
      </trkpt>
      <trkpt lat="48.087583" lon="24.680969">
        <ele>996.0216369001428</ele>
      </trkpt>
      <trkpt lat="48.08744" lon="24.6807">
        <ele>999.1981408833526</ele>
      </trkpt>
      <trkpt lat="48.087357" lon="24.680191">
        <ele>1005.1748052435458</ele>
      </trkpt>
      <trkpt lat="48.087203" lon="24.679938">
        <ele>1007.4110976000084</ele>
      </trkpt>
      <trkpt lat="48.086981" lon="24.679552">
        <ele>1010.3737139017128</ele>
      </trkpt>
      <trkpt lat="48.086752" lon="24.678608">
        <ele>1019.1360116783762</ele>
      </trkpt>
      <trkpt lat="48.086673" lon="24.678276">
        <ele>1023.0031322493508</ele>
      </trkpt>
      <trkpt lat="48.086508" lon="24.677868">
        <ele>1029.997259024906</ele>
      </trkpt>
      <trkpt lat="48.086257" lon="24.677412">
        <ele>1041.9143287659604</ele>
      </trkpt>
      <trkpt lat="48.086042" lon="24.67731">
        <ele>1047.2517589979107</ele>
      </trkpt>
      <trkpt lat="48.085866" lon="24.677021">
        <ele>1054.5302411785815</ele>
      </trkpt>
      <trkpt lat="48.085698" lon="24.676886">
        <ele>1059.2692029518337</ele>
      </trkpt>
      <trkpt lat="48.08553" lon="24.676758">
        <ele>1063.7130297597594</ele>
      </trkpt>
      <trkpt lat="48.085444" lon="24.676726">
        <ele>1065.5511191526684</ele>
      </trkpt>
      <trkpt lat="48.085347" lon="24.676602">
        <ele>1068.6768431359194</ele>
      </trkpt>
      <trkpt lat="48.085247" lon="24.676452">
        <ele>1071.8684867555276</ele>
      </trkpt>
      <trkpt lat="48.085125" lon="24.676108">
        <ele>1077.019346346085</ele>
      </trkpt>
      <trkpt lat="48.084981" lon="24.675711">
        <ele>1081.5775711712777</ele>
      </trkpt>
      <trkpt lat="48.084852" lon="24.675304">
        <ele>1085.9036074667238</ele>
      </trkpt>
      <trkpt lat="48.084702" lon="24.674789">
        <ele>1089.1870453784938</ele>
      </trkpt>
      <trkpt lat="48.084637" lon="24.674402">
        <ele>1090.2444461373186</ele>
      </trkpt>
      <trkpt lat="48.084501" lon="24.673963">
        <ele>1092.120468042576</ele>
      </trkpt>
      <trkpt lat="48.084372" lon="24.673544">
        <ele>1096.995040764961</ele>
      </trkpt>
      <trkpt lat="48.084171" lon="24.673083">
        <ele>1105.5692276025027</ele>
      </trkpt>
      <trkpt lat="48.084014" lon="24.672503">
        <ele>1115.2873936299045</ele>
      </trkpt>
      <trkpt lat="48.083878" lon="24.672139">
        <ele>1121.3274287127235</ele>
      </trkpt>
      <trkpt lat="48.083741" lon="24.671774">
        <ele>1126.7207291184213</ele>
      </trkpt>
      <trkpt lat="48.083695" lon="24.671538">
        <ele>1129.7616820080696</ele>
      </trkpt>
      <trkpt lat="48.083691" lon="24.671291">
        <ele>1132.2013839226604</ele>
      </trkpt>
      <trkpt lat="48.083562" lon="24.671034">
        <ele>1136.7923779313467</ele>
      </trkpt>
      <trkpt lat="48.083061" lon="24.670079">
        <ele>1152.223224281784</ele>
      </trkpt>
      <trkpt lat="48.082946" lon="24.669768">
        <ele>1157.2645666374365</ele>
      </trkpt>
      <trkpt lat="48.082867" lon="24.669467">
        <ele>1162.839595332127</ele>
      </trkpt>
      <trkpt lat="48.082692" lon="24.669162">
        <ele>1170.4530241246102</ele>
      </trkpt>
      <trkpt lat="48.082605" lon="24.668866">
        <ele>1175.0795963962005</ele>
      </trkpt>
      <trkpt lat="48.082466" lon="24.668486">
        <ele>1180.9740329802735</ele>
      </trkpt>
      <trkpt lat="48.082419" lon="24.66811">
        <ele>1183.8015515136383</ele>
      </trkpt>
      <trkpt lat="48.082326" lon="24.667708">
        <ele>1187.495926446165</ele>
      </trkpt>
      <trkpt lat="48.08224" lon="24.667182">
        <ele>1193.1524663177552</ele>
      </trkpt>
      <trkpt lat="48.082311" lon="24.666866">
        <ele>1195.5221258358797</ele>
      </trkpt>
      <trkpt lat="48.082329" lon="24.666554">
        <ele>1199.140990270069</ele>
      </trkpt>
      <trkpt lat="48.082322" lon="24.666168">
        <ele>1202.2427335333743</ele>
      </trkpt>
      <trkpt lat="48.082344" lon="24.665991">
        <ele>1203.3087015599012</ele>
      </trkpt>
      <trkpt lat="48.082369" lon="24.665733">
        <ele>1205.5042508154268</ele>
      </trkpt>
      <trkpt lat="48.082405" lon="24.665546">
        <ele>1207.1180769093335</ele>
      </trkpt>
      <trkpt lat="48.082566" lon="24.665165">
        <ele>1208.6241822633754</ele>
      </trkpt>
      <trkpt lat="48.082573" lon="24.665176">
        <ele>1208.318877015676</ele>
      </trkpt>
      <trkpt lat="48.082488" lon="24.664875">
        <ele>1213.7658290272811</ele>
      </trkpt>
      <trkpt lat="48.082498" lon="24.664688">
        <ele>1215.908642607386</ele>
      </trkpt>
      <trkpt lat="48.082437" lon="24.664532">
        <ele>1219.0301599048544</ele>
      </trkpt>
      <trkpt lat="48.082498" lon="24.66435">
        <ele>1219.3984642187133</ele>
      </trkpt>
      <trkpt lat="48.082497" lon="24.664194">
        <ele>1221.7266124886587</ele>
      </trkpt>
      <trkpt lat="48.082584" lon="24.663894">
        <ele>1225.5400893854685</ele>
      </trkpt>
      <trkpt lat="48.082594" lon="24.663631">
        <ele>1230.8525392493466</ele>
      </trkpt>
      <trkpt lat="48.082544" lon="24.663502">
        <ele>1234.9831564867636</ele>
      </trkpt>
      <trkpt lat="48.082709" lon="24.663234">
        <ele>1242.4723444638098</ele>
      </trkpt>
      <trkpt lat="48.082957" lon="24.663126">
        <ele>1249.7625723110978</ele>
      </trkpt>
      <trkpt lat="48.083283" lon="24.662939">
        <ele>1260.2120153563046</ele>
      </trkpt>
      <trkpt lat="48.08334" lon="24.662869">
        <ele>1261.9847673115028</ele>
      </trkpt>
      <trkpt lat="48.083419" lon="24.66281">
        <ele>1262.482563053307</ele>
      </trkpt>
      <trkpt lat="48.08348" lon="24.662784">
        <ele>1262.1010100737346</ele>
      </trkpt>
      <trkpt lat="48.08353" lon="24.662745">
        <ele>1262.5179500888707</ele>
      </trkpt>
      <trkpt lat="48.083627" lon="24.662697">
        <ele>1262.6245569597636</ele>
      </trkpt>
      <trkpt lat="48.083674" lon="24.662665">
        <ele>1263.0894241251244</ele>
      </trkpt>
      <trkpt lat="48.083763" lon="24.662649">
        <ele>1263.1942065804285</ele>
      </trkpt>
      <trkpt lat="48.083799" lon="24.662623">
        <ele>1263.7695847145335</ele>
      </trkpt>
      <trkpt lat="48.083839" lon="24.662595">
        <ele>1264.503491629604</ele>
      </trkpt>
      <trkpt lat="48.083917" lon="24.662585">
        <ele>1265.0435299132296</ele>
      </trkpt>
      <trkpt lat="48.083942" lon="24.662536">
        <ele>1265.9671331224476</ele>
      </trkpt>
      <trkpt lat="48.083967" lon="24.662509">
        <ele>1266.4256134356287</ele>
      </trkpt>
      <trkpt lat="48.084013" lon="24.662456">
        <ele>1267.1336879513894</ele>
      </trkpt>
      <trkpt lat="48.084064" lon="24.662408">
        <ele>1267.6094321487667</ele>
      </trkpt>
      <trkpt lat="48.084114" lon="24.662317">
        <ele>1268.3126905623524</ele>
      </trkpt>
      <trkpt lat="48.084175" lon="24.662199">
        <ele>1268.6568180371723</ele>
      </trkpt>
      <trkpt lat="48.084214" lon="24.662037">
        <ele>1268.9789553817045</ele>
      </trkpt>
      <trkpt lat="48.084239" lon="24.661936">
        <ele>1269.0662437111066</ele>
      </trkpt>
      <trkpt lat="48.084261" lon="24.661855">
        <ele>1269.0577916688735</ele>
      </trkpt>
      <trkpt lat="48.084287" lon="24.661801">
        <ele>1268.7795787279333</ele>
      </trkpt>
      <trkpt lat="48.084318" lon="24.661694">
        <ele>1268.598844728697</ele>
      </trkpt>
      <trkpt lat="48.084344" lon="24.661597">
        <ele>1268.4406219682473</ele>
      </trkpt>
      <trkpt lat="48.084372" lon="24.661469">
        <ele>1267.9014280338768</ele>
      </trkpt>
      <trkpt lat="48.084437" lon="24.661249">
        <ele>1266.2344667628386</ele>
      </trkpt>
      <trkpt lat="48.084458" lon="24.660991">
        <ele>1266.0352900941666</ele>
      </trkpt>
      <trkpt lat="48.084465" lon="24.660519">
        <ele>1268.7139499431942</ele>
      </trkpt>
      <trkpt lat="48.084411" lon="24.65994">
        <ele>1271.7882998579794</ele>
      </trkpt>
      <trkpt lat="48.084315" lon="24.659436">
        <ele>1272.6878957469207</ele>
      </trkpt>
      <trkpt lat="48.084157" lon="24.658884">
        <ele>1276.4183307722915</ele>
      </trkpt>
      <trkpt lat="48.084118" lon="24.658449">
        <ele>1278.2827697387547</ele>
      </trkpt>
      <trkpt lat="48.084114" lon="24.658165">
        <ele>1281.8948810620711</ele>
      </trkpt>
      <trkpt lat="48.084121" lon="24.657773">
        <ele>1288.0925845685433</ele>
      </trkpt>
      <trkpt lat="48.08414" lon="24.657467">
        <ele>1292.566517774612</ele>
      </trkpt>
      <trkpt lat="48.084157" lon="24.656888">
        <ele>1300.7193437286187</ele>
      </trkpt>
      <trkpt lat="48.084057" lon="24.65648">
        <ele>1302.7165135510731</ele>
      </trkpt>
      <trkpt lat="48.08401" lon="24.656287">
        <ele>1302.3485696797725</ele>
      </trkpt>
      <trkpt lat="48.083853" lon="24.655858">
        <ele>1302.7728587203292</ele>
      </trkpt>
      <trkpt lat="48.08381" lon="24.655681">
        <ele>1303.3778255641691</ele>
      </trkpt>
      <trkpt lat="48.083781" lon="24.655514">
        <ele>1303.9004744094564</ele>
      </trkpt>
      <trkpt lat="48.083666" lon="24.655192">
        <ele>1309.711119399877</ele>
      </trkpt>
      <trkpt lat="48.083577" lon="24.655037">
        <ele>1314.8832556963162</ele>
      </trkpt>
      <trkpt lat="48.083512" lon="24.654801">
        <ele>1319.3720461941166</ele>
      </trkpt>
      <trkpt lat="48.083473" lon="24.654613">
        <ele>1322.2531941225388</ele>
      </trkpt>
      <trkpt lat="48.083415" lon="24.654441">
        <ele>1325.6769875379825</ele>
      </trkpt>
      <trkpt lat="48.083283" lon="24.654034">
        <ele>1333.09658051086</ele>
      </trkpt>
      <trkpt lat="48.083182" lon="24.653996">
        <ele>1338.504457790445</ele>
      </trkpt>
      <trkpt lat="48.083121" lon="24.653798">
        <ele>1341.1905429150393</ele>
      </trkpt>
      <trkpt lat="48.083082" lon="24.653717">
        <ele>1342.9354678541997</ele>
      </trkpt>
      <trkpt lat="48.083021" lon="24.653685">
        <ele>1345.5931781893953</ele>
      </trkpt>
      <trkpt lat="48.083028" lon="24.653395">
        <ele>1345.6980791312812</ele>
      </trkpt>
      <trkpt lat="48.082935" lon="24.653122">
        <ele>1351.021200478077</ele>
      </trkpt>
      <trkpt lat="48.082957" lon="24.652902">
        <ele>1350.510958752595</ele>
      </trkpt>
      <trkpt lat="48.082949" lon="24.652441">
        <ele>1352.5114301228057</ele>
      </trkpt>
      <trkpt lat="48.08301" lon="24.652151">
        <ele>1349.4273857976182</ele>
      </trkpt>
      <trkpt lat="48.083" lon="24.652011">
        <ele>1350.0880088938866</ele>
      </trkpt>
      <trkpt lat="48.082971" lon="24.651974">
        <ele>1351.731727542705</ele>
      </trkpt>
      <trkpt lat="48.082921" lon="24.651867">
        <ele>1354.5657230387442</ele>
      </trkpt>
      <trkpt lat="48.082899" lon="24.65169">
        <ele>1355.5640508502838</ele>
      </trkpt>
      <trkpt lat="48.082874" lon="24.651416">
        <ele>1356.1929672982778</ele>
      </trkpt>
      <trkpt lat="48.082903" lon="24.651271">
        <ele>1353.17682374797</ele>
      </trkpt>
      <trkpt lat="48.082892" lon="24.651164">
        <ele>1352.890469394429</ele>
      </trkpt>
      <trkpt lat="48.082856" lon="24.651014">
        <ele>1353.7701171655208</ele>
      </trkpt>
      <trkpt lat="48.082803" lon="24.650885">
        <ele>1355.709179516578</ele>
      </trkpt>
      <trkpt lat="48.082702" lon="24.650466">
        <ele>1356.0072357835757</ele>
      </trkpt>
      <trkpt lat="48.082702" lon="24.650311">
        <ele>1353.8077940847725</ele>
      </trkpt>
      <trkpt lat="48.082605" lon="24.650166">
        <ele>1356.316056625743</ele>
      </trkpt>
      <trkpt lat="48.082577" lon="24.650075">
        <ele>1356.068584955996</ele>
      </trkpt>
      <trkpt lat="48.082552" lon="24.649935">
        <ele>1354.461539438892</ele>
      </trkpt>
      <trkpt lat="48.082519" lon="24.649828">
        <ele>1353.6701165684196</ele>
      </trkpt>
      <trkpt lat="48.082405" lon="24.649624">
        <ele>1353.6244115351</ele>
      </trkpt>
      <trkpt lat="48.082308" lon="24.649587">
        <ele>1356.521849308605</ele>
      </trkpt>
      <trkpt lat="48.082104" lon="24.649276">
        <ele>1356.5948169736657</ele>
      </trkpt>
      <trkpt lat="48.082075" lon="24.649136">
        <ele>1353.906949880352</ele>
      </trkpt>
      <trkpt lat="48.081727" lon="24.648921">
        <ele>1360.8151338070165</ele>
      </trkpt>
      <trkpt lat="48.081699" lon="24.648911">
        <ele>1361.7446314946283</ele>
      </trkpt>
      <trkpt lat="48.081631" lon="24.648948">
        <ele>1365.7936387245852</ele>
      </trkpt>
      <trkpt lat="48.081487" lon="24.648916">
        <ele>1371.6035100808367</ele>
      </trkpt>
      <trkpt lat="48.081387" lon="24.648852">
        <ele>1374.7067367031705</ele>
      </trkpt>
      <trkpt lat="48.081279" lon="24.648771">
        <ele>1377.526950055384</ele>
      </trkpt>
      <trkpt lat="48.081222" lon="24.648669">
        <ele>1377.2896102750674</ele>
      </trkpt>
      <trkpt lat="48.08114" lon="24.648632">
        <ele>1380.0963185101973</ele>
      </trkpt>
      <trkpt lat="48.081082" lon="24.648589">
        <ele>1381.444596485983</ele>
      </trkpt>
      <trkpt lat="48.081011" lon="24.648444">
        <ele>1379.9348055761075</ele>
      </trkpt>
      <trkpt lat="48.080953" lon="24.648476">
        <ele>1383.4887793201488</ele>
      </trkpt>
      <trkpt lat="48.080928" lon="24.648471">
        <ele>1384.4975006213645</ele>
      </trkpt>
      <trkpt lat="48.080788" lon="24.648208">
        <ele>1382.986494701472</ele>
      </trkpt>
      <trkpt lat="48.080735" lon="24.648197">
        <ele>1384.9767946789507</ele>
      </trkpt>
      <trkpt lat="48.080616" lon="24.648063">
        <ele>1386.2999736568997</ele>
      </trkpt>
      <trkpt lat="48.080613" lon="24.648004">
        <ele>1384.72047240044</ele>
      </trkpt>
      <trkpt lat="48.080455" lon="24.647951">
        <ele>1388.9207162125533</ele>
      </trkpt>
      <trkpt lat="48.080391" lon="24.647972">
        <ele>1392.2008088924986</ele>
      </trkpt>
      <trkpt lat="48.080269" lon="24.647859">
        <ele>1392.3674622020917</ele>
      </trkpt>
      <trkpt lat="48.080211" lon="24.647763">
        <ele>1390.4470572727523</ele>
      </trkpt>
      <trkpt lat="48.080086" lon="24.64779">
        <ele>1395.6803739597758</ele>
      </trkpt>
      <trkpt lat="48.079978" lon="24.647768">
        <ele>1398.0572837684158</ele>
      </trkpt>
      <trkpt lat="48.07991" lon="24.647768">
        <ele>1400.0309491594624</ele>
      </trkpt>
      <trkpt lat="48.079814" lon="24.647779">
        <ele>1403.2553302365702</ele>
      </trkpt>
      <trkpt lat="48.079724" lon="24.6478">
        <ele>1407.425178238016</ele>
      </trkpt>
      <trkpt lat="48.079681" lon="24.64772">
        <ele>1406.1085017387577</ele>
      </trkpt>
      <trkpt lat="48.079609" lon="24.647672">
        <ele>1407.7180286275716</ele>
      </trkpt>
      <trkpt lat="48.079545" lon="24.647607">
        <ele>1408.5316578187048</ele>
      </trkpt>
      <trkpt lat="48.079459" lon="24.647564">
        <ele>1410.9032884801272</ele>
      </trkpt>
      <trkpt lat="48.079272" lon="24.647495">
        <ele>1416.5464466073897</ele>
      </trkpt>
      <trkpt lat="48.079186" lon="24.647516">
        <ele>1420.42002765066</ele>
      </trkpt>
      <trkpt lat="48.079039" lon="24.647511">
        <ele>1425.3867983142843</ele>
      </trkpt>
      <trkpt lat="48.078925" lon="24.647377">
        <ele>1423.824128383305</ele>
      </trkpt>
      <trkpt lat="48.078706" lon="24.647189">
        <ele>1423.2003133262042</ele>
      </trkpt>
      <trkpt lat="48.078624" lon="24.647119">
        <ele>1423.3623451377498</ele>
      </trkpt>
      <trkpt lat="48.078541" lon="24.647146">
        <ele>1427.5631626540928</ele>
      </trkpt>
      <trkpt lat="48.078491" lon="24.647103">
        <ele>1428.2696508101758</ele>
      </trkpt>
      <trkpt lat="48.07847" lon="24.647044">
        <ele>1427.2444152317119</ele>
      </trkpt>
      <trkpt lat="48.078333" lon="24.646963">
        <ele>1431.1464446403552</ele>
      </trkpt>
      <trkpt lat="48.078186" lon="24.646894">
        <ele>1436.2049099077476</ele>
      </trkpt>
      <trkpt lat="48.07809" lon="24.646867">
        <ele>1440.1871908193489</ele>
      </trkpt>
      <trkpt lat="48.078043" lon="24.646781">
        <ele>1439.8943306821084</ele>
      </trkpt>
      <trkpt lat="48.07785" lon="24.646609">
        <ele>1444.496000064537</ele>
      </trkpt>
      <trkpt lat="48.077785" lon="24.646545">
        <ele>1445.7508538244292</ele>
      </trkpt>
      <trkpt lat="48.077767" lon="24.64647">
        <ele>1444.4295123649063</ele>
      </trkpt>
      <trkpt lat="48.077742" lon="24.646454">
        <ele>1445.1623556901468</ele>
      </trkpt>
      <trkpt lat="48.077695" lon="24.646491">
        <ele>1448.3201197978342</ele>
      </trkpt>
      <trkpt lat="48.077645" lon="24.646443">
        <ele>1449.1265726512274</ele>
      </trkpt>
      <trkpt lat="48.077624" lon="24.646384">
        <ele>1448.4954963426196</ele>
      </trkpt>
      <trkpt lat="48.077617" lon="24.646261">
        <ele>1445.5830671058502</ele>
      </trkpt>
      <trkpt lat="48.07757" lon="24.646137">
        <ele>1444.381465051556</ele>
      </trkpt>
      <trkpt lat="48.077552" lon="24.6461">
        <ele>1444.2144902011487</ele>
      </trkpt>
      <trkpt lat="48.077534" lon="24.646089">
        <ele>1444.7397393749263</ele>
      </trkpt>
      <trkpt lat="48.077505" lon="24.646068">
        <ele>1445.5302602152806</ele>
      </trkpt>
      <trkpt lat="48.077509" lon="24.646003">
        <ele>1443.831685233471</ele>
      </trkpt>
      <trkpt lat="48.077462" lon="24.645934">
        <ele>1444.3108208412305</ele>
      </trkpt>
      <trkpt lat="48.07743" lon="24.645912">
        <ele>1445.3213916013483</ele>
      </trkpt>
      <trkpt lat="48.077423" lon="24.645826">
        <ele>1444.1235994386952</ele>
      </trkpt>
      <trkpt lat="48.077387" lon="24.645708">
        <ele>1443.986612786192</ele>
      </trkpt>
      <trkpt lat="48.077355" lon="24.645638">
        <ele>1444.593843704751</ele>
      </trkpt>
      <trkpt lat="48.077312" lon="24.645579">
        <ele>1445.9323222621283</ele>
      </trkpt>
      <trkpt lat="48.077294" lon="24.645537">
        <ele>1446.629257380951</ele>
      </trkpt>
      <trkpt lat="48.07728" lon="24.645478">
        <ele>1447.0227836080858</ele>
      </trkpt>
      <trkpt lat="48.077265" lon="24.645451">
        <ele>1447.5300794212346</ele>
      </trkpt>
      <trkpt lat="48.077307" lon="24.645405">
        <ele>1446.3916431390387</ele>
      </trkpt>
      <trkpt lat="48.077344" lon="24.64544">
        <ele>1444.8917492961048</ele>
      </trkpt>
      <trkpt lat="48.077439" lon="24.645419">
        <ele>1442.7996077467794</ele>
      </trkpt>
      <trkpt lat="48.07752" lon="24.645376">
        <ele>1442.7989904081132</ele>
      </trkpt>
      <trkpt lat="48.077588" lon="24.645335">
        <ele>1443.0954430469758</ele>
      </trkpt>
      <trkpt lat="48.077604" lon="24.645301">
        <ele>1444.0269653036087</ele>
      </trkpt>
      <trkpt lat="48.077715" lon="24.645268">
        <ele>1444.084012003442</ele>
      </trkpt>
      <trkpt lat="48.077778" lon="24.645191">
        <ele>1446.4326946191723</ele>
      </trkpt>
      <trkpt lat="48.077862" lon="24.645099">
        <ele>1449.1398770787055</ele>
      </trkpt>
      <trkpt lat="48.077957" lon="24.645027">
        <ele>1451.2475722942036</ele>
      </trkpt>
      <trkpt lat="48.078038" lon="24.644984">
        <ele>1451.973269854323</ele>
      </trkpt>
      <trkpt lat="48.078147" lon="24.644955">
        <ele>1452.1066154727446</ele>
      </trkpt>
      <trkpt lat="48.078219" lon="24.644861">
        <ele>1455.3428807193413</ele>
      </trkpt>
      <trkpt lat="48.078531" lon="24.644842">
        <ele>1455.533375288127</ele>
      </trkpt>
      <trkpt lat="48.078683" lon="24.644686">
        <ele>1459.7016556418125</ele>
      </trkpt>
      <trkpt lat="48.078835" lon="24.644466">
        <ele>1462.371976350617</ele>
      </trkpt>
      <trkpt lat="48.078873" lon="24.644364">
        <ele>1463.3775963360677</ele>
      </trkpt>
      <trkpt lat="48.078979" lon="24.644252">
        <ele>1462.426299787243</ele>
      </trkpt>
      <trkpt lat="48.079004" lon="24.644153">
        <ele>1463.6818684503087</ele>
      </trkpt>
      <trkpt lat="48.079045" lon="24.644107">
        <ele>1463.3685388016747</ele>
      </trkpt>
      <trkpt lat="48.079032" lon="24.644083">
        <ele>1464.2546035015257</ele>
      </trkpt>
      <trkpt lat="48.079082" lon="24.643975">
        <ele>1464.7664877761504</ele>
      </trkpt>
      <trkpt lat="48.0791" lon="24.64393">
        <ele>1464.9817769238118</ele>
      </trkpt>
      <trkpt lat="48.079183" lon="24.643916">
        <ele>1462.6593484653274</ele>
      </trkpt>
      <trkpt lat="48.079278" lon="24.643801">
        <ele>1461.8936773744226</ele>
      </trkpt>
      <trkpt lat="48.079321" lon="24.643705">
        <ele>1462.2204790713731</ele>
      </trkpt>
      <trkpt lat="48.079355" lon="24.643597">
        <ele>1462.9446598020827</ele>
      </trkpt>
      <trkpt lat="48.079446" lon="24.643447">
        <ele>1462.1115577075398</ele>
      </trkpt>
      <trkpt lat="48.079461" lon="24.643369">
        <ele>1462.7243513913124</ele>
      </trkpt>
      <trkpt lat="48.079471" lon="24.643326">
        <ele>1462.7807182963006</ele>
      </trkpt>
      <trkpt lat="48.079538" lon="24.643192">
        <ele>1461.614828215097</ele>
      </trkpt>
      <trkpt lat="48.079661" lon="24.642857">
        <ele>1460.2521487859774</ele>
      </trkpt>
      <trkpt lat="48.079676" lon="24.64276">
        <ele>1460.3174423286691</ele>
      </trkpt>
      <trkpt lat="48.079737" lon="24.642543">
        <ele>1460.6437740086624</ele>
      </trkpt>
      <trkpt lat="48.079789" lon="24.642506">
        <ele>1459.7634149978567</ele>
      </trkpt>
      <trkpt lat="48.079796" lon="24.642463">
        <ele>1460.4478068246933</ele>
      </trkpt>
      <trkpt lat="48.079864" lon="24.64238">
        <ele>1461.1394349538905</ele>
      </trkpt>
      <trkpt lat="48.079918" lon="24.642286">
        <ele>1462.7451592864677</ele>
      </trkpt>
      <trkpt lat="48.07993" lon="24.642213">
        <ele>1464.6508750825867</ele>
      </trkpt>
      <trkpt lat="48.080063" lon="24.642034">
        <ele>1469.3260859361858</ele>
      </trkpt>
      <trkpt lat="48.080004" lon="24.641873">
        <ele>1473.6918328185566</ele>
      </trkpt>
      <trkpt lat="48.079986" lon="24.641706">
        <ele>1477.81897592498</ele>
      </trkpt>
      <trkpt lat="48.080023" lon="24.641489">
        <ele>1482.7141318946376</ele>
      </trkpt>
      <trkpt lat="48.080054" lon="24.641441">
        <ele>1484.019632873591</ele>
      </trkpt>
      <trkpt lat="48.080045" lon="24.641186">
        <ele>1491.008813989698</ele>
      </trkpt>
      <trkpt lat="48.080093" lon="24.641079">
        <ele>1494.3346828412032</ele>
      </trkpt>
      <trkpt lat="48.080084" lon="24.640888">
        <ele>1500.0704580615275</ele>
      </trkpt>
      <trkpt lat="48.080122" lon="24.640794">
        <ele>1503.2478719302453</ele>
      </trkpt>
      <trkpt lat="48.080213" lon="24.64051">
        <ele>1511.2322138264067</ele>
      </trkpt>
      <trkpt lat="48.080303" lon="24.640435">
        <ele>1513.673062286689</ele>
      </trkpt>
      <trkpt lat="48.080353" lon="24.640336">
        <ele>1516.7042650049552</ele>
      </trkpt>
      <trkpt lat="48.080401" lon="24.640223">
        <ele>1519.9730453241987</ele>
      </trkpt>
      <trkpt lat="48.08041" lon="24.640159">
        <ele>1521.6151414650155</ele>
      </trkpt>
      <trkpt lat="48.080502" lon="24.64007">
        <ele>1524.9459361524205</ele>
      </trkpt>
      <trkpt lat="48.080529" lon="24.639998">
        <ele>1526.9768005054211</ele>
      </trkpt>
      <trkpt lat="48.080616" lon="24.63995">
        <ele>1529.2331872587092</ele>
      </trkpt>
      <trkpt lat="48.080706" lon="24.639815">
        <ele>1533.5560610984685</ele>
      </trkpt>
      <trkpt lat="48.08074" lon="24.639679">
        <ele>1537.5043836683035</ele>
      </trkpt>
      <trkpt lat="48.080772" lon="24.639601">
        <ele>1540.107162223314</ele>
      </trkpt>
      <trkpt lat="48.080818" lon="24.639586">
        <ele>1541.2989770456702</ele>
      </trkpt>
      <trkpt lat="48.080903" lon="24.639346">
        <ele>1548.2643371121958</ele>
      </trkpt>
      <trkpt lat="48.080873" lon="24.639164">
        <ele>1552.1764768118155</ele>
      </trkpt>
      <trkpt lat="48.080912" lon="24.639048">
        <ele>1554.9805738600553</ele>
      </trkpt>
      <trkpt lat="48.080977" lon="24.638836">
        <ele>1559.5357079625828</ele>
      </trkpt>
      <trkpt lat="48.080989" lon="24.638713">
        <ele>1561.795361101278</ele>
      </trkpt>
      <trkpt lat="48.08114" lon="24.638421">
        <ele>1568.2167261896511</ele>
      </trkpt>
      <trkpt lat="48.081158" lon="24.63827">
        <ele>1570.5850489858083</ele>
      </trkpt>
      <trkpt lat="48.081075" lon="24.638037">
        <ele>1574.5472226431311</ele>
      </trkpt>
      <trkpt lat="48.081007" lon="24.637975">
        <ele>1576.436468305654</ele>
      </trkpt>
      <trkpt lat="48.080998" lon="24.637903">
        <ele>1578.113199713885</ele>
      </trkpt>
      <trkpt lat="48.080968" lon="24.637675">
        <ele>1582.5516802904644</ele>
      </trkpt>
      <trkpt lat="48.080883" lon="24.637458">
        <ele>1586.5052939094603</ele>
      </trkpt>
      <trkpt lat="48.080771" lon="24.637324">
        <ele>1589.6245595091655</ele>
      </trkpt>
      <trkpt lat="48.080724" lon="24.637329">
        <ele>1590.8151388892193</ele>
      </trkpt>
      <trkpt lat="48.080622" lon="24.637399">
        <ele>1593.1228240962796</ele>
      </trkpt>
      <trkpt lat="48.080607" lon="24.637415">
        <ele>1593.3609469510031</ele>
      </trkpt>
      <trkpt lat="48.08059" lon="24.63742">
        <ele>1593.6822858781711</ele>
      </trkpt>
      <trkpt lat="48.080564" lon="24.637409">
        <ele>1594.3134205580427</ele>
      </trkpt>
      <trkpt lat="48.080525" lon="24.637439">
        <ele>1594.7900306262823</ele>
      </trkpt>
      <trkpt lat="48.080498" lon="24.637442">
        <ele>1595.28740867953</ele>
      </trkpt>
      <trkpt lat="48.080383" lon="24.637324">
        <ele>1598.95222246882</ele>
      </trkpt>
      <trkpt lat="48.080172" lon="24.637318">
        <ele>1602.1479288717335</ele>
      </trkpt>
      <trkpt lat="48.080068" lon="24.637147">
        <ele>1605.735433686837</ele>
      </trkpt>
      <trkpt lat="48.079875" lon="24.636996">
        <ele>1610.1955449749516</ele>
      </trkpt>
      <trkpt lat="48.079817" lon="24.636865">
        <ele>1611.5538364377708</ele>
      </trkpt>
      <trkpt lat="48.079719" lon="24.636835">
        <ele>1613.6818261387525</ele>
      </trkpt>
      <trkpt lat="48.079645" lon="24.636798">
        <ele>1614.7343345382462</ele>
      </trkpt>
      <trkpt lat="48.079634" lon="24.636801">
        <ele>1614.9692235218743</ele>
      </trkpt>
      <trkpt lat="48.079624" lon="24.636787">
        <ele>1615.0121523652858</ele>
      </trkpt>
      <trkpt lat="48.079559" lon="24.636932">
        <ele>1615.89318607701</ele>
      </trkpt>
      <trkpt lat="48.079513" lon="24.636986">
        <ele>1616.223512424971</ele>
      </trkpt>
      <trkpt lat="48.079484" lon="24.63701">
        <ele>1616.5195225280477</ele>
      </trkpt>
      <trkpt lat="48.079428" lon="24.637039">
        <ele>1617.0523304886883</ele>
      </trkpt>
      <trkpt lat="48.079349" lon="24.63705">
        <ele>1618.5501299015596</ele>
      </trkpt>
      <trkpt lat="48.07929" lon="24.637042">
        <ele>1619.7791095728755</ele>
      </trkpt>
      <trkpt lat="48.079224" lon="24.637023">
        <ele>1621.3174557820896</ele>
      </trkpt>
      <trkpt lat="48.079038" lon="24.637026">
        <ele>1624.181006220402</ele>
      </trkpt>
      <trkpt lat="48.078948" lon="24.636884">
        <ele>1628.4114580446967</ele>
      </trkpt>
      <trkpt lat="48.078896" lon="24.636787">
        <ele>1631.1534605195202</ele>
      </trkpt>
      <trkpt lat="48.078848" lon="24.636693">
        <ele>1633.7989576003918</ele>
      </trkpt>
      <trkpt lat="48.078755" lon="24.636632">
        <ele>1636.7190194485295</ele>
      </trkpt>
      <trkpt lat="48.078669" lon="24.636575">
        <ele>1639.7040385491932</ele>
      </trkpt>
      <trkpt lat="48.078618" lon="24.636581">
        <ele>1640.940253624576</ele>
      </trkpt>
      <trkpt lat="48.078547" lon="24.63654">
        <ele>1643.5139800679171</ele>
      </trkpt>
      <trkpt lat="48.078488" lon="24.636554">
        <ele>1644.6699775598613</ele>
      </trkpt>
      <trkpt lat="48.078373" lon="24.636532">
        <ele>1647.611990921635</ele>
      </trkpt>
      <trkpt lat="48.078305" lon="24.636495">
        <ele>1649.6088678607484</ele>
      </trkpt>
      <trkpt lat="48.078208" lon="24.636428">
        <ele>1652.6664524795488</ele>
      </trkpt>
      <trkpt lat="48.077875" lon="24.636184">
        <ele>1661.7329581803642</ele>
      </trkpt>
      <trkpt lat="48.077706" lon="24.636213">
        <ele>1662.9381724861687</ele>
      </trkpt>
      <trkpt lat="48.077624" lon="24.636165">
        <ele>1664.339535776212</ele>
      </trkpt>
      <trkpt lat="48.077566" lon="24.636111">
        <ele>1665.8220966975205</ele>
      </trkpt>
      <trkpt lat="48.077509" lon="24.636047">
        <ele>1667.3753111452097</ele>
      </trkpt>
      <trkpt lat="48.077468" lon="24.635977">
        <ele>1668.87063452115</ele>
      </trkpt>
      <trkpt lat="48.077409" lon="24.635803">
        <ele>1672.0889047999497</ele>
      </trkpt>
      <trkpt lat="48.077172" lon="24.635535">
        <ele>1682.3629124715737</ele>
      </trkpt>
      <trkpt lat="48.077133" lon="24.635486">
        <ele>1684.1386244262271</ele>
      </trkpt>
      <trkpt lat="48.077117" lon="24.635398">
        <ele>1685.61982893155</ele>
      </trkpt>
      <trkpt lat="48.076964" lon="24.635398">
        <ele>1690.8976607499644</ele>
      </trkpt>
      <trkpt lat="48.076871" lon="24.635355">
        <ele>1694.7673483801773</ele>
      </trkpt>
      <trkpt lat="48.076833" lon="24.635288">
        <ele>1697.045470519457</ele>
      </trkpt>
      <trkpt lat="48.076756" lon="24.635307">
        <ele>1699.4597736017588</ele>
      </trkpt>
      <trkpt lat="48.076439" lon="24.635181">
        <ele>1714.1207231399499</ele>
      </trkpt>
      <trkpt lat="48.076396" lon="24.635143">
        <ele>1716.8932852383505</ele>
      </trkpt>
      <trkpt lat="48.076369" lon="24.635068">
        <ele>1719.676226300313</ele>
      </trkpt>
      <trkpt lat="48.076346" lon="24.634958">
        <ele>1722.9896165309633</ele>
      </trkpt>
      <trkpt lat="48.076316" lon="24.634947">
        <ele>1724.627940004714</ele>
      </trkpt>
      <trkpt lat="48.076228" lon="24.63495">
        <ele>1728.7384538347696</ele>
      </trkpt>
      <trkpt lat="48.076156" lon="24.634896">
        <ele>1733.0712697997155</ele>
      </trkpt>
      <trkpt lat="48.076099" lon="24.634861">
        <ele>1736.5188866512149</ele>
      </trkpt>
      <trkpt lat="48.076061" lon="24.634829">
        <ele>1739.0648652413802</ele>
      </trkpt>
      <trkpt lat="48.07595" lon="24.634805">
        <ele>1744.6394032043481</ele>
      </trkpt>
      <trkpt lat="48.075916" lon="24.63477">
        <ele>1747.006230722528</ele>
      </trkpt>
      <trkpt lat="48.075848" lon="24.634725">
        <ele>1750.8183128401186</ele>
      </trkpt>
      <trkpt lat="48.075794" lon="24.634615">
        <ele>1755.9240730170397</ele>
      </trkpt>
      <trkpt lat="48.075774" lon="24.634548">
        <ele>1757.8613688994383</ele>
      </trkpt>
      <trkpt lat="48.075699" lon="24.634395">
        <ele>1763.6864831521498</ele>
      </trkpt>
      <trkpt lat="48.075593" lon="24.634298">
        <ele>1770.5183205354508</ele>
      </trkpt>
      <trkpt lat="48.075557" lon="24.634301">
        <ele>1772.3198907384763</ele>
      </trkpt>
      <trkpt lat="48.075511" lon="24.634269">
        <ele>1775.0824281871069</ele>
      </trkpt>
      <trkpt lat="48.075475" lon="24.634215">
        <ele>1777.5672981665152</ele>
      </trkpt>
      <trkpt lat="48.075402" lon="24.634054">
        <ele>1783.4718952460225</ele>
      </trkpt>
      <trkpt lat="48.07538" lon="24.634035">
        <ele>1784.8926234877595</ele>
      </trkpt>
      <trkpt lat="48.075351" lon="24.633834">
        <ele>1788.1957038805513</ele>
      </trkpt>
      <trkpt lat="48.07531" lon="24.633732">
        <ele>1790.9642571725046</ele>
      </trkpt>
      <trkpt lat="48.075262" lon="24.633579">
        <ele>1793.4824101092884</ele>
      </trkpt>
      <trkpt lat="48.075113" lon="24.633343">
        <ele>1801.7174508346434</ele>
      </trkpt>
      <trkpt lat="48.075052" lon="24.633263">
        <ele>1805.7612162744626</ele>
      </trkpt>
      <trkpt lat="48.075023" lon="24.633196">
        <ele>1807.526285615141</ele>
      </trkpt>
      <trkpt lat="48.075016" lon="24.633126">
        <ele>1807.6148340258414</ele>
      </trkpt>
      <trkpt lat="48.075054" lon="24.632767">
        <ele>1804.3256679674826</ele>
      </trkpt>
      <trkpt lat="48.075056" lon="24.632694">
        <ele>1804.4550342630127</ele>
      </trkpt>
      <trkpt lat="48.075036" lon="24.632584">
        <ele>1806.1230949546775</ele>
      </trkpt>
      <trkpt lat="48.075034" lon="24.632396">
        <ele>1806.9446361760452</ele>
      </trkpt>
      <trkpt lat="48.075049" lon="24.632281">
        <ele>1806.671823406054</ele>
      </trkpt>
      <trkpt lat="48.075018" lon="24.632201">
        <ele>1807.892846260262</ele>
      </trkpt>
      <trkpt lat="48.074997" lon="24.632179">
        <ele>1808.422335236076</ele>
      </trkpt>
      <trkpt lat="48.074988" lon="24.632158">
        <ele>1808.565394729005</ele>
      </trkpt>
      <trkpt lat="48.074977" lon="24.632158">
        <ele>1808.7698075472774</ele>
      </trkpt>
      <trkpt lat="48.074988" lon="24.632158">
        <ele>1808.565394729005</ele>
      </trkpt>
      <trkpt lat="48.074977" lon="24.632158">
        <ele>1808.7698075472774</ele>
      </trkpt>
      <trkpt lat="48.074932" lon="24.632233">
        <ele>1809.8734828819142</ele>
      </trkpt>
      <trkpt lat="48.074821" lon="24.632329">
        <ele>1812.5825898329888</ele>
      </trkpt>
      <trkpt lat="48.074566" lon="24.632533">
        <ele>1816.9618049764526</ele>
      </trkpt>
      <trkpt lat="48.074362" lon="24.632598">
        <ele>1816.0199078725009</ele>
      </trkpt>
      <trkpt lat="48.074244" lon="24.632732">
        <ele>1818.1494184346711</ele>
      </trkpt>
      <trkpt lat="48.074111" lon="24.632828">
        <ele>1819.336551885228</ele>
      </trkpt>
      <trkpt lat="48.073846" lon="24.632903">
        <ele>1818.44337252446</ele>
      </trkpt>
      <trkpt lat="48.073398" lon="24.63308">
        <ele>1817.3254686936414</ele>
      </trkpt>
      <trkpt lat="48.073197" lon="24.63322">
        <ele>1818.4796939554808</ele>
      </trkpt>
      <trkpt lat="48.073007" lon="24.633279">
        <ele>1817.3803915706794</ele>
      </trkpt>
      <trkpt lat="48.072756" lon="24.633198">
        <ele>1812.7069327435456</ele>
      </trkpt>
      <trkpt lat="48.072459" lon="24.633059">
        <ele>1808.3771996442229</ele>
      </trkpt>
      <trkpt lat="48.072036" lon="24.632785">
        <ele>1803.6491219648158</ele>
      </trkpt>
      <trkpt lat="48.071989" lon="24.632753">
        <ele>1803.2015508078039</ele>
      </trkpt>
      <trkpt lat="48.071441" lon="24.632635">
        <ele>1800.3108400927158</ele>
      </trkpt>
      <trkpt lat="48.071244" lon="24.63264">
        <ele>1799.554060037597</ele>
      </trkpt>
      <trkpt lat="48.07115" lon="24.632608">
        <ele>1798.562070834656</ele>
      </trkpt>
      <trkpt lat="48.071036" lon="24.632549">
        <ele>1796.7919925744645</ele>
      </trkpt>
      <trkpt lat="48.07071" lon="24.632056">
        <ele>1786.8792042669374</ele>
      </trkpt>
      <trkpt lat="48.070584" lon="24.631943">
        <ele>1785.0768166540656</ele>
      </trkpt>
      <trkpt lat="48.070466" lon="24.63182">
        <ele>1783.7061782837438</ele>
      </trkpt>
      <trkpt lat="48.070201" lon="24.631197">
        <ele>1776.9478740770346</ele>
      </trkpt>
      <trkpt lat="48.069874" lon="24.631144">
        <ele>1779.4290144002298</ele>
      </trkpt>
      <trkpt lat="48.069806" lon="24.630859">
        <ele>1777.5483794334577</ele>
      </trkpt>
      <trkpt lat="48.069785" lon="24.630784">
        <ele>1777.2089338889346</ele>
      </trkpt>
      <trkpt lat="48.069602" lon="24.630425">
        <ele>1777.0323126132562</ele>
      </trkpt>
      <trkpt lat="48.069215" lon="24.629819">
        <ele>1776.156572892913</ele>
      </trkpt>
      <trkpt lat="48.068849" lon="24.629416">
        <ele>1773.2120076477295</ele>
      </trkpt>
      <trkpt lat="48.068577" lon="24.629105">
        <ele>1770.1802787021734</ele>
      </trkpt>
      <trkpt lat="48.068405" lon="24.628821">
        <ele>1766.8919491155536</ele>
      </trkpt>
      <trkpt lat="48.068265" lon="24.628639">
        <ele>1763.7566850799988</ele>
      </trkpt>
      <trkpt lat="48.068114" lon="24.628268">
        <ele>1760.18735217962</ele>
      </trkpt>
      <trkpt lat="48.067989" lon="24.627823">
        <ele>1762.0805434286885</ele>
      </trkpt>
      <trkpt lat="48.067824" lon="24.627442">
        <ele>1763.746927914021</ele>
      </trkpt>
      <trkpt lat="48.067698" lon="24.626992">
        <ele>1761.2400257118861</ele>
      </trkpt>
      <trkpt lat="48.067688" lon="24.626842">
        <ele>1761.1457656960702</ele>
      </trkpt>
      <trkpt lat="48.067645" lon="24.626557">
        <ele>1761.9309397935644</ele>
      </trkpt>
      <trkpt lat="48.067605" lon="24.626144">
        <ele>1766.0462979400334</ele>
      </trkpt>
      <trkpt lat="48.067537" lon="24.625779">
        <ele>1770.8508066167763</ele>
      </trkpt>
      <trkpt lat="48.067465" lon="24.625576">
        <ele>1774.331417931063</ele>
      </trkpt>
      <trkpt lat="48.067302" lon="24.625319">
        <ele>1780.2494894992483</ele>
      </trkpt>
      <trkpt lat="48.067078" lon="24.625151">
        <ele>1784.1952431147597</ele>
      </trkpt>
      <trkpt lat="48.066741" lon="24.624797">
        <ele>1789.1811947819676</ele>
      </trkpt>
      <trkpt lat="48.066282" lon="24.624508">
        <ele>1795.7413216918912</ele>
      </trkpt>
      <trkpt lat="48.065917" lon="24.624121">
        <ele>1806.7619632257788</ele>
      </trkpt>
      <trkpt lat="48.065565" lon="24.623746">
        <ele>1816.0176704942612</ele>
      </trkpt>
      <trkpt lat="48.065307" lon="24.623252">
        <ele>1826.8618751126642</ele>
      </trkpt>
      <trkpt lat="48.064978" lon="24.622888">
        <ele>1830.0633584144985</ele>
      </trkpt>
      <trkpt lat="48.064569" lon="24.622544">
        <ele>1833.356143888377</ele>
      </trkpt>
      <trkpt lat="48.064146" lon="24.622448">
        <ele>1838.1105884173303</ele>
      </trkpt>
      <trkpt lat="48.063855" lon="24.62233">
        <ele>1840.0939774152569</ele>
      </trkpt>
      <trkpt lat="48.063396" lon="24.622115">
        <ele>1845.2874765700478</ele>
      </trkpt>
      <trkpt lat="48.062844" lon="24.62204">
        <ele>1841.218003184004</ele>
      </trkpt>
      <trkpt lat="48.062321" lon="24.622083">
        <ele>1833.4430040337504</ele>
      </trkpt>
      <trkpt lat="48.061869" lon="24.622362">
        <ele>1829.903828590948</ele>
      </trkpt>
      <trkpt lat="48.061475" lon="24.62263">
        <ele>1825.774396912045</ele>
      </trkpt>
      <trkpt lat="48.061095" lon="24.622855">
        <ele>1826.3180656813454</ele>
      </trkpt>
      <trkpt lat="48.060693" lon="24.622974">
        <ele>1830.1875572656857</ele>
      </trkpt>
      <trkpt lat="48.060313" lon="24.622941">
        <ele>1829.6209151066373</ele>
      </trkpt>
      <trkpt lat="48.060005" lon="24.62307">
        <ele>1828</ele>
      </trkpt>
      <trkpt lat="48.059632" lon="24.623199">
        <ele>1829.9542538524838</ele>
      </trkpt>
      <trkpt lat="48.059273" lon="24.623252">
        <ele>1834.3374838956465</ele>
      </trkpt>
      <trkpt lat="48.058929" lon="24.62337">
        <ele>1836.9969739847584</ele>
      </trkpt>
      <trkpt lat="48.058671" lon="24.62351">
        <ele>1838.295522001895</ele>
      </trkpt>
      <trkpt lat="48.058327" lon="24.623413">
        <ele>1843.3232747718716</ele>
      </trkpt>
      <trkpt lat="48.058155" lon="24.622834">
        <ele>1852.9985297470446</ele>
      </trkpt>
      <trkpt lat="48.057925" lon="24.622705">
        <ele>1855.604066537273</ele>
      </trkpt>
      <trkpt lat="48.05756" lon="24.622619">
        <ele>1854.1617141239562</ele>
      </trkpt>
      <trkpt lat="48.057445" lon="24.622571">
        <ele>1851.9867431722814</ele>
      </trkpt>
      <trkpt lat="48.056333" lon="24.623322">
        <ele>1863.2848071682413</ele>
      </trkpt>
      <trkpt lat="48.056011" lon="24.623677">
        <ele>1864.4724597941538</ele>
      </trkpt>
      <trkpt lat="48.055717" lon="24.623988">
        <ele>1864.1201700055742</ele>
      </trkpt>
      <trkpt lat="48.055358" lon="24.624138">
        <ele>1859.8734240123565</ele>
      </trkpt>
      <trkpt lat="48.0551" lon="24.624395">
        <ele>1860.5877367896435</ele>
      </trkpt>
      <trkpt lat="48.05472" lon="24.624621">
        <ele>1864.6045160844506</ele>
      </trkpt>
      <trkpt lat="48.054196" lon="24.624728">
        <ele>1870.6799210503393</ele>
      </trkpt>
      <trkpt lat="48.053895" lon="24.624878">
        <ele>1874.5876796985976</ele>
      </trkpt>
      <trkpt lat="48.053698" lon="24.625061">
        <ele>1876.5249632945051</ele>
      </trkpt>
      <trkpt lat="48.053067" lon="24.625801">
        <ele>1881.6963744455484</ele>
      </trkpt>
      <trkpt lat="48.052468" lon="24.625871">
        <ele>1888.3154622535844</ele>
      </trkpt>
      <trkpt lat="48.051984" lon="24.625667">
        <ele>1891.145570248249</ele>
      </trkpt>
      <trkpt lat="48.051407" lon="24.62579">
        <ele>1900.8675931779267</ele>
      </trkpt>
      <trkpt lat="48.051073" lon="24.625956">
        <ele>1908.4142118826508</ele>
      </trkpt>
      <trkpt lat="48.050273" lon="24.626466">
        <ele>1927.2167219636026</ele>
      </trkpt>
      <trkpt lat="48.050022" lon="24.626573">
        <ele>1931.8092673571236</ele>
      </trkpt>
      <trkpt lat="48.049649" lon="24.626665">
        <ele>1937.2414411826958</ele>
      </trkpt>
      <trkpt lat="48.049201" lon="24.626734">
        <ele>1949.629118932727</ele>
      </trkpt>
      <trkpt lat="48.048882" lon="24.626831">
        <ele>1960.8957738706495</ele>
      </trkpt>
      <trkpt lat="48.048692" lon="24.626927">
        <ele>1967.8144362152084</ele>
      </trkpt>
      <trkpt lat="48.048315" lon="24.62711">
        <ele>1981.051011431197</ele>
      </trkpt>
      <trkpt lat="48.047989" lon="24.627228">
        <ele>1990.7061477813313</ele>
      </trkpt>
      <trkpt lat="48.04777" lon="24.62734">
        <ele>1996.6929728515768</ele>
      </trkpt>
      <trkpt lat="48.047527" lon="24.627421">
        <ele>2003.3813743147157</ele>
      </trkpt>
      <trkpt lat="48.047319" lon="24.627394">
        <ele>2008.798887896701</ele>
      </trkpt>
      <trkpt lat="48.047254" lon="24.62748">
        <ele>2010.5615415220382</ele>
      </trkpt>
      <trkpt lat="48.047118" lon="24.627877">
        <ele>2009.239707041896</ele>
      </trkpt>
      <trkpt lat="48.047046" lon="24.628022">
        <ele>2007.4629688040782</ele>
      </trkpt>
      <trkpt lat="48.047046" lon="24.628022">
        <ele>2007.4629688040782</ele>
      </trkpt>
      <trkpt lat="48.047118" lon="24.627877">
        <ele>2009.239707041896</ele>
      </trkpt>
      <trkpt lat="48.047254" lon="24.62748">
        <ele>2010.5615415220382</ele>
      </trkpt>
      <trkpt lat="48.047319" lon="24.627394">
        <ele>2008.798887896701</ele>
      </trkpt>
      <trkpt lat="48.047527" lon="24.627421">
        <ele>2003.3813743147157</ele>
      </trkpt>
      <trkpt lat="48.04777" lon="24.62734">
        <ele>1996.6929728515768</ele>
      </trkpt>
      <trkpt lat="48.047989" lon="24.627228">
        <ele>1990.7061477813313</ele>
      </trkpt>
      <trkpt lat="48.048315" lon="24.62711">
        <ele>1981.051011431197</ele>
      </trkpt>
      <trkpt lat="48.048692" lon="24.626927">
        <ele>1967.8144362152084</ele>
      </trkpt>
      <trkpt lat="48.048882" lon="24.626831">
        <ele>1960.8957738706495</ele>
      </trkpt>
      <trkpt lat="48.049201" lon="24.626734">
        <ele>1949.629118932727</ele>
      </trkpt>
      <trkpt lat="48.049649" lon="24.626665">
        <ele>1937.2414411826958</ele>
      </trkpt>
      <trkpt lat="48.050022" lon="24.626573">
        <ele>1931.8092673571236</ele>
      </trkpt>
      <trkpt lat="48.050273" lon="24.626466">
        <ele>1927.2167219636026</ele>
      </trkpt>
      <trkpt lat="48.051073" lon="24.625956">
        <ele>1908.4142118826508</ele>
      </trkpt>
      <trkpt lat="48.051407" lon="24.62579">
        <ele>1900.8675931779267</ele>
      </trkpt>
      <trkpt lat="48.051984" lon="24.625667">
        <ele>1891.145570248249</ele>
      </trkpt>
      <trkpt lat="48.052468" lon="24.625871">
        <ele>1888.3154622535844</ele>
      </trkpt>
      <trkpt lat="48.053067" lon="24.625801">
        <ele>1881.6963744455484</ele>
      </trkpt>
      <trkpt lat="48.053698" lon="24.625061">
        <ele>1876.5249632945051</ele>
      </trkpt>
      <trkpt lat="48.053895" lon="24.624878">
        <ele>1874.5876796985976</ele>
      </trkpt>
      <trkpt lat="48.054196" lon="24.624728">
        <ele>1870.6799210503393</ele>
      </trkpt>
      <trkpt lat="48.05472" lon="24.624621">
        <ele>1864.6045160844506</ele>
      </trkpt>
      <trkpt lat="48.0551" lon="24.624395">
        <ele>1860.5877367896435</ele>
      </trkpt>
      <trkpt lat="48.055358" lon="24.624138">
        <ele>1859.8734240123565</ele>
      </trkpt>
      <trkpt lat="48.055717" lon="24.623988">
        <ele>1864.1201700055742</ele>
      </trkpt>
      <trkpt lat="48.056011" lon="24.623677">
        <ele>1864.4724597941538</ele>
      </trkpt>
      <trkpt lat="48.056333" lon="24.623322">
        <ele>1863.2848071682413</ele>
      </trkpt>
      <trkpt lat="48.057445" lon="24.622571">
        <ele>1851.9867431722814</ele>
      </trkpt>
      <trkpt lat="48.05756" lon="24.622619">
        <ele>1854.1617141239562</ele>
      </trkpt>
      <trkpt lat="48.057925" lon="24.622705">
        <ele>1855.604066537273</ele>
      </trkpt>
      <trkpt lat="48.058155" lon="24.622834">
        <ele>1852.9985297470446</ele>
      </trkpt>
      <trkpt lat="48.058327" lon="24.623413">
        <ele>1843.3232747718716</ele>
      </trkpt>
      <trkpt lat="48.058671" lon="24.62351">
        <ele>1838.295522001895</ele>
      </trkpt>
      <trkpt lat="48.058929" lon="24.62337">
        <ele>1836.9969739847584</ele>
      </trkpt>
      <trkpt lat="48.059273" lon="24.623252">
        <ele>1834.3374838956465</ele>
      </trkpt>
      <trkpt lat="48.059632" lon="24.623199">
        <ele>1829.9542538524838</ele>
      </trkpt>
      <trkpt lat="48.060005" lon="24.62307">
        <ele>1828</ele>
      </trkpt>
      <trkpt lat="48.060313" lon="24.622941">
        <ele>1829.6209151066373</ele>
      </trkpt>
      <trkpt lat="48.060693" lon="24.622974">
        <ele>1830.1875572656857</ele>
      </trkpt>
      <trkpt lat="48.061095" lon="24.622855">
        <ele>1826.3180656813454</ele>
      </trkpt>
      <trkpt lat="48.061475" lon="24.62263">
        <ele>1825.774396912045</ele>
      </trkpt>
      <trkpt lat="48.061869" lon="24.622362">
        <ele>1829.903828590948</ele>
      </trkpt>
      <trkpt lat="48.062321" lon="24.622083">
        <ele>1833.4430040337504</ele>
      </trkpt>
      <trkpt lat="48.062844" lon="24.62204">
        <ele>1841.218003184004</ele>
      </trkpt>
      <trkpt lat="48.063396" lon="24.622115">
        <ele>1845.2874765700478</ele>
      </trkpt>
      <trkpt lat="48.063855" lon="24.62233">
        <ele>1840.0939774152569</ele>
      </trkpt>
      <trkpt lat="48.064146" lon="24.622448">
        <ele>1838.1105884173303</ele>
      </trkpt>
      <trkpt lat="48.064569" lon="24.622544">
        <ele>1833.356143888377</ele>
      </trkpt>
      <trkpt lat="48.064978" lon="24.622888">
        <ele>1830.0633584144985</ele>
      </trkpt>
      <trkpt lat="48.065307" lon="24.623252">
        <ele>1826.8618751126642</ele>
      </trkpt>
      <trkpt lat="48.065565" lon="24.623746">
        <ele>1816.0176704942612</ele>
      </trkpt>
      <trkpt lat="48.065917" lon="24.624121">
        <ele>1806.7619632257788</ele>
      </trkpt>
      <trkpt lat="48.066282" lon="24.624508">
        <ele>1795.7413216918912</ele>
      </trkpt>
      <trkpt lat="48.066741" lon="24.624797">
        <ele>1789.1811947819676</ele>
      </trkpt>
      <trkpt lat="48.067078" lon="24.625151">
        <ele>1784.1952431147597</ele>
      </trkpt>
      <trkpt lat="48.067302" lon="24.625319">
        <ele>1780.2494894992483</ele>
      </trkpt>
      <trkpt lat="48.067465" lon="24.625576">
        <ele>1774.331417931063</ele>
      </trkpt>
      <trkpt lat="48.067537" lon="24.625779">
        <ele>1770.8508066167763</ele>
      </trkpt>
      <trkpt lat="48.067605" lon="24.626144">
        <ele>1766.0462979400334</ele>
      </trkpt>
      <trkpt lat="48.067645" lon="24.626557">
        <ele>1761.9309397935644</ele>
      </trkpt>
      <trkpt lat="48.067688" lon="24.626842">
        <ele>1761.1457656960702</ele>
      </trkpt>
      <trkpt lat="48.067698" lon="24.626992">
        <ele>1761.2400257118861</ele>
      </trkpt>
      <trkpt lat="48.067824" lon="24.627442">
        <ele>1763.746927914021</ele>
      </trkpt>
      <trkpt lat="48.068034" lon="24.627911">
        <ele>1761.4565242652297</ele>
      </trkpt>
      <trkpt lat="48.068224" lon="24.62899">
        <ele>1766.2347821941948</ele>
      </trkpt>
      <trkpt lat="48.068378" lon="24.630167">
        <ele>1785.1791080055857</ele>
      </trkpt>
      <trkpt lat="48.068308" lon="24.63128">
        <ele>1801.4099264526556</ele>
      </trkpt>
      <trkpt lat="48.068443" lon="24.632605">
        <ele>1815.792923505692</ele>
      </trkpt>
      <trkpt lat="48.06848" lon="24.633856">
        <ele>1826.3949156013289</ele>
      </trkpt>
      <trkpt lat="48.068647" lon="24.634507">
        <ele>1831.3310898841644</ele>
      </trkpt>
      <trkpt lat="48.068827" lon="24.635223">
        <ele>1839.1081404220126</ele>
      </trkpt>
      <trkpt lat="48.068959" lon="24.63564">
        <ele>1846.2278402834509</ele>
      </trkpt>
      <trkpt lat="48.069241" lon="24.635783">
        <ele>1853.0741140051973</ele>
      </trkpt>
      <trkpt lat="48.069344" lon="24.636108">
        <ele>1856.133132213843</ele>
      </trkpt>
      <trkpt lat="48.069175" lon="24.636926">
        <ele>1855.4917005264433</ele>
      </trkpt>
      <trkpt lat="48.069138" lon="24.637892">
        <ele>1855.1792632430647</ele>
      </trkpt>
      <trkpt lat="48.06879" lon="24.638481">
        <ele>1859.6909436438218</ele>
      </trkpt>
      <trkpt lat="48.06855" lon="24.639263">
        <ele>1866.4184658449376</ele>
      </trkpt>
      <trkpt lat="48.068536" lon="24.640752">
        <ele>1876.4870523957557</ele>
      </trkpt>
      <trkpt lat="48.068791" lon="24.64162">
        <ele>1875.8509260647038</ele>
      </trkpt>
      <trkpt lat="48.068954" lon="24.642778">
        <ele>1884.5757740182166</ele>
      </trkpt>
      <trkpt lat="48.069069" lon="24.643356">
        <ele>1888.920137745027</ele>
      </trkpt>
      <trkpt lat="48.069114" lon="24.644005">
        <ele>1892.361269233326</ele>
      </trkpt>
      <trkpt lat="48.069168" lon="24.64423">
        <ele>1891.0792176018842</ele>
      </trkpt>
      <trkpt lat="48.069218" lon="24.644327">
        <ele>1890.608592485822</ele>
      </trkpt>
      <trkpt lat="48.069244" lon="24.644401">
        <ele>1890.356328092896</ele>
      </trkpt>
      <trkpt lat="48.069467" lon="24.644315">
        <ele>1888.7022057453646</ele>
      </trkpt>
      <trkpt lat="48.069549" lon="24.644643">
        <ele>1885.7196750193566</ele>
      </trkpt>
      <trkpt lat="48.06967" lon="24.644557">
        <ele>1883.078125233655</ele>
      </trkpt>
      <trkpt lat="48.069818" lon="24.645153">
        <ele>1874.5476419450965</ele>
      </trkpt>
      <trkpt lat="48.070166" lon="24.64562">
        <ele>1859.2609584452025</ele>
      </trkpt>
      <trkpt lat="48.070427" lon="24.645844">
        <ele>1846.3148426757448</ele>
      </trkpt>
      <trkpt lat="48.070586" lon="24.646347">
        <ele>1822.8886712777912</ele>
      </trkpt>
      <trkpt lat="48.070753" lon="24.646451">
        <ele>1815.6387162161707</ele>
      </trkpt>
      <trkpt lat="48.070784" lon="24.646866">
        <ele>1799.754344298603</ele>
      </trkpt>
      <trkpt lat="48.071252" lon="24.647599">
        <ele>1769.2696819940415</ele>
      </trkpt>
      <trkpt lat="48.071429" lon="24.64781">
        <ele>1762.1930188724036</ele>
      </trkpt>
      <trkpt lat="48.071554" lon="24.648186">
        <ele>1753.9356549746503</ele>
      </trkpt>
      <trkpt lat="48.071817" lon="24.648273">
        <ele>1748.035087044338</ele>
      </trkpt>
      <trkpt lat="48.072119" lon="24.648605">
        <ele>1737.313972723239</ele>
      </trkpt>
      <trkpt lat="48.072449" lon="24.649052">
        <ele>1719.9586286335864</ele>
      </trkpt>
      <trkpt lat="48.072473" lon="24.649375">
        <ele>1708.83053975293</ele>
      </trkpt>
      <trkpt lat="48.072644" lon="24.649769">
        <ele>1693.7907728774965</ele>
      </trkpt>
      <trkpt lat="48.072813" lon="24.650066">
        <ele>1684.7958970573914</ele>
      </trkpt>
      <trkpt lat="48.073238" lon="24.650635">
        <ele>1669.7830422177626</ele>
      </trkpt>
      <trkpt lat="48.073796" lon="24.65088">
        <ele>1664.9238343539514</ele>
      </trkpt>
      <trkpt lat="48.074383" lon="24.651369">
        <ele>1649.6840504485042</ele>
      </trkpt>
      <trkpt lat="48.075009" lon="24.651601">
        <ele>1638.6479652533076</ele>
      </trkpt>
      <trkpt lat="48.075482" lon="24.652124">
        <ele>1638.1587970614648</ele>
      </trkpt>
      <trkpt lat="48.075815" lon="24.652387">
        <ele>1640.422250605126</ele>
      </trkpt>
      <trkpt lat="48.076189" lon="24.65259">
        <ele>1642.260790332337</ele>
      </trkpt>
      <trkpt lat="48.07686" lon="24.653021">
        <ele>1646.2335116883455</ele>
      </trkpt>
      <trkpt lat="48.077882" lon="24.653395">
        <ele>1614.6253467103354</ele>
      </trkpt>
      <trkpt lat="48.078519" lon="24.653595">
        <ele>1601.2725049072867</ele>
      </trkpt>
      <trkpt lat="48.07901" lon="24.654838">
        <ele>1547.961797816556</ele>
      </trkpt>
      <trkpt lat="48.079461" lon="24.656046">
        <ele>1497.52356775094</ele>
      </trkpt>
      <trkpt lat="48.079612" lon="24.656291">
        <ele>1488.1975412950019</ele>
      </trkpt>
      <trkpt lat="48.079752" lon="24.656283">
        <ele>1486.1591517872876</ele>
      </trkpt>
      <trkpt lat="48.079819" lon="24.65742">
        <ele>1451.9158569823485</ele>
      </trkpt>
      <trkpt lat="48.08003" lon="24.657582">
        <ele>1445.3564215543524</ele>
      </trkpt>
      <trkpt lat="48.080073" lon="24.657819">
        <ele>1438.2728108332958</ele>
      </trkpt>
      <trkpt lat="48.080653" lon="24.658072">
        <ele>1422.6521057591503</ele>
      </trkpt>
      <trkpt lat="48.081004" lon="24.6584">
        <ele>1402.909360800049</ele>
      </trkpt>
      <trkpt lat="48.081285" lon="24.6587">
        <ele>1386.7940876173316</ele>
      </trkpt>
      <trkpt lat="48.081868" lon="24.659338">
        <ele>1362.2764448011014</ele>
      </trkpt>
      <trkpt lat="48.08199" lon="24.659926">
        <ele>1353.4493911160068</ele>
      </trkpt>
      <trkpt lat="48.081856" lon="24.660245">
        <ele>1346.235474799063</ele>
      </trkpt>
      <trkpt lat="48.081561" lon="24.660763">
        <ele>1332.572811378166</ele>
      </trkpt>
      <trkpt lat="48.081433" lon="24.661356">
        <ele>1320.7922772468883</ele>
      </trkpt>
      <trkpt lat="48.081353" lon="24.661895">
        <ele>1312.063981573337</ele>
      </trkpt>
      <trkpt lat="48.081504" lon="24.662512">
        <ele>1294.383892638376</ele>
      </trkpt>
      <trkpt lat="48.08169" lon="24.662695">
        <ele>1284.2397250600625</ele>
      </trkpt>
      <trkpt lat="48.081529" lon="24.663732">
        <ele>1260.5167487421118</ele>
      </trkpt>
      <trkpt lat="48.081844" lon="24.664497">
        <ele>1232.8511715999339</ele>
      </trkpt>
      <trkpt lat="48.082433" lon="24.664749">
        <ele>1216.6443571379639</ele>
      </trkpt>
      <trkpt lat="48.082489" lon="24.66476">
        <ele>1215.1819450229232</ele>
      </trkpt>
      <trkpt lat="48.082498" lon="24.664688">
        <ele>1215.908642607386</ele>
      </trkpt>
      <trkpt lat="48.082488" lon="24.664875">
        <ele>1213.7658290272811</ele>
      </trkpt>
      <trkpt lat="48.082573" lon="24.665176">
        <ele>1208.318877015676</ele>
      </trkpt>
      <trkpt lat="48.082566" lon="24.665165">
        <ele>1208.6241822633754</ele>
      </trkpt>
      <trkpt lat="48.082405" lon="24.665546">
        <ele>1207.1180769093335</ele>
      </trkpt>
      <trkpt lat="48.082369" lon="24.665733">
        <ele>1205.5042508154268</ele>
      </trkpt>
      <trkpt lat="48.082344" lon="24.665991">
        <ele>1203.3087015599012</ele>
      </trkpt>
      <trkpt lat="48.082322" lon="24.666168">
        <ele>1202.2427335333743</ele>
      </trkpt>
      <trkpt lat="48.082329" lon="24.666554">
        <ele>1199.140990270069</ele>
      </trkpt>
      <trkpt lat="48.082311" lon="24.666866">
        <ele>1195.5221258358797</ele>
      </trkpt>
      <trkpt lat="48.08224" lon="24.667182">
        <ele>1193.1524663177552</ele>
      </trkpt>
      <trkpt lat="48.082326" lon="24.667708">
        <ele>1187.495926446165</ele>
      </trkpt>
      <trkpt lat="48.082419" lon="24.66811">
        <ele>1183.8015515136383</ele>
      </trkpt>
      <trkpt lat="48.082466" lon="24.668486">
        <ele>1180.9740329802735</ele>
      </trkpt>
      <trkpt lat="48.082605" lon="24.668866">
        <ele>1175.0795963962005</ele>
      </trkpt>
      <trkpt lat="48.082692" lon="24.669162">
        <ele>1170.4530241246102</ele>
      </trkpt>
      <trkpt lat="48.082867" lon="24.669467">
        <ele>1162.839595332127</ele>
      </trkpt>
      <trkpt lat="48.082946" lon="24.669768">
        <ele>1157.2645666374365</ele>
      </trkpt>
      <trkpt lat="48.083061" lon="24.670079">
        <ele>1152.223224281784</ele>
      </trkpt>
      <trkpt lat="48.083562" lon="24.671034">
        <ele>1136.7923779313467</ele>
      </trkpt>
      <trkpt lat="48.083691" lon="24.671291">
        <ele>1132.2013839226604</ele>
      </trkpt>
      <trkpt lat="48.083695" lon="24.671538">
        <ele>1129.7616820080696</ele>
      </trkpt>
      <trkpt lat="48.083741" lon="24.671774">
        <ele>1126.7207291184213</ele>
      </trkpt>
      <trkpt lat="48.083878" lon="24.672139">
        <ele>1121.3274287127235</ele>
      </trkpt>
      <trkpt lat="48.084014" lon="24.672503">
        <ele>1115.2873936299045</ele>
      </trkpt>
      <trkpt lat="48.084171" lon="24.673083">
        <ele>1105.5692276025027</ele>
      </trkpt>
      <trkpt lat="48.084372" lon="24.673544">
        <ele>1096.995040764961</ele>
      </trkpt>
      <trkpt lat="48.084501" lon="24.673963">
        <ele>1092.120468042576</ele>
      </trkpt>
      <trkpt lat="48.084637" lon="24.674402">
        <ele>1090.2444461373186</ele>
      </trkpt>
      <trkpt lat="48.084702" lon="24.674789">
        <ele>1089.1870453784938</ele>
      </trkpt>
      <trkpt lat="48.084852" lon="24.675304">
        <ele>1085.9036074667238</ele>
      </trkpt>
      <trkpt lat="48.084981" lon="24.675711">
        <ele>1081.5775711712777</ele>
      </trkpt>
      <trkpt lat="48.085125" lon="24.676108">
        <ele>1077.019346346085</ele>
      </trkpt>
      <trkpt lat="48.085247" lon="24.676452">
        <ele>1071.8684867555276</ele>
      </trkpt>
      <trkpt lat="48.085347" lon="24.676602">
        <ele>1068.6768431359194</ele>
      </trkpt>
      <trkpt lat="48.085444" lon="24.676726">
        <ele>1065.5511191526684</ele>
      </trkpt>
      <trkpt lat="48.08553" lon="24.676758">
        <ele>1063.7130297597594</ele>
      </trkpt>
      <trkpt lat="48.085698" lon="24.676886">
        <ele>1059.2692029518337</ele>
      </trkpt>
      <trkpt lat="48.085866" lon="24.677021">
        <ele>1054.5302411785815</ele>
      </trkpt>
      <trkpt lat="48.086042" lon="24.67731">
        <ele>1047.2517589979107</ele>
      </trkpt>
      <trkpt lat="48.086257" lon="24.677412">
        <ele>1041.9143287659604</ele>
      </trkpt>
      <trkpt lat="48.086508" lon="24.677868">
        <ele>1029.997259024906</ele>
      </trkpt>
      <trkpt lat="48.086673" lon="24.678276">
        <ele>1023.0031322493508</ele>
      </trkpt>
      <trkpt lat="48.086752" lon="24.678608">
        <ele>1019.1360116783762</ele>
      </trkpt>
      <trkpt lat="48.086981" lon="24.679552">
        <ele>1010.3737139017128</ele>
      </trkpt>
      <trkpt lat="48.087203" lon="24.679938">
        <ele>1007.4110976000084</ele>
      </trkpt>
      <trkpt lat="48.087357" lon="24.680191">
        <ele>1005.1748052435458</ele>
      </trkpt>
      <trkpt lat="48.08744" lon="24.6807">
        <ele>999.1981408833526</ele>
      </trkpt>
      <trkpt lat="48.087583" lon="24.680969">
        <ele>996.0216369001428</ele>
      </trkpt>
      <trkpt lat="48.087762" lon="24.681162">
        <ele>994.0416072837735</ele>
      </trkpt>
      <trkpt lat="48.087963" lon="24.681344">
        <ele>991.1288638012485</ele>
      </trkpt>
      <trkpt lat="48.088149" lon="24.681687">
        <ele>984.5298122487919</ele>
      </trkpt>
      <trkpt lat="48.088536" lon="24.682374">
        <ele>971.6395351190079</ele>
      </trkpt>
      <trkpt lat="48.088701" lon="24.682567">
        <ele>967.57261577788</ele>
      </trkpt>
      <trkpt lat="48.089267" lon="24.683222">
        <ele>958.9912124179536</ele>
      </trkpt>
      <trkpt lat="48.089611" lon="24.683629">
        <ele>956.1588766661007</ele>
      </trkpt>
      <trkpt lat="48.089984" lon="24.68408">
        <ele>953.249617692316</ele>
      </trkpt>
      <trkpt lat="48.09027" lon="24.684348">
        <ele>951.598885951013</ele>
      </trkpt>
      <trkpt lat="48.090636" lon="24.684659">
        <ele>949.0669223022414</ele>
      </trkpt>
      <trkpt lat="48.091087" lon="24.685099">
        <ele>941.5029105776921</ele>
      </trkpt>
      <trkpt lat="48.091768" lon="24.685657">
        <ele>927.5704741321144</ele>
      </trkpt>
      <trkpt lat="48.092284" lon="24.686183">
        <ele>918.4024248888018</ele>
      </trkpt>
      <trkpt lat="48.0929" lon="24.686794">
        <ele>911.6263748037234</ele>
      </trkpt>
      <trkpt lat="48.093252" lon="24.687234">
        <ele>908.2269168125013</ele>
      </trkpt>
      <trkpt lat="48.093488" lon="24.68761">
        <ele>904.4961848887615</ele>
      </trkpt>
      <trkpt lat="48.093581" lon="24.687803">
        <ele>901.8094648889964</ele>
      </trkpt>
      <trkpt lat="48.093739" lon="24.688146">
        <ele>896.3141653334023</ele>
      </trkpt>
      <trkpt lat="48.094004" lon="24.6885">
        <ele>890.7483241650662</ele>
      </trkpt>
      <trkpt lat="48.09419" lon="24.688715">
        <ele>887.077559130516</ele>
      </trkpt>
      <trkpt lat="48.094327" lon="24.688983">
        <ele>882.1731697849655</ele>
      </trkpt>
      <trkpt lat="48.094284" lon="24.689208">
        <ele>879.0100950234145</ele>
      </trkpt>
      <trkpt lat="48.094284" lon="24.689552">
        <ele>872.8053674669936</ele>
      </trkpt>
      <trkpt lat="48.094305" lon="24.68982">
        <ele>868.1217279997654</ele>
      </trkpt>
      <trkpt lat="48.094405" lon="24.690238">
        <ele>861.3166485335678</ele>
      </trkpt>
      <trkpt lat="48.094527" lon="24.690549">
        <ele>855.6911722925508</ele>
      </trkpt>
      <trkpt lat="48.094656" lon="24.690839">
        <ele>847.7850483110442</ele>
      </trkpt>
      <trkpt lat="48.094771" lon="24.690936">
        <ele>844.6533365496889</ele>
      </trkpt>
      <trkpt lat="48.094878" lon="24.690936">
        <ele>844.0566760248669</ele>
      </trkpt>
      <trkpt lat="48.095057" lon="24.690785">
        <ele>843.7189793568557</ele>
      </trkpt>
      <trkpt lat="48.095143" lon="24.690657">
        <ele>842.6187852854476</ele>
      </trkpt>
      <trkpt lat="48.095265" lon="24.690517">
        <ele>840.2143998194363</ele>
      </trkpt>
      <trkpt lat="48.095437" lon="24.690571">
        <ele>835.5664283101214</ele>
      </trkpt>
      <trkpt lat="48.095659" lon="24.690689">
        <ele>830.7261413333472</ele>
      </trkpt>
      <trkpt lat="48.095874" lon="24.690828">
        <ele>825.6782958168267</ele>
      </trkpt>
      <trkpt lat="48.096032" lon="24.690936">
        <ele>823.0641855461694</ele>
      </trkpt>
      <trkpt lat="48.096118" lon="24.691064">
        <ele>821.7505175342085</ele>
      </trkpt>
      <trkpt lat="48.096175" lon="24.691236">
        <ele>820.7523644156754</ele>
      </trkpt>
      <trkpt lat="48.096347" lon="24.691612">
        <ele>817.8346644035965</ele>
      </trkpt>
    </trkseg>
  </trk>
</gpx>
