<?xml version="1.0" encoding="UTF-8"?>
<gpx version="1.1" creator="phpGPX/1.0RC5" schemaLocation="http://www.topografix.com/GPX/1/1 http://www.topografix.com/GPX/1/1/gpx.xsd http://www.garmin.com/xmlschemas/GpxExtensions/v3 http://www.garmin.com/xmlschemas/GpxExtensionsv3.xsd http://www.garmin.com/xmlschemas/TrackPointExtension/v1 http://www.garmin.com/xmlschemas/TrackPointExtensionv1.xsd http://www.garmin.com/xmlschemas/PowerExtension/v1 http://www.garmin.com/xmlschemas/PowerExtensionv1.xsd http://www.topografix.com/GPX/gpx_style/0/2 http://www.topografix.com/GPX/gpx_style/0/2/gpx_style.xsd" xmlns="http://www.topografix.com/GPX/1/1" xmlns:xsi="http://www.w3.org/2001/XMLSchema-instance" xsi:schemaLocation="http://www.topografix.com/GPX/1/1 http://www.topografix.com/GPX/1/1/gpx.xsd http://www.garmin.com/xmlschemas/GpxExtensions/v3 http://www.garmin.com/xmlschemas/GpxExtensionsv3.xsd http://www.garmin.com/xmlschemas/TrackPointExtension/v1 http://www.garmin.com/xmlschemas/TrackPointExtensionv1.xsd http://www.garmin.com/xmlschemas/PowerExtension/v1 http://www.garmin.com/xmlschemas/PowerExtensionv1.xsd http://www.topografix.com/GPX/gpx_style/0/2 http://www.topografix.com/GPX/gpx_style/0/2/gpx_style.xsd" xmlns:gpxtpx="http://www.garmin.com/xmlschemas/TrackPointExtension/v1" xmlns:gpxx="http://www.garmin.com/xmlschemas/GpxExtensions/v3" xmlns:gpxpx="http://www.garmin.com/xmlschemas/PowerExtension/v1" xmlns:gpx_style="http://www.topografix.com/GPX/gpx_style/0/2">
  <metadata>
    <name>Ротило та Хорде</name>
    <author>
      <name>gpx.studio</name>
      <link href="https://gpx.studio"/>
    </author>
  </metadata>
  <trk>
    <name>Ротило та Хорде</name>
    <trkseg>
      <trkpt lat="48.198456" lon="24.736889">
        <ele>744.525109365417</ele>
      </trkpt>
      <trkpt lat="48.198971" lon="24.737469">
        <ele>744.4616452462656</ele>
      </trkpt>
      <trkpt lat="48.199843" lon="24.738477">
        <ele>749.2642759354666</ele>
      </trkpt>
      <trkpt lat="48.200844" lon="24.737576">
        <ele>752.675594845967</ele>
      </trkpt>
      <trkpt lat="48.201688" lon="24.736975">
        <ele>759.5064253344387</ele>
      </trkpt>
      <trkpt lat="48.202246" lon="24.737404">
        <ele>750.5549336203501</ele>
      </trkpt>
      <trkpt lat="48.203075" lon="24.738563">
        <ele>750.3272462351928</ele>
      </trkpt>
      <trkpt lat="48.203218" lon="24.738706">
        <ele>750.9076814223081</ele>
      </trkpt>
      <trkpt lat="48.203962" lon="24.739006">
        <ele>755.0435783114517</ele>
      </trkpt>
      <trkpt lat="48.204934" lon="24.737912">
        <ele>759.9983121647929</ele>
      </trkpt>
      <trkpt lat="48.205778" lon="24.73641">
        <ele>764.1981866369606</ele>
      </trkpt>
      <trkpt lat="48.206536" lon="24.736474">
        <ele>758.9223314489936</ele>
      </trkpt>
      <trkpt lat="48.206965" lon="24.736023">
        <ele>759.9836527872831</ele>
      </trkpt>
      <trkpt lat="48.207151" lon="24.734951">
        <ele>762.1184820279013</ele>
      </trkpt>
      <trkpt lat="48.207709" lon="24.734242">
        <ele>761.8902481020976</ele>
      </trkpt>
      <trkpt lat="48.207923" lon="24.733384">
        <ele>763.4275832725602</ele>
      </trkpt>
      <trkpt lat="48.208452" lon="24.733255">
        <ele>765.2345649376448</ele>
      </trkpt>
      <trkpt lat="48.20946" lon="24.733894">
        <ele>768.5636245332425</ele>
      </trkpt>
      <trkpt lat="48.209961" lon="24.733679">
        <ele>770.3798380123917</ele>
      </trkpt>
      <trkpt lat="48.21039" lon="24.733743">
        <ele>777.4725686170033</ele>
      </trkpt>
      <trkpt lat="48.211219" lon="24.733593">
        <ele>779.4824945338592</ele>
      </trkpt>
      <trkpt lat="48.211748" lon="24.73222">
        <ele>778.0647688728383</ele>
      </trkpt>
      <trkpt lat="48.21212" lon="24.73207">
        <ele>775.0934611862933</ele>
      </trkpt>
      <trkpt lat="48.212449" lon="24.732263">
        <ele>775.4931609594166</ele>
      </trkpt>
      <trkpt lat="48.21315" lon="24.73192">
        <ele>777.5</ele>
      </trkpt>
      <trkpt lat="48.213701" lon="24.730442">
        <ele>782.6070077711119</ele>
      </trkpt>
      <trkpt lat="48.214223" lon="24.730294">
        <ele>781.128645039617</ele>
      </trkpt>
      <trkpt lat="48.214695" lon="24.730509">
        <ele>785.6020236671808</ele>
      </trkpt>
      <trkpt lat="48.214924" lon="24.730401">
        <ele>784.0031875095204</ele>
      </trkpt>
      <trkpt lat="48.215497" lon="24.729846">
        <ele>783.5927340381895</ele>
      </trkpt>
      <trkpt lat="48.215411" lon="24.728537">
        <ele>790.3592897340422</ele>
      </trkpt>
      <trkpt lat="48.215368" lon="24.727743">
        <ele>793.5033103619935</ele>
      </trkpt>
      <trkpt lat="48.215883" lon="24.727121">
        <ele>791.5792323825849</ele>
      </trkpt>
      <trkpt lat="48.216169" lon="24.72667">
        <ele>796.0670288737804</ele>
      </trkpt>
      <trkpt lat="48.216798" lon="24.726906">
        <ele>791.6661503999494</ele>
      </trkpt>
      <trkpt lat="48.21747" lon="24.726949">
        <ele>794.4600659361447</ele>
      </trkpt>
      <trkpt lat="48.21787" lon="24.726284">
        <ele>798.4148942855388</ele>
      </trkpt>
      <trkpt lat="48.218242" lon="24.725576">
        <ele>797.3042320675975</ele>
      </trkpt>
      <trkpt lat="48.21837" lon="24.725855">
        <ele>797.6197742897784</ele>
      </trkpt>
      <trkpt lat="48.218828" lon="24.725769">
        <ele>807.3034488739892</ele>
      </trkpt>
      <trkpt lat="48.219371" lon="24.725447">
        <ele>819.7731903562716</ele>
      </trkpt>
      <trkpt lat="48.219686" lon="24.725361">
        <ele>823.7644484653365</ele>
      </trkpt>
      <trkpt lat="48.2195" lon="24.726498">
        <ele>849.8361712408472</ele>
      </trkpt>
      <trkpt lat="48.219271" lon="24.727507">
        <ele>859.0516316009309</ele>
      </trkpt>
      <trkpt lat="48.219271" lon="24.728451">
        <ele>870.5055352376838</ele>
      </trkpt>
      <trkpt lat="48.219314" lon="24.729395">
        <ele>879.0651806637685</ele>
      </trkpt>
      <trkpt lat="48.219357" lon="24.730318">
        <ele>879.5856954820844</ele>
      </trkpt>
      <trkpt lat="48.219786" lon="24.73109">
        <ele>890.2654736991917</ele>
      </trkpt>
      <trkpt lat="48.220386" lon="24.731005">
        <ele>910.545551089175</ele>
      </trkpt>
      <trkpt lat="48.220901" lon="24.730897">
        <ele>933.2936658591498</ele>
      </trkpt>
      <trkpt lat="48.221273" lon="24.732507">
        <ele>957.1677085474199</ele>
      </trkpt>
      <trkpt lat="48.221501" lon="24.732356">
        <ele>967.2555218816833</ele>
      </trkpt>
      <trkpt lat="48.221544" lon="24.731434">
        <ele>960.5623859277695</ele>
      </trkpt>
      <trkpt lat="48.221544" lon="24.730811">
        <ele>960.1639027046964</ele>
      </trkpt>
      <trkpt lat="48.221716" lon="24.730811">
        <ele>967.2446082890373</ele>
      </trkpt>
      <trkpt lat="48.221959" lon="24.73167">
        <ele>989.6802443171036</ele>
      </trkpt>
      <trkpt lat="48.222087" lon="24.732807">
        <ele>1032.5223838324891</ele>
      </trkpt>
      <trkpt lat="48.222116" lon="24.73358">
        <ele>1038.6595729347318</ele>
      </trkpt>
      <trkpt lat="48.222288" lon="24.733687">
        <ele>1050.4465630626073</ele>
      </trkpt>
      <trkpt lat="48.222807" lon="24.733303">
        <ele>1084.4080300957482</ele>
      </trkpt>
      <trkpt lat="48.222967" lon="24.733287">
        <ele>1091.5892941200905</ele>
      </trkpt>
      <trkpt lat="48.223067" lon="24.733319">
        <ele>1095.3796872000937</ele>
      </trkpt>
      <trkpt lat="48.223282" lon="24.733829">
        <ele>1106.120000742056</ele>
      </trkpt>
      <trkpt lat="48.223911" lon="24.734553">
        <ele>1132.9129663697677</ele>
      </trkpt>
      <trkpt lat="48.224397" lon="24.735208">
        <ele>1146.8766912114154</ele>
      </trkpt>
      <trkpt lat="48.224711" lon="24.735809">
        <ele>1163.5628664889373</ele>
      </trkpt>
      <trkpt lat="48.224922" lon="24.735964">
        <ele>1169.7955049715902</ele>
      </trkpt>
      <trkpt lat="48.225065" lon="24.73606">
        <ele>1177.1287313126818</ele>
      </trkpt>
      <trkpt lat="48.225391" lon="24.736146">
        <ele>1191.6053380185022</ele>
      </trkpt>
      <trkpt lat="48.225873" lon="24.73664">
        <ele>1205.7757559984727</ele>
      </trkpt>
      <trkpt lat="48.227313" lon="24.73723">
        <ele>1204.951470221975</ele>
      </trkpt>
      <trkpt lat="48.228232" lon="24.737562">
        <ele>1203.0657585304489</ele>
      </trkpt>
      <trkpt lat="48.228678" lon="24.737916">
        <ele>1188.8775434269714</ele>
      </trkpt>
      <trkpt lat="48.229143" lon="24.738115">
        <ele>1189.4137398237995</ele>
      </trkpt>
      <trkpt lat="48.229509" lon="24.738152">
        <ele>1190.326174063608</ele>
      </trkpt>
      <trkpt lat="48.229745" lon="24.738135">
        <ele>1191.8960442746757</ele>
      </trkpt>
      <trkpt lat="48.229952" lon="24.73747">
        <ele>1191.4348784948234</ele>
      </trkpt>
      <trkpt lat="48.230181" lon="24.736832">
        <ele>1195.0473728286063</ele>
      </trkpt>
      <trkpt lat="48.23052" lon="24.736719">
        <ele>1203.444078788023</ele>
      </trkpt>
      <trkpt lat="48.230999" lon="24.736923">
        <ele>1206.6189378822453</ele>
      </trkpt>
      <trkpt lat="48.231614" lon="24.736955">
        <ele>1206.3778986670077</ele>
      </trkpt>
      <trkpt lat="48.232054" lon="24.736688">
        <ele>1200.673608859336</ele>
      </trkpt>
      <trkpt lat="48.232719" lon="24.73657">
        <ele>1188.5961881168187</ele>
      </trkpt>
      <trkpt lat="48.233584" lon="24.736141">
        <ele>1183.780973669607</ele>
      </trkpt>
      <trkpt lat="48.234127" lon="24.736184">
        <ele>1179.575372576546</ele>
      </trkpt>
      <trkpt lat="48.234888" lon="24.736602">
        <ele>1184.4409855143167</ele>
      </trkpt>
      <trkpt lat="48.235506" lon="24.736881">
        <ele>1164.4446540693157</ele>
      </trkpt>
      <trkpt lat="48.23581" lon="24.736978">
        <ele>1162.6581180817877</ele>
      </trkpt>
      <trkpt lat="48.236666" lon="24.737617">
        <ele>1158.8165087857017</ele>
      </trkpt>
      <trkpt lat="48.23736" lon="24.738202">
        <ele>1150.8074029518757</ele>
      </trkpt>
      <trkpt lat="48.237595" lon="24.738545">
        <ele>1146.0926672948644</ele>
      </trkpt>
      <trkpt lat="48.238267" lon="24.739897">
        <ele>1168.7768877429057</ele>
      </trkpt>
      <trkpt lat="48.238828" lon="24.740959">
        <ele>1199.0235552702607</ele>
      </trkpt>
      <trkpt lat="48.239418" lon="24.741324">
        <ele>1219.8003036425787</ele>
      </trkpt>
      <trkpt lat="48.239743" lon="24.741507">
        <ele>1231.152610589968</ele>
      </trkpt>
      <trkpt lat="48.239611" lon="24.741957">
        <ele>1247.9264048283662</ele>
      </trkpt>
      <trkpt lat="48.239589" lon="24.742343">
        <ele>1253.3950418753893</ele>
      </trkpt>
      <trkpt lat="48.239936" lon="24.742966">
        <ele>1279.1712358434452</ele>
      </trkpt>
      <trkpt lat="48.240236" lon="24.74318">
        <ele>1296.4680554452457</ele>
      </trkpt>
      <trkpt lat="48.240793" lon="24.743272">
        <ele>1310.5063670339316</ele>
      </trkpt>
      <trkpt lat="48.241069" lon="24.743861">
        <ele>1335.2826013567424</ele>
      </trkpt>
      <trkpt lat="48.241805" lon="24.74473">
        <ele>1376.9162228326313</ele>
      </trkpt>
      <trkpt lat="48.242076" lon="24.744998">
        <ele>1385.453754785462</ele>
      </trkpt>
      <trkpt lat="48.242241" lon="24.745416">
        <ele>1397.6141236829933</ele>
      </trkpt>
      <trkpt lat="48.243355" lon="24.746178">
        <ele>1426.2732906455249</ele>
      </trkpt>
      <trkpt lat="48.244384" lon="24.746382">
        <ele>1419.2988327111816</ele>
      </trkpt>
      <trkpt lat="48.244777" lon="24.746618">
        <ele>1419.8796916646043</ele>
      </trkpt>
      <trkpt lat="48.245056" lon="24.747305">
        <ele>1420.3744178000024</ele>
      </trkpt>
      <trkpt lat="48.244948" lon="24.747633">
        <ele>1426.0032835749462</ele>
      </trkpt>
      <trkpt lat="48.24359" lon="24.747396">
        <ele>1447.0929531094152</ele>
      </trkpt>
      <trkpt lat="48.242976" lon="24.747675">
        <ele>1457.4469337192131</ele>
      </trkpt>
      <trkpt lat="48.241975" lon="24.747869">
        <ele>1471.7250198112451</ele>
      </trkpt>
      <trkpt lat="48.241975" lon="24.747869">
        <ele>1471.7250198112451</ele>
      </trkpt>
      <trkpt lat="48.242976" lon="24.747675">
        <ele>1457.4469337192131</ele>
      </trkpt>
      <trkpt lat="48.24359" lon="24.747396">
        <ele>1447.0929531094152</ele>
      </trkpt>
      <trkpt lat="48.244948" lon="24.747633">
        <ele>1426.0032835749462</ele>
      </trkpt>
      <trkpt lat="48.245106" lon="24.747734">
        <ele>1423.5851768766465</ele>
      </trkpt>
      <trkpt lat="48.245415" lon="24.747785">
        <ele>1418.0599564325987</ele>
      </trkpt>
      <trkpt lat="48.246143" lon="24.74756">
        <ele>1413.103792304988</ele>
      </trkpt>
      <trkpt lat="48.246643" lon="24.747056">
        <ele>1410.072342915958</ele>
      </trkpt>
      <trkpt lat="48.248172" lon="24.746476">
        <ele>1427.5859560001409</ele>
      </trkpt>
      <trkpt lat="48.249056" lon="24.74609">
        <ele>1437.550165137652</ele>
      </trkpt>
      <trkpt lat="48.250063" lon="24.745993">
        <ele>1423.6019225021848</ele>
      </trkpt>
      <trkpt lat="48.250485" lon="24.745618">
        <ele>1423.4394403880842</ele>
      </trkpt>
      <trkpt lat="48.250849" lon="24.744803">
        <ele>1414.057011287543</ele>
      </trkpt>
      <trkpt lat="48.251063" lon="24.743944">
        <ele>1403.3330950867385</ele>
      </trkpt>
      <trkpt lat="48.251413" lon="24.742936">
        <ele>1387.2544403896713</ele>
      </trkpt>
      <trkpt lat="48.251592" lon="24.742013">
        <ele>1378.0085290668067</ele>
      </trkpt>
      <trkpt lat="48.252278" lon="24.74079">
        <ele>1380.5014250009158</ele>
      </trkpt>
      <trkpt lat="48.252933" lon="24.739238">
        <ele>1400.0093705403851</ele>
      </trkpt>
      <trkpt lat="48.254005" lon="24.736835">
        <ele>1404.019990570789</ele>
      </trkpt>
      <trkpt lat="48.254776" lon="24.73544">
        <ele>1390.4759036445257</ele>
      </trkpt>
      <trkpt lat="48.256233" lon="24.733767">
        <ele>1393.5837794322288</ele>
      </trkpt>
      <trkpt lat="48.257519" lon="24.733295">
        <ele>1386.9869485336822</ele>
      </trkpt>
      <trkpt lat="48.258134" lon="24.734174">
        <ele>1375.6470718992641</ele>
      </trkpt>
      <trkpt lat="48.259791" lon="24.735226">
        <ele>1375.582430972675</ele>
      </trkpt>
      <trkpt lat="48.260962" lon="24.73632">
        <ele>1343.4852147072088</ele>
      </trkpt>
      <trkpt lat="48.260991" lon="24.736835">
        <ele>1336.1842759114538</ele>
      </trkpt>
      <trkpt lat="48.261176" lon="24.737028">
        <ele>1329.2889294304032</ele>
      </trkpt>
      <trkpt lat="48.261276" lon="24.737393">
        <ele>1319.4977977893354</ele>
      </trkpt>
      <trkpt lat="48.261605" lon="24.737608">
        <ele>1305.2555933879476</ele>
      </trkpt>
      <trkpt lat="48.262462" lon="24.738831">
        <ele>1290.6799689515212</ele>
      </trkpt>
      <trkpt lat="48.26369" lon="24.739474">
        <ele>1285.3903587084505</ele>
      </trkpt>
      <trkpt lat="48.265276" lon="24.74005">
        <ele>1286.4157444572775</ele>
      </trkpt>
      <trkpt lat="48.26559" lon="24.739922">
        <ele>1289.938238821433</ele>
      </trkpt>
      <trkpt lat="48.266447" lon="24.740565">
        <ele>1293.8607081612356</ele>
      </trkpt>
      <trkpt lat="48.268761" lon="24.740115">
        <ele>1299.5074418933361</ele>
      </trkpt>
      <trkpt lat="48.2702" lon="24.740018">
        <ele>1292.5437206156541</ele>
      </trkpt>
      <trkpt lat="48.270799" lon="24.739567">
        <ele>1292.3603211650689</ele>
      </trkpt>
      <trkpt lat="48.271185" lon="24.738816">
        <ele>1292.8170199172257</ele>
      </trkpt>
      <trkpt lat="48.271542" lon="24.738001">
        <ele>1292.1659388067014</ele>
      </trkpt>
      <trkpt lat="48.271928" lon="24.736112">
        <ele>1296.544913349091</ele>
      </trkpt>
      <trkpt lat="48.273173" lon="24.736007">
        <ele>1295.9428528055453</ele>
      </trkpt>
      <trkpt lat="48.274358" lon="24.735556">
        <ele>1301.1937689516926</ele>
      </trkpt>
      <trkpt lat="48.275215" lon="24.734977">
        <ele>1307.4420557520934</ele>
      </trkpt>
      <trkpt lat="48.275858" lon="24.733668">
        <ele>1311.3242809708463</ele>
      </trkpt>
      <trkpt lat="48.2765" lon="24.73208">
        <ele>1320.7706270883791</ele>
      </trkpt>
      <trkpt lat="48.277685" lon="24.729849">
        <ele>1331.4552417385858</ele>
      </trkpt>
      <trkpt lat="48.278342" lon="24.727295">
        <ele>1341.701286909286</ele>
      </trkpt>
      <trkpt lat="48.278157" lon="24.72545">
        <ele>1343.623158357751</ele>
      </trkpt>
      <trkpt lat="48.2773" lon="24.724763">
        <ele>1339.6665867298452</ele>
      </trkpt>
      <trkpt lat="48.276943" lon="24.723004">
        <ele>1342.3730690206867</ele>
      </trkpt>
      <trkpt lat="48.275743" lon="24.7203">
        <ele>1314.6812344761565</ele>
      </trkpt>
      <trkpt lat="48.274886" lon="24.719013">
        <ele>1310.9108174162302</ele>
      </trkpt>
      <trkpt lat="48.273018" lon="24.71735">
        <ele>1356.8733542581215</ele>
      </trkpt>
      <trkpt lat="48.272939" lon="24.715805">
        <ele>1371.103534127702</ele>
      </trkpt>
      <trkpt lat="48.272968" lon="24.714904">
        <ele>1377.6200750370044</ele>
      </trkpt>
      <trkpt lat="48.272961" lon="24.714367">
        <ele>1382.09801967768</ele>
      </trkpt>
      <trkpt lat="48.272654" lon="24.71353">
        <ele>1386.3895413139253</ele>
      </trkpt>
      <trkpt lat="48.271904" lon="24.712702">
        <ele>1387.63891342636</ele>
      </trkpt>
      <trkpt lat="48.271597" lon="24.710888">
        <ele>1389.0538766045102</ele>
      </trkpt>
      <trkpt lat="48.27164" lon="24.708453">
        <ele>1369.0318635956771</ele>
      </trkpt>
      <trkpt lat="48.271576" lon="24.707026">
        <ele>1377.0309605191223</ele>
      </trkpt>
      <trkpt lat="48.271226" lon="24.704247">
        <ele>1338.8517538451124</ele>
      </trkpt>
      <trkpt lat="48.270761" lon="24.702874">
        <ele>1310.5734222211051</ele>
      </trkpt>
      <trkpt lat="48.270669" lon="24.700514">
        <ele>1279.8088141826447</ele>
      </trkpt>
      <trkpt lat="48.270854" lon="24.699033">
        <ele>1253.0747871146875</ele>
      </trkpt>
      <trkpt lat="48.271347" lon="24.696877">
        <ele>1255.4999559056782</ele>
      </trkpt>
      <trkpt lat="48.271711" lon="24.695535">
        <ele>1262.052291632771</ele>
      </trkpt>
      <trkpt lat="48.271833" lon="24.694076">
        <ele>1225.2595542932395</ele>
      </trkpt>
      <trkpt lat="48.271983" lon="24.693679">
        <ele>1220.8169647354248</ele>
      </trkpt>
      <trkpt lat="48.272404" lon="24.693304">
        <ele>1231.791210744687</ele>
      </trkpt>
      <trkpt lat="48.272297" lon="24.692542">
        <ele>1223.6557845600435</ele>
      </trkpt>
      <trkpt lat="48.27199" lon="24.691737">
        <ele>1215.2386441885117</ele>
      </trkpt>
      <trkpt lat="48.271811" lon="24.691062">
        <ele>1210.942007882637</ele>
      </trkpt>
      <trkpt lat="48.27184" lon="24.690978">
        <ele>1211.4404885638507</ele>
      </trkpt>
      <trkpt lat="48.271389" lon="24.689362">
        <ele>1233.8491668430506</ele>
      </trkpt>
      <trkpt lat="48.270046" lon="24.687409">
        <ele>1257.247115998235</ele>
      </trkpt>
      <trkpt lat="48.269504" lon="24.686572">
        <ele>1260.0221142622177</ele>
      </trkpt>
      <trkpt lat="48.268904" lon="24.68419">
        <ele>1280.1716867984505</ele>
      </trkpt>
      <trkpt lat="48.269346" lon="24.681336">
        <ele>1299.7549414464702</ele>
      </trkpt>
      <trkpt lat="48.269946" lon="24.67859">
        <ele>1312.0845143676831</ele>
      </trkpt>
      <trkpt lat="48.270289" lon="24.67668">
        <ele>1323.5557834425554</ele>
      </trkpt>
      <trkpt lat="48.270446" lon="24.6755">
        <ele>1327.119150917903</ele>
      </trkpt>
      <trkpt lat="48.269961" lon="24.674727">
        <ele>1320.5089882095508</ele>
      </trkpt>
      <trkpt lat="48.268618" lon="24.674406">
        <ele>1313.6887428882906</ele>
      </trkpt>
      <trkpt lat="48.267561" lon="24.673311">
        <ele>1294.7280445140786</ele>
      </trkpt>
      <trkpt lat="48.266261" lon="24.673097">
        <ele>1281.8449566227498</ele>
      </trkpt>
      <trkpt lat="48.265533" lon="24.67314">
        <ele>1282.2201437834883</ele>
      </trkpt>
      <trkpt lat="48.267275" lon="24.67226">
        <ele>1267.0677307455576</ele>
      </trkpt>
      <trkpt lat="48.267361" lon="24.671938">
        <ele>1258.2305007183459</ele>
      </trkpt>
      <trkpt lat="48.266818" lon="24.672131">
        <ele>1248.9799543217746</ele>
      </trkpt>
      <trkpt lat="48.265576" lon="24.671917">
        <ele>1241.2703183066233</ele>
      </trkpt>
      <trkpt lat="48.264969" lon="24.671826">
        <ele>1235.7720787574758</ele>
      </trkpt>
      <trkpt lat="48.264084" lon="24.671139">
        <ele>1214.3549896902446</ele>
      </trkpt>
      <trkpt lat="48.263013" lon="24.67129">
        <ele>1203.2906069899327</ele>
      </trkpt>
      <trkpt lat="48.261998" lon="24.671118">
        <ele>1191.4455404762411</ele>
      </trkpt>
      <trkpt lat="48.261241" lon="24.670624">
        <ele>1183.6056974268113</ele>
      </trkpt>
      <trkpt lat="48.260613" lon="24.66938">
        <ele>1188.782266686335</ele>
      </trkpt>
      <trkpt lat="48.259827" lon="24.668828">
        <ele>1186.5848840635836</ele>
      </trkpt>
      <trkpt lat="48.259556" lon="24.66812">
        <ele>1185.2441143333183</ele>
      </trkpt>
      <trkpt lat="48.259598" lon="24.667004">
        <ele>1187.7867427556776</ele>
      </trkpt>
      <trkpt lat="48.259584" lon="24.666188">
        <ele>1188.9672198594703</ele>
      </trkpt>
      <trkpt lat="48.258984" lon="24.665416">
        <ele>1187.4904555630155</ele>
      </trkpt>
      <trkpt lat="48.25877" lon="24.664644">
        <ele>1197.034032390453</ele>
      </trkpt>
      <trkpt lat="48.258956" lon="24.661876">
        <ele>1211.3366895680454</ele>
      </trkpt>
      <trkpt lat="48.259868" lon="24.659219">
        <ele>1210.692293892337</ele>
      </trkpt>
      <trkpt lat="48.258282" lon="24.660292">
        <ele>1253.0098856718396</ele>
      </trkpt>
      <trkpt lat="48.257482" lon="24.661858">
        <ele>1242.1833830064254</ele>
      </trkpt>
      <trkpt lat="48.256715" lon="24.663358">
        <ele>1236.5</ele>
      </trkpt>
      <trkpt lat="48.254915" lon="24.664345">
        <ele>1249.8865130389627</ele>
      </trkpt>
      <trkpt lat="48.252958" lon="24.666276">
        <ele>1289.0074545012844</ele>
      </trkpt>
      <trkpt lat="48.252644" lon="24.667156">
        <ele>1286.9069489483109</ele>
      </trkpt>
      <trkpt lat="48.251572" lon="24.668229">
        <ele>1290.15212400374</ele>
      </trkpt>
      <trkpt lat="48.250307" lon="24.668229">
        <ele>1307.7755746087134</ele>
      </trkpt>
      <trkpt lat="48.24905" lon="24.667885">
        <ele>1335.21878596046</ele>
      </trkpt>
      <trkpt lat="48.248249" lon="24.668057">
        <ele>1356.0723407305777</ele>
      </trkpt>
      <trkpt lat="48.247878" lon="24.667521">
        <ele>1367.4603291050717</ele>
      </trkpt>
      <trkpt lat="48.246077" lon="24.669814">
        <ele>1373.108644057203</ele>
      </trkpt>
      <trkpt lat="48.245106" lon="24.671573">
        <ele>1348.0405933022048</ele>
      </trkpt>
      <trkpt lat="48.24382" lon="24.673376">
        <ele>1354.1422231315173</ele>
      </trkpt>
      <trkpt lat="48.242691" lon="24.674491">
        <ele>1357.4493423259207</ele>
      </trkpt>
      <trkpt lat="48.241819" lon="24.675929">
        <ele>1334.2927060157153</ele>
      </trkpt>
      <trkpt lat="48.241305" lon="24.677045">
        <ele>1318.7220525125472</ele>
      </trkpt>
      <trkpt lat="48.240047" lon="24.678461">
        <ele>1313.5448765618494</ele>
      </trkpt>
      <trkpt lat="48.238769" lon="24.679972">
        <ele>1312.3455055920538</ele>
      </trkpt>
      <trkpt lat="48.23814" lon="24.680401">
        <ele>1313.2245805525454</ele>
      </trkpt>
      <trkpt lat="48.237197" lon="24.681238">
        <ele>1328.3578910668582</ele>
      </trkpt>
      <trkpt lat="48.23451" lon="24.685229">
        <ele>1347.8170586401473</ele>
      </trkpt>
      <trkpt lat="48.234196" lon="24.685422">
        <ele>1349.6345774588408</ele>
      </trkpt>
      <trkpt lat="48.234024" lon="24.685058">
        <ele>1346.9515420965308</ele>
      </trkpt>
      <trkpt lat="48.233395" lon="24.6845">
        <ele>1332.0910542952715</ele>
      </trkpt>
      <trkpt lat="48.233052" lon="24.683641">
        <ele>1318.5418251555104</ele>
      </trkpt>
      <trkpt lat="48.232695" lon="24.682805">
        <ele>1290.4957382852444</ele>
      </trkpt>
      <trkpt lat="48.232352" lon="24.682053">
        <ele>1258.3080104446574</ele>
      </trkpt>
      <trkpt lat="48.231509" lon="24.680509">
        <ele>1214.163329489502</ele>
      </trkpt>
      <trkpt lat="48.230908" lon="24.680144">
        <ele>1183.980573809685</ele>
      </trkpt>
      <trkpt lat="48.229965" lon="24.679135">
        <ele>1165.2350599875472</ele>
      </trkpt>
      <trkpt lat="48.22945" lon="24.678449">
        <ele>1149.4452632119287</ele>
      </trkpt>
      <trkpt lat="48.228993" lon="24.677912">
        <ele>1134.2647472823437</ele>
      </trkpt>
      <trkpt lat="48.228721" lon="24.676818">
        <ele>1125.4172297208734</ele>
      </trkpt>
      <trkpt lat="48.228621" lon="24.675981">
        <ele>1123.9016732553737</ele>
      </trkpt>
      <trkpt lat="48.228535" lon="24.675015">
        <ele>1120.672580110418</ele>
      </trkpt>
      <trkpt lat="48.228164" lon="24.674758">
        <ele>1116.06303733036</ele>
      </trkpt>
      <trkpt lat="48.22752" lon="24.674522">
        <ele>1102.6280699578929</ele>
      </trkpt>
      <trkpt lat="48.226906" lon="24.674457">
        <ele>1094.888823059421</ele>
      </trkpt>
      <trkpt lat="48.226091" lon="24.673642">
        <ele>1081.2581580450799</ele>
      </trkpt>
      <trkpt lat="48.225205" lon="24.671861">
        <ele>1084.1888305046307</ele>
      </trkpt>
      <trkpt lat="48.225019" lon="24.670724">
        <ele>1078.7533884523436</ele>
      </trkpt>
      <trkpt lat="48.22409" lon="24.670638">
        <ele>1066.4758529831975</ele>
      </trkpt>
      <trkpt lat="48.223118" lon="24.670381">
        <ele>1051.4061877463246</ele>
      </trkpt>
      <trkpt lat="48.222002" lon="24.669737">
        <ele>1029.0174183063343</ele>
      </trkpt>
      <trkpt lat="48.221431" lon="24.669522">
        <ele>1019.5241169033561</ele>
      </trkpt>
      <trkpt lat="48.220659" lon="24.669715">
        <ele>1008.852428477956</ele>
      </trkpt>
      <trkpt lat="48.219758" lon="24.670187">
        <ele>996.7826429757271</ele>
      </trkpt>
      <trkpt lat="48.218771" lon="24.670724">
        <ele>980.3291393180732</ele>
      </trkpt>
      <trkpt lat="48.217928" lon="24.670531">
        <ele>975.7404785777908</ele>
      </trkpt>
      <trkpt lat="48.217242" lon="24.670338">
        <ele>982.4020552347646</ele>
      </trkpt>
      <trkpt lat="48.216627" lon="24.670273">
        <ele>983.9100881798659</ele>
      </trkpt>
      <trkpt lat="48.215998" lon="24.669222">
        <ele>968.7601771447609</ele>
      </trkpt>
    </trkseg>
  </trk>
</gpx>
