<?xml version="1.0" encoding="UTF-8"?>
<gpx version="1.1" creator="phpGPX/1.0RC5" schemaLocation="http://www.topografix.com/GPX/1/1 http://www.topografix.com/GPX/1/1/gpx.xsd http://www.garmin.com/xmlschemas/GpxExtensions/v3 http://www.garmin.com/xmlschemas/GpxExtensionsv3.xsd http://www.garmin.com/xmlschemas/TrackPointExtension/v1 http://www.garmin.com/xmlschemas/TrackPointExtensionv1.xsd http://www.garmin.com/xmlschemas/PowerExtension/v1 http://www.garmin.com/xmlschemas/PowerExtensionv1.xsd http://www.topografix.com/GPX/gpx_style/0/2 http://www.topografix.com/GPX/gpx_style/0/2/gpx_style.xsd" xmlns="http://www.topografix.com/GPX/1/1" xmlns:xsi="http://www.w3.org/2001/XMLSchema-instance" xsi:schemaLocation="http://www.topografix.com/GPX/1/1 http://www.topografix.com/GPX/1/1/gpx.xsd http://www.garmin.com/xmlschemas/GpxExtensions/v3 http://www.garmin.com/xmlschemas/GpxExtensionsv3.xsd http://www.garmin.com/xmlschemas/TrackPointExtension/v1 http://www.garmin.com/xmlschemas/TrackPointExtensionv1.xsd http://www.garmin.com/xmlschemas/PowerExtension/v1 http://www.garmin.com/xmlschemas/PowerExtensionv1.xsd http://www.topografix.com/GPX/gpx_style/0/2 http://www.topografix.com/GPX/gpx_style/0/2/gpx_style.xsd" xmlns:gpxtpx="http://www.garmin.com/xmlschemas/TrackPointExtension/v1" xmlns:gpxx="http://www.garmin.com/xmlschemas/GpxExtensions/v3" xmlns:gpxpx="http://www.garmin.com/xmlschemas/PowerExtension/v1" xmlns:gpx_style="http://www.topografix.com/GPX/gpx_style/0/2">
  <metadata>
    <name>Свидівець - Горгани  с Кваси - с Бистриця</name>
    <author>
      <name>gpx.studio</name>
      <link href="https://gpx.studio"/>
    </author>
  </metadata>
  <trk>
    <name>Свидівець - Горгани  с Кваси - с Бистриця</name>
    <trkseg>
      <trkpt lat="48.162525" lon="24.277962">
        <ele>551.5996467837831</ele>
      </trkpt>
      <trkpt lat="48.162553" lon="24.277715">
        <ele>556.2234114479506</ele>
      </trkpt>
      <trkpt lat="48.162818" lon="24.277512">
        <ele>560.0704880794123</ele>
      </trkpt>
      <trkpt lat="48.162239" lon="24.277147">
        <ele>576.4701551711607</ele>
      </trkpt>
      <trkpt lat="48.162124" lon="24.276589">
        <ele>586.4683661272848</ele>
      </trkpt>
      <trkpt lat="48.160972" lon="24.276417">
        <ele>607.8892343362677</ele>
      </trkpt>
      <trkpt lat="48.160485" lon="24.276192">
        <ele>622.6920568394125</ele>
      </trkpt>
      <trkpt lat="48.159489" lon="24.275945">
        <ele>649.0514764483547</ele>
      </trkpt>
      <trkpt lat="48.158501" lon="24.275838">
        <ele>649.7487035766803</ele>
      </trkpt>
      <trkpt lat="48.15795" lon="24.275548">
        <ele>651.1580346844858</ele>
      </trkpt>
      <trkpt lat="48.157685" lon="24.275108">
        <ele>654.7772593664091</ele>
      </trkpt>
      <trkpt lat="48.15722" lon="24.274679">
        <ele>663.1054094049972</ele>
      </trkpt>
      <trkpt lat="48.156977" lon="24.273864">
        <ele>677.8805180477211</ele>
      </trkpt>
      <trkpt lat="48.156406" lon="24.274126">
        <ele>684.3668034151382</ele>
      </trkpt>
      <trkpt lat="48.155597" lon="24.272731">
        <ele>710.8124603053883</ele>
      </trkpt>
      <trkpt lat="48.154824" lon="24.272398">
        <ele>725.588155792153</ele>
      </trkpt>
      <trkpt lat="48.154094" lon="24.271583">
        <ele>741.4727576680489</ele>
      </trkpt>
      <trkpt lat="48.154252" lon="24.270479">
        <ele>759.1505970865255</ele>
      </trkpt>
      <trkpt lat="48.153779" lon="24.269921">
        <ele>771.7665993943881</ele>
      </trkpt>
      <trkpt lat="48.153135" lon="24.268698">
        <ele>801.7305152002955</ele>
      </trkpt>
      <trkpt lat="48.152412" lon="24.268269">
        <ele>813.4755989337573</ele>
      </trkpt>
      <trkpt lat="48.151356" lon="24.267339">
        <ele>836.8988798703067</ele>
      </trkpt>
      <trkpt lat="48.150719" lon="24.267296">
        <ele>844.3750351349277</ele>
      </trkpt>
      <trkpt lat="48.149953" lon="24.267082">
        <ele>856.8309894429956</ele>
      </trkpt>
      <trkpt lat="48.14928" lon="24.267275">
        <ele>865.3059440947743</ele>
      </trkpt>
      <trkpt lat="48.148529" lon="24.267135">
        <ele>874.4332020065373</ele>
      </trkpt>
      <trkpt lat="48.148429" lon="24.26676">
        <ele>877.6904301494361</ele>
      </trkpt>
      <trkpt lat="48.148973" lon="24.265784">
        <ele>894.7239632107867</ele>
      </trkpt>
      <trkpt lat="48.149444" lon="24.265166">
        <ele>905.311911216551</ele>
      </trkpt>
      <trkpt lat="48.150153" lon="24.263643">
        <ele>929.2175040744478</ele>
      </trkpt>
      <trkpt lat="48.150704" lon="24.263503">
        <ele>943.3307287564967</ele>
      </trkpt>
      <trkpt lat="48.150975" lon="24.263195">
        <ele>952.9633677918246</ele>
      </trkpt>
      <trkpt lat="48.150717" lon="24.262315">
        <ele>968.4750575681378</ele>
      </trkpt>
      <trkpt lat="48.150445" lon="24.259772">
        <ele>1016.3787338176626</ele>
      </trkpt>
      <trkpt lat="48.149916" lon="24.256661">
        <ele>1081.3568606454708</ele>
      </trkpt>
      <trkpt lat="48.150596" lon="24.25547">
        <ele>1080.2218711709138</ele>
      </trkpt>
      <trkpt lat="48.151257" lon="24.255266">
        <ele>1075.0454024965063</ele>
      </trkpt>
      <trkpt lat="48.151579" lon="24.254998">
        <ele>1078.5150509625673</ele>
      </trkpt>
      <trkpt lat="48.152144" lon="24.254966">
        <ele>1081.7089678222546</ele>
      </trkpt>
      <trkpt lat="48.152874" lon="24.254912">
        <ele>1079.290940148989</ele>
      </trkpt>
      <trkpt lat="48.154837" lon="24.253617">
        <ele>1059.4623152883732</ele>
      </trkpt>
      <trkpt lat="48.155817" lon="24.253155">
        <ele>1051.1319254488787</ele>
      </trkpt>
      <trkpt lat="48.156977" lon="24.252544">
        <ele>1046.3102996745147</ele>
      </trkpt>
      <trkpt lat="48.157665" lon="24.252073">
        <ele>1049.5652843488847</ele>
      </trkpt>
      <trkpt lat="48.15808" lon="24.252041">
        <ele>1053.2492696099216</ele>
      </trkpt>
      <trkpt lat="48.158767" lon="24.251794">
        <ele>1062.1026380889816</ele>
      </trkpt>
      <trkpt lat="48.159568" lon="24.251333">
        <ele>1065.372911644401</ele>
      </trkpt>
      <trkpt lat="48.160105" lon="24.250507">
        <ele>1066.564294973938</ele>
      </trkpt>
      <trkpt lat="48.160674" lon="24.249992">
        <ele>1062.2211427555885</ele>
      </trkpt>
      <trkpt lat="48.161762" lon="24.248382">
        <ele>1074.8605487301827</ele>
      </trkpt>
      <trkpt lat="48.162535" lon="24.246473">
        <ele>1109.6195907328604</ele>
      </trkpt>
      <trkpt lat="48.162377" lon="24.245185">
        <ele>1132.0446807051776</ele>
      </trkpt>
      <trkpt lat="48.162692" lon="24.243061">
        <ele>1169.8011477333494</ele>
      </trkpt>
      <trkpt lat="48.16275" lon="24.24055">
        <ele>1199.7724019660382</ele>
      </trkpt>
      <trkpt lat="48.162234" lon="24.239005">
        <ele>1220.3424426665297</ele>
      </trkpt>
      <trkpt lat="48.163222" lon="24.238169">
        <ele>1235.2114786705351</ele>
      </trkpt>
      <trkpt lat="48.163553" lon="24.237961">
        <ele>1238.66587770933</ele>
      </trkpt>
      <trkpt lat="48.164569" lon="24.236395">
        <ele>1255.3726321738213</ele>
      </trkpt>
      <trkpt lat="48.167203" lon="24.234506">
        <ele>1258.756674168515</ele>
      </trkpt>
      <trkpt lat="48.168202" lon="24.232275">
        <ele>1267.5233904429756</ele>
      </trkpt>
      <trkpt lat="48.169962" lon="24.230429">
        <ele>1268.583505802689</ele>
      </trkpt>
      <trkpt lat="48.170506" lon="24.229142">
        <ele>1274.9261536492268</ele>
      </trkpt>
      <trkpt lat="48.17145" lon="24.225966">
        <ele>1292.410907205848</ele>
      </trkpt>
      <trkpt lat="48.171837" lon="24.224306">
        <ele>1309.0443993617082</ele>
      </trkpt>
      <trkpt lat="48.171837" lon="24.222182">
        <ele>1346.0256507715674</ele>
      </trkpt>
      <trkpt lat="48.172066" lon="24.220894">
        <ele>1368.4685856142314</ele>
      </trkpt>
      <trkpt lat="48.172953" lon="24.217418">
        <ele>1410.9884050692885</ele>
      </trkpt>
      <trkpt lat="48.173566" lon="24.216786">
        <ele>1417.165525687742</ele>
      </trkpt>
      <trkpt lat="48.174553" lon="24.215499">
        <ele>1429.9754562026937</ele>
      </trkpt>
      <trkpt lat="48.175884" lon="24.214469">
        <ele>1431.603671314875</ele>
      </trkpt>
      <trkpt lat="48.176871" lon="24.213074">
        <ele>1423.6576328719912</ele>
      </trkpt>
      <trkpt lat="48.17793" lon="24.211868">
        <ele>1441.491724921898</ele>
      </trkpt>
      <trkpt lat="48.17929" lon="24.210774">
        <ele>1462.1663074582289</ele>
      </trkpt>
      <trkpt lat="48.180134" lon="24.209679">
        <ele>1462.8593438303794</ele>
      </trkpt>
      <trkpt lat="48.181336" lon="24.209164">
        <ele>1469.2200900206808</ele>
      </trkpt>
      <trkpt lat="48.182283" lon="24.21043">
        <ele>1455.7884912931477</ele>
      </trkpt>
      <trkpt lat="48.183457" lon="24.211353">
        <ele>1411.4735384414205</ele>
      </trkpt>
      <trkpt lat="48.184243" lon="24.211224">
        <ele>1389.7344405678623</ele>
      </trkpt>
      <trkpt lat="48.184472" lon="24.211031">
        <ele>1381.7462722455698</ele>
      </trkpt>
      <trkpt lat="48.184959" lon="24.210237">
        <ele>1361.401468024933</ele>
      </trkpt>
      <trkpt lat="48.18529" lon="24.210344">
        <ele>1357.7870352018438</ele>
      </trkpt>
      <trkpt lat="48.185619" lon="24.210902">
        <ele>1359.8400972714949</ele>
      </trkpt>
      <trkpt lat="48.186005" lon="24.211246">
        <ele>1355.599631256754</ele>
      </trkpt>
      <trkpt lat="48.186305" lon="24.211689">
        <ele>1354.8576536398637</ele>
      </trkpt>
      <trkpt lat="48.186806" lon="24.211904">
        <ele>1343.226812412416</ele>
      </trkpt>
      <trkpt lat="48.187101" lon="24.211911">
        <ele>1337.9352246711496</ele>
      </trkpt>
      <trkpt lat="48.187401" lon="24.212479">
        <ele>1338.7353683130814</ele>
      </trkpt>
      <trkpt lat="48.18768" lon="24.212951">
        <ele>1334.9643806136446</ele>
      </trkpt>
      <trkpt lat="48.18816" lon="24.213638">
        <ele>1331.8013912014062</ele>
      </trkpt>
      <trkpt lat="48.188903" lon="24.215054">
        <ele>1327.6346062374075</ele>
      </trkpt>
      <trkpt lat="48.189629" lon="24.215535">
        <ele>1313.045558858735</ele>
      </trkpt>
      <trkpt lat="48.190402" lon="24.215374">
        <ele>1316.540072423406</ele>
      </trkpt>
      <trkpt lat="48.191139" lon="24.21458">
        <ele>1324.427615384804</ele>
      </trkpt>
      <trkpt lat="48.191324" lon="24.213872">
        <ele>1322.2740542283866</ele>
      </trkpt>
      <trkpt lat="48.191811" lon="24.213035">
        <ele>1327.049861905061</ele>
      </trkpt>
      <trkpt lat="48.192397" lon="24.212756">
        <ele>1333.8733904303883</ele>
      </trkpt>
      <trkpt lat="48.19244" lon="24.213078">
        <ele>1341.3953287955374</ele>
      </trkpt>
      <trkpt lat="48.192641" lon="24.213142">
        <ele>1346.712893845688</ele>
      </trkpt>
      <trkpt lat="48.192955" lon="24.213013">
        <ele>1353.5697118751705</ele>
      </trkpt>
      <trkpt lat="48.193327" lon="24.212091">
        <ele>1346.422017560978</ele>
      </trkpt>
      <trkpt lat="48.193656" lon="24.212348">
        <ele>1355.3156937356384</ele>
      </trkpt>
      <trkpt lat="48.194543" lon="24.212734">
        <ele>1361.7715390793746</ele>
      </trkpt>
      <trkpt lat="48.195258" lon="24.212885">
        <ele>1362.9269642282968</ele>
      </trkpt>
      <trkpt lat="48.195559" lon="24.212563">
        <ele>1360.2041237748304</ele>
      </trkpt>
      <trkpt lat="48.195845" lon="24.212949">
        <ele>1367.4529903198127</ele>
      </trkpt>
      <trkpt lat="48.195988" lon="24.213164">
        <ele>1373.0477041788831</ele>
      </trkpt>
      <trkpt lat="48.196188" lon="24.213292">
        <ele>1377.9426347602857</ele>
      </trkpt>
      <trkpt lat="48.196431" lon="24.213443">
        <ele>1384.0915521970019</ele>
      </trkpt>
      <trkpt lat="48.196803" lon="24.212992">
        <ele>1382.9290921958907</ele>
      </trkpt>
      <trkpt lat="48.19727" lon="24.213448">
        <ele>1389.4642707416697</ele>
      </trkpt>
      <trkpt lat="48.197413" lon="24.215014">
        <ele>1396.3400559785077</ele>
      </trkpt>
      <trkpt lat="48.197127" lon="24.216795">
        <ele>1409.1837992181784</ele>
      </trkpt>
      <trkpt lat="48.196927" lon="24.218619">
        <ele>1426.5646633072804</ele>
      </trkpt>
      <trkpt lat="48.197714" lon="24.219821">
        <ele>1437.6129155942535</ele>
      </trkpt>
      <trkpt lat="48.198329" lon="24.220421">
        <ele>1451.5110063931822</ele>
      </trkpt>
      <trkpt lat="48.199015" lon="24.220314">
        <ele>1462.6740110369929</ele>
      </trkpt>
      <trkpt lat="48.199988" lon="24.223511">
        <ele>1501.475781904184</ele>
      </trkpt>
      <trkpt lat="48.20086" lon="24.225314">
        <ele>1536.0212555960752</ele>
      </trkpt>
      <trkpt lat="48.201561" lon="24.227588">
        <ele>1558.9323820897844</ele>
      </trkpt>
      <trkpt lat="48.202519" lon="24.228854">
        <ele>1563.260048720973</ele>
      </trkpt>
      <trkpt lat="48.20342" lon="24.229455">
        <ele>1549.2631055675974</ele>
      </trkpt>
      <trkpt lat="48.204607" lon="24.230035">
        <ele>1534.0942634378778</ele>
      </trkpt>
      <trkpt lat="48.205769" lon="24.231821">
        <ele>1551.22618935982</ele>
      </trkpt>
      <trkpt lat="48.207085" lon="24.232936">
        <ele>1601.3335702851764</ele>
      </trkpt>
      <trkpt lat="48.208801" lon="24.234524">
        <ele>1656.2164156452054</ele>
      </trkpt>
      <trkpt lat="48.210174" lon="24.236112">
        <ele>1712.3044031072059</ele>
      </trkpt>
      <trkpt lat="48.211575" lon="24.237228">
        <ele>1773.1229112958536</ele>
      </trkpt>
      <trkpt lat="48.212776" lon="24.237915">
        <ele>1822.0791372327367</ele>
      </trkpt>
      <trkpt lat="48.213863" lon="24.238086">
        <ele>1853.8079849984497</ele>
      </trkpt>
      <trkpt lat="48.214549" lon="24.238129">
        <ele>1864.4940370825402</ele>
      </trkpt>
      <trkpt lat="48.216293" lon="24.237786">
        <ele>1873.3667315989733</ele>
      </trkpt>
      <trkpt lat="48.216405" lon="24.237827">
        <ele>1873.5</ele>
      </trkpt>
      <trkpt lat="48.218311" lon="24.236175">
        <ele>1814.9404480319167</ele>
      </trkpt>
      <trkpt lat="48.219569" lon="24.234587">
        <ele>1797.2379506053728</ele>
      </trkpt>
      <trkpt lat="48.220584" lon="24.233707">
        <ele>1811.871528878299</ele>
      </trkpt>
      <trkpt lat="48.221744" lon="24.23229">
        <ele>1851.3390607783758</ele>
      </trkpt>
      <trkpt lat="48.222559" lon="24.231174">
        <ele>1873.0317034709683</ele>
      </trkpt>
      <trkpt lat="48.223117" lon="24.229264">
        <ele>1844.8764255907565</ele>
      </trkpt>
      <trkpt lat="48.224317" lon="24.229607">
        <ele>1807.4589200871128</ele>
      </trkpt>
      <trkpt lat="48.225861" lon="24.229135">
        <ele>1765.8368603178778</ele>
      </trkpt>
      <trkpt lat="48.227305" lon="24.22832">
        <ele>1777.2638171603903</ele>
      </trkpt>
      <trkpt lat="48.227748" lon="24.228835">
        <ele>1785.3103044554666</ele>
      </trkpt>
      <trkpt lat="48.227877" lon="24.229586">
        <ele>1754.16763660055</ele>
      </trkpt>
      <trkpt lat="48.228148" lon="24.229565">
        <ele>1762.431989578481</ele>
      </trkpt>
      <trkpt lat="48.228606" lon="24.229886">
        <ele>1750.9017993039217</ele>
      </trkpt>
      <trkpt lat="48.228919" lon="24.2301">
        <ele>1748.0894623642293</ele>
      </trkpt>
      <trkpt lat="48.22962" lon="24.230873">
        <ele>1746.7454621134686</ele>
      </trkpt>
      <trkpt lat="48.230277" lon="24.230937">
        <ele>1744.2467030766293</ele>
      </trkpt>
      <trkpt lat="48.231549" lon="24.230379">
        <ele>1754.2924376770388</ele>
      </trkpt>
      <trkpt lat="48.232235" lon="24.230572">
        <ele>1761.536089652999</ele>
      </trkpt>
      <trkpt lat="48.232593" lon="24.230465">
        <ele>1756.2872675117105</ele>
      </trkpt>
      <trkpt lat="48.233822" lon="24.230594">
        <ele>1726.5884179631248</ele>
      </trkpt>
      <trkpt lat="48.234136" lon="24.230482">
        <ele>1718.9689744821687</ele>
      </trkpt>
      <trkpt lat="48.234751" lon="24.230654">
        <ele>1702.9259304082577</ele>
      </trkpt>
      <trkpt lat="48.236066" lon="24.230439">
        <ele>1676.410649097059</ele>
      </trkpt>
      <trkpt lat="48.237938" lon="24.231105">
        <ele>1633.1828214415582</ele>
      </trkpt>
      <trkpt lat="48.238867" lon="24.230976">
        <ele>1606.7413591526843</ele>
      </trkpt>
      <trkpt lat="48.240788" lon="24.231078">
        <ele>1554.126994248014</ele>
      </trkpt>
      <trkpt lat="48.241617" lon="24.230198">
        <ele>1550.867906886594</ele>
      </trkpt>
      <trkpt lat="48.24291" lon="24.227806">
        <ele>1559.5004542186757</ele>
      </trkpt>
      <trkpt lat="48.244747" lon="24.226228">
        <ele>1552.9945544356665</ele>
      </trkpt>
      <trkpt lat="48.245469" lon="24.22537">
        <ele>1549.399902869831</ele>
      </trkpt>
      <trkpt lat="48.247455" lon="24.223654">
        <ele>1558.6979446409775</ele>
      </trkpt>
      <trkpt lat="48.248884" lon="24.220864">
        <ele>1572.713842150011</ele>
      </trkpt>
      <trkpt lat="48.24987" lon="24.219426">
        <ele>1583.221285084379</ele>
      </trkpt>
      <trkpt lat="48.250606" lon="24.217054">
        <ele>1599.4003123141592</ele>
      </trkpt>
      <trkpt lat="48.252078" lon="24.215552">
        <ele>1598.858741168357</ele>
      </trkpt>
      <trkpt lat="48.252721" lon="24.214823">
        <ele>1594.0459111443568</ele>
      </trkpt>
      <trkpt lat="48.252878" lon="24.214265">
        <ele>1594.436927265142</ele>
      </trkpt>
      <trkpt lat="48.252621" lon="24.213428">
        <ele>1591.408632327686</ele>
      </trkpt>
      <trkpt lat="48.252649" lon="24.211754">
        <ele>1603.3606096376898</ele>
      </trkpt>
      <trkpt lat="48.252078" lon="24.21051">
        <ele>1612.6715493732354</ele>
      </trkpt>
      <trkpt lat="48.251435" lon="24.209608">
        <ele>1616.505279359466</ele>
      </trkpt>
      <trkpt lat="48.250978" lon="24.208707">
        <ele>1621.9765142527176</ele>
      </trkpt>
      <trkpt lat="48.25052" lon="24.207119">
        <ele>1628.2721167023292</ele>
      </trkpt>
      <trkpt lat="48.251421" lon="24.207334">
        <ele>1642.256607773132</ele>
      </trkpt>
      <trkpt lat="48.252092" lon="24.206926">
        <ele>1644.8772359108614</ele>
      </trkpt>
      <trkpt lat="48.253313" lon="24.206952">
        <ele>1648.6204284217429</ele>
      </trkpt>
      <trkpt lat="48.254256" lon="24.20648">
        <ele>1648.2695791486185</ele>
      </trkpt>
      <trkpt lat="48.25497" lon="24.206137">
        <ele>1645.4651299151533</ele>
      </trkpt>
      <trkpt lat="48.255999" lon="24.20442">
        <ele>1628.0344358047432</ele>
      </trkpt>
      <trkpt lat="48.257256" lon="24.203176">
        <ele>1655.4802473924817</ele>
      </trkpt>
      <trkpt lat="48.25797" lon="24.201802">
        <ele>1677.71314205519</ele>
      </trkpt>
      <trkpt lat="48.260827" lon="24.20206">
        <ele>1646.3245328863532</ele>
      </trkpt>
      <trkpt lat="48.264163" lon="24.203343">
        <ele>1699.4987275407166</ele>
      </trkpt>
      <trkpt lat="48.26562" lon="24.203558">
        <ele>1717.040254807449</ele>
      </trkpt>
      <trkpt lat="48.268248" lon="24.202528">
        <ele>1718.0183920329437</ele>
      </trkpt>
      <trkpt lat="48.270562" lon="24.203043">
        <ele>1762.89812499371</ele>
      </trkpt>
      <trkpt lat="48.270261" lon="24.201362">
        <ele>1733.0173405828002</ele>
      </trkpt>
      <trkpt lat="48.270804" lon="24.197972">
        <ele>1673.5352760011044</ele>
      </trkpt>
      <trkpt lat="48.270832" lon="24.195912">
        <ele>1653.1754836429504</ele>
      </trkpt>
      <trkpt lat="48.271432" lon="24.192006">
        <ele>1679.8716765078716</ele>
      </trkpt>
      <trkpt lat="48.272746" lon="24.18853">
        <ele>1677.990258562146</ele>
      </trkpt>
      <trkpt lat="48.273437" lon="24.185604">
        <ele>1682.9686222712628</ele>
      </trkpt>
      <trkpt lat="48.275493" lon="24.180326">
        <ele>1665.906274736626</ele>
      </trkpt>
      <trkpt lat="48.276322" lon="24.178266">
        <ele>1682.9068017904644</ele>
      </trkpt>
      <trkpt lat="48.276893" lon="24.173931">
        <ele>1701.1334271453088</ele>
      </trkpt>
      <trkpt lat="48.276036" lon="24.168953">
        <ele>1712.8482651845552</ele>
      </trkpt>
      <trkpt lat="48.275151" lon="24.164704">
        <ele>1731.0514602722722</ele>
      </trkpt>
      <trkpt lat="48.273865" lon="24.162258">
        <ele>1758.5944565533264</ele>
      </trkpt>
      <trkpt lat="48.276436" lon="24.159753">
        <ele>1685.5240191998892</ele>
      </trkpt>
      <trkpt lat="48.277236" lon="24.155419">
        <ele>1631.820647236892</ele>
      </trkpt>
      <trkpt lat="48.279093" lon="24.150741">
        <ele>1631.0618732612593</ele>
      </trkpt>
      <trkpt lat="48.281275" lon="24.146879">
        <ele>1668.1537778428024</ele>
      </trkpt>
      <trkpt lat="48.28407" lon="24.146145">
        <ele>1697.1815007281257</ele>
      </trkpt>
      <trkpt lat="48.284927" lon="24.147004">
        <ele>1670.9487525359245</ele>
      </trkpt>
      <trkpt lat="48.285613" lon="24.147433">
        <ele>1657.2269475365815</ele>
      </trkpt>
      <trkpt lat="48.286184" lon="24.147605">
        <ele>1647.0311739448712</ele>
      </trkpt>
      <trkpt lat="48.286698" lon="24.148077">
        <ele>1635.8279740053695</ele>
      </trkpt>
      <trkpt lat="48.287497" lon="24.147862">
        <ele>1606.222778567907</ele>
      </trkpt>
      <trkpt lat="48.287954" lon="24.148034">
        <ele>1590.0148589474848</ele>
      </trkpt>
      <trkpt lat="48.288754" lon="24.147948">
        <ele>1576.6603979938575</ele>
      </trkpt>
      <trkpt lat="48.289896" lon="24.147433">
        <ele>1573.1498600613024</ele>
      </trkpt>
      <trkpt lat="48.291352" lon="24.146918">
        <ele>1576.2209493008759</ele>
      </trkpt>
      <trkpt lat="48.29238" lon="24.146703">
        <ele>1589.2044855442011</ele>
      </trkpt>
      <trkpt lat="48.293494" lon="24.146712">
        <ele>1603.0048976423568</ele>
      </trkpt>
      <trkpt lat="48.294464" lon="24.146369">
        <ele>1617.4740282443818</ele>
      </trkpt>
      <trkpt lat="48.295521" lon="24.14624">
        <ele>1620.145668387676</ele>
      </trkpt>
      <trkpt lat="48.296463" lon="24.146068">
        <ele>1636.1850997939212</ele>
      </trkpt>
      <trkpt lat="48.297091" lon="24.146111">
        <ele>1648.0759816320015</ele>
      </trkpt>
      <trkpt lat="48.297976" lon="24.14624">
        <ele>1664.3635533393829</ele>
      </trkpt>
      <trkpt lat="48.298975" lon="24.145811">
        <ele>1669.213893637445</ele>
      </trkpt>
      <trkpt lat="48.300032" lon="24.145339">
        <ele>1665.688106846937</ele>
      </trkpt>
      <trkpt lat="48.300802" lon="24.144652">
        <ele>1684.4654699957223</ele>
      </trkpt>
      <trkpt lat="48.301773" lon="24.144609">
        <ele>1700.7601226460336</ele>
      </trkpt>
      <trkpt lat="48.302309" lon="24.145253">
        <ele>1682.9098976593868</ele>
      </trkpt>
      <trkpt lat="48.303294" lon="24.146433">
        <ele>1648.9155399478102</ele>
      </trkpt>
      <trkpt lat="48.302566" lon="24.148214">
        <ele>1586.3970838227542</ele>
      </trkpt>
      <trkpt lat="48.302594" lon="24.150231">
        <ele>1566.676976780989</ele>
      </trkpt>
      <trkpt lat="48.302851" lon="24.151905">
        <ele>1558.4189510355936</ele>
      </trkpt>
      <trkpt lat="48.303679" lon="24.153621">
        <ele>1552.5399415153079</ele>
      </trkpt>
      <trkpt lat="48.304421" lon="24.155123">
        <ele>1550.2558009120953</ele>
      </trkpt>
      <trkpt lat="48.305706" lon="24.155424">
        <ele>1544.086239818152</ele>
      </trkpt>
      <trkpt lat="48.306048" lon="24.15714">
        <ele>1517.229787324553</ele>
      </trkpt>
      <trkpt lat="48.306962" lon="24.157655">
        <ele>1489.7782119812232</ele>
      </trkpt>
      <trkpt lat="48.307818" lon="24.156025">
        <ele>1462.138561914675</ele>
      </trkpt>
      <trkpt lat="48.308789" lon="24.155123">
        <ele>1409.9087245884457</ele>
      </trkpt>
      <trkpt lat="48.309873" lon="24.154394">
        <ele>1373.6692230377812</ele>
      </trkpt>
      <trkpt lat="48.310821" lon="24.153278">
        <ele>1374.532463583164</ele>
      </trkpt>
      <trkpt lat="48.311563" lon="24.152076">
        <ele>1379.4348940846976</ele>
      </trkpt>
      <trkpt lat="48.313333" lon="24.150188">
        <ele>1341.817017922381</ele>
      </trkpt>
      <trkpt lat="48.31436" lon="24.149201">
        <ele>1330.5998660685725</ele>
      </trkpt>
      <trkpt lat="48.315416" lon="24.149201">
        <ele>1322.8600557325408</ele>
      </trkpt>
      <trkpt lat="48.315859" lon="24.14948">
        <ele>1310.8375961335842</ele>
      </trkpt>
      <trkpt lat="48.316472" lon="24.148729">
        <ele>1293.484735948283</ele>
      </trkpt>
      <trkpt lat="48.317928" lon="24.147227">
        <ele>1269.3927401942783</ele>
      </trkpt>
      <trkpt lat="48.319098" lon="24.146412">
        <ele>1251.8171856207189</ele>
      </trkpt>
      <trkpt lat="48.320224" lon="24.145982">
        <ele>1234.4363704385144</ele>
      </trkpt>
      <trkpt lat="48.321479" lon="24.14624">
        <ele>1225.6433911613422</ele>
      </trkpt>
      <trkpt lat="48.322392" lon="24.147527">
        <ele>1221.780215398466</ele>
      </trkpt>
      <trkpt lat="48.32439" lon="24.150016">
        <ele>1217.1050654470455</ele>
      </trkpt>
      <trkpt lat="48.325274" lon="24.151304">
        <ele>1214.1021924306142</ele>
      </trkpt>
      <trkpt lat="48.326188" lon="24.152463">
        <ele>1213.147340800031</ele>
      </trkpt>
      <trkpt lat="48.327586" lon="24.154565">
        <ele>1213.2698595555269</ele>
      </trkpt>
      <trkpt lat="48.32867" lon="24.155595">
        <ele>1208.395243167528</ele>
      </trkpt>
      <trkpt lat="48.329497" lon="24.156694">
        <ele>1199.6612752490328</ele>
      </trkpt>
      <trkpt lat="48.330325" lon="24.157509">
        <ele>1198.674017473124</ele>
      </trkpt>
      <trkpt lat="48.330952" lon="24.159011">
        <ele>1231.5235120087182</ele>
      </trkpt>
      <trkpt lat="48.331523" lon="24.160685">
        <ele>1249.6637760892318</ele>
      </trkpt>
      <trkpt lat="48.332122" lon="24.160942">
        <ele>1247.365453400017</ele>
      </trkpt>
      <trkpt lat="48.332607" lon="24.160041">
        <ele>1250.4942095760896</ele>
      </trkpt>
      <trkpt lat="48.333549" lon="24.15914">
        <ele>1249.597556362045</ele>
      </trkpt>
      <trkpt lat="48.334776" lon="24.158024">
        <ele>1254.8101454221178</ele>
      </trkpt>
      <trkpt lat="48.335974" lon="24.15811">
        <ele>1251.1279082626222</ele>
      </trkpt>
      <trkpt lat="48.336568" lon="24.158067">
        <ele>1255.4849777976244</ele>
      </trkpt>
      <trkpt lat="48.336854" lon="24.158754">
        <ele>1252.5235781231568</ele>
      </trkpt>
      <trkpt lat="48.337538" lon="24.160428">
        <ele>1243.8427777243621</ele>
      </trkpt>
      <trkpt lat="48.33848" lon="24.162058">
        <ele>1272.4145243579987</ele>
      </trkpt>
      <trkpt lat="48.338993" lon="24.163389">
        <ele>1278.0567552000284</ele>
      </trkpt>
      <trkpt lat="48.339364" lon="24.165019">
        <ele>1269.0611286971598</ele>
      </trkpt>
      <trkpt lat="48.340562" lon="24.165878">
        <ele>1263.887181596356</ele>
      </trkpt>
      <trkpt lat="48.341703" lon="24.166693">
        <ele>1281</ele>
      </trkpt>
      <trkpt lat="48.342702" lon="24.166135">
        <ele>1282.1874753387333</ele>
      </trkpt>
      <trkpt lat="48.343928" lon="24.16665">
        <ele>1248.5644902670756</ele>
      </trkpt>
      <trkpt lat="48.344984" lon="24.167551">
        <ele>1230.46283460618</ele>
      </trkpt>
      <trkpt lat="48.346124" lon="24.168453">
        <ele>1258.427530295914</ele>
      </trkpt>
      <trkpt lat="48.347265" lon="24.167888">
        <ele>1283.1902334698193</ele>
      </trkpt>
      <trkpt lat="48.348549" lon="24.16836">
        <ele>1272.572331736993</ele>
      </trkpt>
      <trkpt lat="48.349832" lon="24.168746">
        <ele>1271.0737370976713</ele>
      </trkpt>
      <trkpt lat="48.350973" lon="24.167802">
        <ele>1274.305384309963</ele>
      </trkpt>
      <trkpt lat="48.352171" lon="24.166901">
        <ele>1283.1973586385739</ele>
      </trkpt>
      <trkpt lat="48.35334" lon="24.165957">
        <ele>1290.2508782009827</ele>
      </trkpt>
      <trkpt lat="48.354367" lon="24.167201">
        <ele>1302.8792998452718</ele>
      </trkpt>
      <trkpt lat="48.355508" lon="24.167974">
        <ele>1361.215832087354</ele>
      </trkpt>
      <trkpt lat="48.356506" lon="24.169089">
        <ele>1415.0210518462745</ele>
      </trkpt>
      <trkpt lat="48.358038" lon="24.170857">
        <ele>1449.8714379354549</ele>
      </trkpt>
      <trkpt lat="48.358951" lon="24.172102">
        <ele>1489.06099829177</ele>
      </trkpt>
      <trkpt lat="48.35992" lon="24.173389">
        <ele>1549.829653873371</ele>
      </trkpt>
      <trkpt lat="48.360918" lon="24.174334">
        <ele>1606.3067413746612</ele>
      </trkpt>
      <trkpt lat="48.362002" lon="24.175535">
        <ele>1679.782502261689</ele>
      </trkpt>
      <trkpt lat="48.363142" lon="24.17472">
        <ele>1703.8285425259392</ele>
      </trkpt>
      <trkpt lat="48.363684" lon="24.17472">
        <ele>1718.7949885979242</ele>
      </trkpt>
      <trkpt lat="48.363969" lon="24.175449">
        <ele>1737.2346858685703</ele>
      </trkpt>
      <trkpt lat="48.364397" lon="24.177123">
        <ele>1764.078737928532</ele>
      </trkpt>
      <trkpt lat="48.365281" lon="24.178797">
        <ele>1786.093634782068</ele>
      </trkpt>
      <trkpt lat="48.365309" lon="24.178764">
        <ele>1786.2163898746949</ele>
      </trkpt>
      <trkpt lat="48.365936" lon="24.17855">
        <ele>1780.2196811630645</ele>
      </trkpt>
      <trkpt lat="48.366749" lon="24.178507">
        <ele>1774.4697005649891</ele>
      </trkpt>
      <trkpt lat="48.367775" lon="24.178507">
        <ele>1773.4481731353444</ele>
      </trkpt>
      <trkpt lat="48.368901" lon="24.178657">
        <ele>1763.3874644199086</ele>
      </trkpt>
      <trkpt lat="48.370013" lon="24.17885">
        <ele>1740.0820345044178</ele>
      </trkpt>
      <trkpt lat="48.371011" lon="24.179107">
        <ele>1725.1703396305659</ele>
      </trkpt>
      <trkpt lat="48.372094" lon="24.179386">
        <ele>1710.5353353361195</ele>
      </trkpt>
      <trkpt lat="48.373206" lon="24.179601">
        <ele>1705.4999999999998</ele>
      </trkpt>
      <trkpt lat="48.373919" lon="24.179043">
        <ele>1705.5724334741262</ele>
      </trkpt>
      <trkpt lat="48.373975" lon="24.178464">
        <ele>1700.7859487397593</ele>
      </trkpt>
      <trkpt lat="48.374545" lon="24.177305">
        <ele>1698.0733163317784</ele>
      </trkpt>
      <trkpt lat="48.374744" lon="24.176125">
        <ele>1694.1417140604462</ele>
      </trkpt>
      <trkpt lat="48.375001" lon="24.174966">
        <ele>1699.1863108328455</ele>
      </trkpt>
      <trkpt lat="48.3753" lon="24.172005">
        <ele>1702.2725132467892</ele>
      </trkpt>
      <trkpt lat="48.375929" lon="24.169044">
        <ele>1708.0889723956343</ele>
      </trkpt>
      <trkpt lat="48.376385" lon="24.166855">
        <ele>1733.7503546470546</ele>
      </trkpt>
      <trkpt lat="48.376755" lon="24.165139">
        <ele>1756.8756854773271</ele>
      </trkpt>
      <trkpt lat="48.37771" lon="24.164559">
        <ele>1747.276968125254</ele>
      </trkpt>
      <trkpt lat="48.378352" lon="24.165139">
        <ele>1723.0149747878313</ele>
      </trkpt>
      <trkpt lat="48.379093" lon="24.165954">
        <ele>1704.5561563964916</ele>
      </trkpt>
      <trkpt lat="48.379634" lon="24.166254">
        <ele>1692.4902675484773</ele>
      </trkpt>
      <trkpt lat="48.380532" lon="24.16589">
        <ele>1682.521675975353</ele>
      </trkpt>
      <trkpt lat="48.381245" lon="24.165932">
        <ele>1676.7302904290655</ele>
      </trkpt>
      <trkpt lat="48.381615" lon="24.165653">
        <ele>1676</ele>
      </trkpt>
      <trkpt lat="48.381544" lon="24.164516">
        <ele>1652.0424782221671</ele>
      </trkpt>
      <trkpt lat="48.381943" lon="24.164452">
        <ele>1648.235443976475</ele>
      </trkpt>
      <trkpt lat="48.38245" lon="24.164126">
        <ele>1644.821182697859</ele>
      </trkpt>
      <trkpt lat="48.38359" lon="24.163247">
        <ele>1635.145612807875</ele>
      </trkpt>
      <trkpt lat="48.384203" lon="24.161122">
        <ele>1597.9454626065478</ele>
      </trkpt>
      <trkpt lat="48.384744" lon="24.159492">
        <ele>1586.818722891605</ele>
      </trkpt>
      <trkpt lat="48.385343" lon="24.157968">
        <ele>1587.8015419730314</ele>
      </trkpt>
      <trkpt lat="48.385872" lon="24.156249">
        <ele>1610.7357723359298</ele>
      </trkpt>
      <trkpt lat="48.386428" lon="24.155155">
        <ele>1624.8254060655854</ele>
      </trkpt>
      <trkpt lat="48.386684" lon="24.153503">
        <ele>1655.3386691346834</ele>
      </trkpt>
      <trkpt lat="48.387112" lon="24.152001">
        <ele>1681.6503534668736</ele>
      </trkpt>
      <trkpt lat="48.387824" lon="24.150413">
        <ele>1690.0592804005623</ele>
      </trkpt>
      <trkpt lat="48.388707" lon="24.149211">
        <ele>1699.3570754850339</ele>
      </trkpt>
      <trkpt lat="48.389377" lon="24.148417">
        <ele>1702.62064301793</ele>
      </trkpt>
      <trkpt lat="48.390318" lon="24.147902">
        <ele>1694.124142613578</ele>
      </trkpt>
      <trkpt lat="48.391358" lon="24.148074">
        <ele>1680.2945507599507</ele>
      </trkpt>
      <trkpt lat="48.392359" lon="24.148718">
        <ele>1643.8037012816221</ele>
      </trkpt>
      <trkpt lat="48.393442" lon="24.149104">
        <ele>1608.6191106701494</ele>
      </trkpt>
      <trkpt lat="48.394197" lon="24.148803">
        <ele>1598.26938461173</ele>
      </trkpt>
      <trkpt lat="48.394967" lon="24.149061">
        <ele>1577.7588663338684</ele>
      </trkpt>
      <trkpt lat="48.395565" lon="24.148868">
        <ele>1573.1118131064577</ele>
      </trkpt>
      <trkpt lat="48.396064" lon="24.149211">
        <ele>1555.054052910194</ele>
      </trkpt>
      <trkpt lat="48.396786" lon="24.150264">
        <ele>1527.5537670812646</ele>
      </trkpt>
      <trkpt lat="48.39717" lon="24.150345">
        <ele>1528.9088690592607</ele>
      </trkpt>
      <trkpt lat="48.397694" lon="24.150666">
        <ele>1531.244132335525</ele>
      </trkpt>
      <trkpt lat="48.398004" lon="24.151069">
        <ele>1529.0963966567738</ele>
      </trkpt>
      <trkpt lat="48.398289" lon="24.151289">
        <ele>1526.3741100199952</ele>
      </trkpt>
      <trkpt lat="48.398481" lon="24.15145">
        <ele>1522.6943784297546</ele>
      </trkpt>
      <trkpt lat="48.398823" lon="24.151702">
        <ele>1516.0985925555783</ele>
      </trkpt>
      <trkpt lat="48.399101" lon="24.151922">
        <ele>1511.5582302473977</ele>
      </trkpt>
      <trkpt lat="48.39935" lon="24.152211">
        <ele>1506.1066368003376</ele>
      </trkpt>
      <trkpt lat="48.3995" lon="24.152233">
        <ele>1505.8071710547047</ele>
      </trkpt>
      <trkpt lat="48.399703" lon="24.152217">
        <ele>1506.2989967894487</ele>
      </trkpt>
      <trkpt lat="48.400144" lon="24.151873">
        <ele>1508.0711587555707</ele>
      </trkpt>
      <trkpt lat="48.400386" lon="24.151766">
        <ele>1507.046729464084</ele>
      </trkpt>
      <trkpt lat="48.400664" lon="24.151857">
        <ele>1504.0190893186768</ele>
      </trkpt>
      <trkpt lat="48.400967" lon="24.151884">
        <ele>1501.3708236942484</ele>
      </trkpt>
      <trkpt lat="48.401028" lon="24.151809">
        <ele>1501.0910268849796</ele>
      </trkpt>
      <trkpt lat="48.401547" lon="24.151611">
        <ele>1493.4437901783967</ele>
      </trkpt>
      <trkpt lat="48.401935" lon="24.151261">
        <ele>1481.7055988400243</ele>
      </trkpt>
      <trkpt lat="48.402904" lon="24.149587">
        <ele>1461.693983886732</ele>
      </trkpt>
      <trkpt lat="48.403153" lon="24.149416">
        <ele>1457.0107369089965</ele>
      </trkpt>
      <trkpt lat="48.403217" lon="24.149287">
        <ele>1455.4999079085544</ele>
      </trkpt>
      <trkpt lat="48.40363" lon="24.148885">
        <ele>1449.8146756578265</ele>
      </trkpt>
      <trkpt lat="48.403759" lon="24.148638">
        <ele>1449.001876729414</ele>
      </trkpt>
      <trkpt lat="48.403937" lon="24.148466">
        <ele>1448.369880101527</ele>
      </trkpt>
      <trkpt lat="48.404254" lon="24.14823">
        <ele>1444.5804710926554</ele>
      </trkpt>
      <trkpt lat="48.404271" lon="24.148048">
        <ele>1443.2126621216707</ele>
      </trkpt>
      <trkpt lat="48.404802" lon="24.147426">
        <ele>1437.125439029769</ele>
      </trkpt>
      <trkpt lat="48.405318" lon="24.146642">
        <ele>1429.4335398361598</ele>
      </trkpt>
      <trkpt lat="48.4055" lon="24.14609">
        <ele>1424.1835374666432</ele>
      </trkpt>
      <trkpt lat="48.405561" lon="24.145854">
        <ele>1422.039029579435</ele>
      </trkpt>
      <trkpt lat="48.405703" lon="24.145714">
        <ele>1420.5898867065553</ele>
      </trkpt>
      <trkpt lat="48.406006" lon="24.145634">
        <ele>1418.0128732444718</ele>
      </trkpt>
      <trkpt lat="48.406305" lon="24.145366">
        <ele>1416.4526181945207</ele>
      </trkpt>
      <trkpt lat="48.406682" lon="24.144507">
        <ele>1412.2565773614683</ele>
      </trkpt>
      <trkpt lat="48.406957" lon="24.143805">
        <ele>1409.5538999248777</ele>
      </trkpt>
      <trkpt lat="48.407067" lon="24.143746">
        <ele>1410.8364127065138</ele>
      </trkpt>
      <trkpt lat="48.407241" lon="24.143333">
        <ele>1413.739630487254</ele>
      </trkpt>
      <trkpt lat="48.407217" lon="24.143231">
        <ele>1413.7855838352116</ele>
      </trkpt>
      <trkpt lat="48.407288" lon="24.143182">
        <ele>1414.5513638046102</ele>
      </trkpt>
      <trkpt lat="48.407566" lon="24.142297">
        <ele>1414.4602806048354</ele>
      </trkpt>
      <trkpt lat="48.407562" lon="24.142158">
        <ele>1414.061537885922</ele>
      </trkpt>
      <trkpt lat="48.407953" lon="24.141121">
        <ele>1403.1668843406464</ele>
      </trkpt>
      <trkpt lat="48.408084" lon="24.141057">
        <ele>1402.0459568766414</ele>
      </trkpt>
      <trkpt lat="48.408223" lon="24.141105">
        <ele>1399.7016655480802</ele>
      </trkpt>
      <trkpt lat="48.408416" lon="24.141009">
        <ele>1394.0775313000838</ele>
      </trkpt>
      <trkpt lat="48.408512" lon="24.140853">
        <ele>1391.7788765630253</ele>
      </trkpt>
      <trkpt lat="48.408572" lon="24.141009">
        <ele>1388.4288169647389</ele>
      </trkpt>
      <trkpt lat="48.408885" lon="24.14103">
        <ele>1379.1553287428285</ele>
      </trkpt>
      <trkpt lat="48.409213" lon="24.141266">
        <ele>1370.5690097785555</ele>
      </trkpt>
      <trkpt lat="48.409512" lon="24.141009">
        <ele>1361.922898149805</ele>
      </trkpt>
      <trkpt lat="48.409811" lon="24.141116">
        <ele>1348.659055642085</ele>
      </trkpt>
      <trkpt lat="48.410196" lon="24.140944">
        <ele>1329.8864239808174</ele>
      </trkpt>
      <trkpt lat="48.410139" lon="24.141245">
        <ele>1332.887800762197</ele>
      </trkpt>
      <trkpt lat="48.410338" lon="24.14161">
        <ele>1317.0831835276913</ele>
      </trkpt>
      <trkpt lat="48.41088" lon="24.141502">
        <ele>1283.427411575336</ele>
      </trkpt>
      <trkpt lat="48.411563" lon="24.141631">
        <ele>1252.5027391416559</ele>
      </trkpt>
      <trkpt lat="48.412546" lon="24.14191">
        <ele>1227.471340470831</ele>
      </trkpt>
      <trkpt lat="48.413173" lon="24.14206">
        <ele>1216.028802974266</ele>
      </trkpt>
      <trkpt lat="48.413984" lon="24.142489">
        <ele>1198.7587813355494</ele>
      </trkpt>
      <trkpt lat="48.415081" lon="24.142747">
        <ele>1183.9417780092917</ele>
      </trkpt>
      <trkpt lat="48.416096" lon="24.143412">
        <ele>1169.6966725669336</ele>
      </trkpt>
      <trkpt lat="48.417122" lon="24.143047">
        <ele>1157.0419434810758</ele>
      </trkpt>
      <trkpt lat="48.417705" lon="24.143155">
        <ele>1146.523986197828</ele>
      </trkpt>
      <trkpt lat="48.418375" lon="24.144056">
        <ele>1124.869497816339</ele>
      </trkpt>
      <trkpt lat="48.419414" lon="24.145751">
        <ele>1118.1098718019089</ele>
      </trkpt>
      <trkpt lat="48.420255" lon="24.145279">
        <ele>1102.2314954459007</ele>
      </trkpt>
      <trkpt lat="48.421223" lon="24.144421">
        <ele>1082.5879086862549</ele>
      </trkpt>
      <trkpt lat="48.422732" lon="24.143541">
        <ele>1061.8393679705894</ele>
      </trkpt>
      <trkpt lat="48.424114" lon="24.144464">
        <ele>1078.0667519701499</ele>
      </trkpt>
      <trkpt lat="48.424826" lon="24.14427">
        <ele>1097.2843210843857</ele>
      </trkpt>
      <trkpt lat="48.425945" lon="24.143841">
        <ele>1104.7356336968926</ele>
      </trkpt>
      <trkpt lat="48.427041" lon="24.143541">
        <ele>1111.9569223925937</ele>
      </trkpt>
      <trkpt lat="48.428252" lon="24.143112">
        <ele>1106.417816799867</ele>
      </trkpt>
      <trkpt lat="48.429533" lon="24.142845">
        <ele>1121.855536432394</ele>
      </trkpt>
      <trkpt lat="48.430629" lon="24.142931">
        <ele>1128.1946317853872</ele>
      </trkpt>
      <trkpt lat="48.43174" lon="24.143253">
        <ele>1150.2324512265623</ele>
      </trkpt>
      <trkpt lat="48.432651" lon="24.143811">
        <ele>1174.019544460578</ele>
      </trkpt>
      <trkpt lat="48.433434" lon="24.144712">
        <ele>1197.2286071353585</ele>
      </trkpt>
      <trkpt lat="48.434246" lon="24.14557">
        <ele>1223.9044183408212</ele>
      </trkpt>
      <trkpt lat="48.433377" lon="24.147609">
        <ele>1184.1309216212442</ele>
      </trkpt>
      <trkpt lat="48.432964" lon="24.147652">
        <ele>1170.5870876664994</ele>
      </trkpt>
      <trkpt lat="48.432195" lon="24.147866">
        <ele>1149.7091012236197</ele>
      </trkpt>
      <trkpt lat="48.430991" lon="24.148073">
        <ele>1134.119774429421</ele>
      </trkpt>
      <trkpt lat="48.430585" lon="24.150723">
        <ele>1157.6824888911797</ele>
      </trkpt>
      <trkpt lat="48.430066" lon="24.151602">
        <ele>1168.3355180436047</ele>
      </trkpt>
      <trkpt lat="48.430137" lon="24.152203">
        <ele>1167.0795599799633</ele>
      </trkpt>
      <trkpt lat="48.430415" lon="24.152825">
        <ele>1161.9800452819022</ele>
      </trkpt>
      <trkpt lat="48.430913" lon="24.153973">
        <ele>1146.0577950342242</ele>
      </trkpt>
      <trkpt lat="48.431333" lon="24.154735">
        <ele>1134.514710802352</ele>
      </trkpt>
      <trkpt lat="48.431753" lon="24.15495">
        <ele>1138.674451184187</ele>
      </trkpt>
      <trkpt lat="48.432337" lon="24.155089">
        <ele>1140.0324275364098</ele>
      </trkpt>
      <trkpt lat="48.432764" lon="24.156237">
        <ele>1135.3972174378696</ele>
      </trkpt>
      <trkpt lat="48.432814" lon="24.156935">
        <ele>1133.5514459749684</ele>
      </trkpt>
      <trkpt lat="48.433127" lon="24.157653">
        <ele>1133.2362687351415</ele>
      </trkpt>
      <trkpt lat="48.432885" lon="24.158576">
        <ele>1132.8005456266692</ele>
      </trkpt>
      <trkpt lat="48.4326" lon="24.159753">
        <ele>1127.4461590496944</ele>
      </trkpt>
      <trkpt lat="48.433013" lon="24.161931">
        <ele>1125.1279126313989</ele>
      </trkpt>
      <trkpt lat="48.433383" lon="24.162832">
        <ele>1121</ele>
      </trkpt>
      <trkpt lat="48.433326" lon="24.164173">
        <ele>1125.1991116328172</ele>
      </trkpt>
      <trkpt lat="48.433162" lon="24.16501">
        <ele>1130.9943415906998</ele>
      </trkpt>
      <trkpt lat="48.433348" lon="24.165815">
        <ele>1137.2599439649746</ele>
      </trkpt>
      <trkpt lat="48.433497" lon="24.166533">
        <ele>1137.9099755779484</ele>
      </trkpt>
      <trkpt lat="48.433858" lon="24.167102">
        <ele>1137.4167466489596</ele>
      </trkpt>
      <trkpt lat="48.433965" lon="24.167885">
        <ele>1127.9404715724588</ele>
      </trkpt>
      <trkpt lat="48.433879" lon="24.16869">
        <ele>1118.2333595967307</ele>
      </trkpt>
      <trkpt lat="48.433673" lon="24.169537">
        <ele>1107.3672799183032</ele>
      </trkpt>
      <trkpt lat="48.433416" lon="24.170449">
        <ele>1084.5248541717883</ele>
      </trkpt>
      <trkpt lat="48.433167" lon="24.171501">
        <ele>1091.2559305948646</ele>
      </trkpt>
      <trkpt lat="48.433231" lon="24.172499">
        <ele>1103.1992456829757</ele>
      </trkpt>
      <trkpt lat="48.433431" lon="24.172917">
        <ele>1103.1344248907408</ele>
      </trkpt>
      <trkpt lat="48.433452" lon="24.173572">
        <ele>1098.047168506184</ele>
      </trkpt>
      <trkpt lat="48.433658" lon="24.174087">
        <ele>1092.4438288152437</ele>
      </trkpt>
      <trkpt lat="48.433893" lon="24.175288">
        <ele>1081.8028584598896</ele>
      </trkpt>
      <trkpt lat="48.434178" lon="24.17576">
        <ele>1081.184584637877</ele>
      </trkpt>
      <trkpt lat="48.434698" lon="24.176329">
        <ele>1076.7757203456197</ele>
      </trkpt>
      <trkpt lat="48.435047" lon="24.177144">
        <ele>1076.8994423242254</ele>
      </trkpt>
      <trkpt lat="48.43535" lon="24.178713">
        <ele>1058.676358331789</ele>
      </trkpt>
      <trkpt lat="48.435777" lon="24.180858">
        <ele>1040.9170934488175</ele>
      </trkpt>
      <trkpt lat="48.43609" lon="24.182618">
        <ele>1039.2445686153492</ele>
      </trkpt>
      <trkpt lat="48.436062" lon="24.18382">
        <ele>1029.813982657739</ele>
      </trkpt>
      <trkpt lat="48.436432" lon="24.185708">
        <ele>1025.7359437556095</ele>
      </trkpt>
      <trkpt lat="48.437172" lon="24.186738">
        <ele>1022.4863692234284</ele>
      </trkpt>
      <trkpt lat="48.437713" lon="24.188283">
        <ele>1020.2945766690134</ele>
      </trkpt>
      <trkpt lat="48.438647" lon="24.189117">
        <ele>1010.8850402269136</ele>
      </trkpt>
      <trkpt lat="48.439081" lon="24.189562">
        <ele>1000.6310588029514</ele>
      </trkpt>
      <trkpt lat="48.439753" lon="24.189776">
        <ele>1010.3063091141521</ele>
      </trkpt>
      <trkpt lat="48.440127" lon="24.189852">
        <ele>1020.5895328186035</ele>
      </trkpt>
      <trkpt lat="48.44049" lon="24.190098">
        <ele>1034.528178476719</ele>
      </trkpt>
      <trkpt lat="48.440679" lon="24.190367">
        <ele>1042.0651621272639</ele>
      </trkpt>
      <trkpt lat="48.440821" lon="24.191059">
        <ele>1049.1518000219949</ele>
      </trkpt>
      <trkpt lat="48.440892" lon="24.191541">
        <ele>1051.9616726198299</ele>
      </trkpt>
      <trkpt lat="48.440999" lon="24.192367">
        <ele>1053.2942487290711</ele>
      </trkpt>
      <trkpt lat="48.44117" lon="24.192577">
        <ele>1059.4397864311468</ele>
      </trkpt>
      <trkpt lat="48.441191" lon="24.192904">
        <ele>1059.800479117639</ele>
      </trkpt>
      <trkpt lat="48.441148" lon="24.193274">
        <ele>1057.5438098817806</ele>
      </trkpt>
      <trkpt lat="48.441077" lon="24.193762">
        <ele>1055.4136769458419</ele>
      </trkpt>
      <trkpt lat="48.441095" lon="24.194229">
        <ele>1055.0411564664996</ele>
      </trkpt>
      <trkpt lat="48.441184" lon="24.194567">
        <ele>1054.2951787997342</ele>
      </trkpt>
      <trkpt lat="48.441309" lon="24.194781">
        <ele>1054.8804322282526</ele>
      </trkpt>
      <trkpt lat="48.441323" lon="24.195146">
        <ele>1049.90494510587</ele>
      </trkpt>
      <trkpt lat="48.441358" lon="24.195661">
        <ele>1042.905769011937</ele>
      </trkpt>
      <trkpt lat="48.44139" lon="24.196424">
        <ele>1037.5942176175304</ele>
      </trkpt>
      <trkpt lat="48.441351" lon="24.197089">
        <ele>1038.3677742811851</ele>
      </trkpt>
      <trkpt lat="48.44122" lon="24.197711">
        <ele>1032.6675115378882</ele>
      </trkpt>
      <trkpt lat="48.441237" lon="24.198183">
        <ele>1034.6831106643658</ele>
      </trkpt>
      <trkpt lat="48.441319" lon="24.198505">
        <ele>1036.6542909573288</ele>
      </trkpt>
      <trkpt lat="48.441273" lon="24.199047">
        <ele>1037.0001656291277</ele>
      </trkpt>
      <trkpt lat="48.441287" lon="24.199589">
        <ele>1033.4537755356084</ele>
      </trkpt>
      <trkpt lat="48.441227" lon="24.200232">
        <ele>1030.5713232947746</ele>
      </trkpt>
      <trkpt lat="48.44117" lon="24.200769">
        <ele>1027.1106205508004</ele>
      </trkpt>
      <trkpt lat="48.441195" lon="24.201225">
        <ele>1024.971839471371</ele>
      </trkpt>
      <trkpt lat="48.44122" lon="24.20181">
        <ele>1024.3063931427896</ele>
      </trkpt>
      <trkpt lat="48.44112" lon="24.202367">
        <ele>1020.9668626843682</ele>
      </trkpt>
      <trkpt lat="48.44102" lon="24.20292">
        <ele>1017.2643050379122</ele>
      </trkpt>
      <trkpt lat="48.440974" lon="24.203698">
        <ele>1014.753987877164</ele>
      </trkpt>
      <trkpt lat="48.440771" lon="24.204057">
        <ele>1010.3651908538304</ele>
      </trkpt>
      <trkpt lat="48.440408" lon="24.204599">
        <ele>995.0141449074727</ele>
      </trkpt>
      <trkpt lat="48.440351" lon="24.205323">
        <ele>990.5104795647842</ele>
      </trkpt>
      <trkpt lat="48.440298" lon="24.206191">
        <ele>986.6718860913534</ele>
      </trkpt>
      <trkpt lat="48.440131" lon="24.206652">
        <ele>979.959408383795</ele>
      </trkpt>
      <trkpt lat="48.440173" lon="24.207033">
        <ele>978.1444940883667</ele>
      </trkpt>
      <trkpt lat="48.440447" lon="24.207167">
        <ele>983.7856853590348</ele>
      </trkpt>
      <trkpt lat="48.440793" lon="24.20713">
        <ele>994.1972858958592</ele>
      </trkpt>
      <trkpt lat="48.441134" lon="24.206974">
        <ele>1005.0096426532401</ele>
      </trkpt>
      <trkpt lat="48.44138" lon="24.207194">
        <ele>1009.8477646074025</ele>
      </trkpt>
      <trkpt lat="48.441408" lon="24.207768">
        <ele>1010.1295255940886</ele>
      </trkpt>
      <trkpt lat="48.4416" lon="24.208439">
        <ele>1013.4882578383549</ele>
      </trkpt>
      <trkpt lat="48.441842" lon="24.20919">
        <ele>1016.112095563868</ele>
      </trkpt>
      <trkpt lat="48.441867" lon="24.20978">
        <ele>1013.6535861314776</ele>
      </trkpt>
      <trkpt lat="48.441835" lon="24.210348">
        <ele>1010.3373443707824</ele>
      </trkpt>
      <trkpt lat="48.441682" lon="24.211287">
        <ele>998.2281833066372</ele>
      </trkpt>
      <trkpt lat="48.441767" lon="24.211766">
        <ele>995.8261551615778</ele>
      </trkpt>
      <trkpt lat="48.441703" lon="24.212458">
        <ele>991.0432807639008</ele>
      </trkpt>
      <trkpt lat="48.441656" lon="24.213279">
        <ele>993.1313779448064</ele>
      </trkpt>
      <trkpt lat="48.441688" lon="24.213574">
        <ele>996.8196354843232</ele>
      </trkpt>
      <trkpt lat="48.441731" lon="24.213799">
        <ele>999.6412732947886</ele>
      </trkpt>
      <trkpt lat="48.441781" lon="24.214067">
        <ele>1001.854651877773</ele>
      </trkpt>
      <trkpt lat="48.441681" lon="24.215044">
        <ele>1001.0502213752661</ele>
      </trkpt>
      <trkpt lat="48.442001" lon="24.216417">
        <ele>1010.6828841938404</ele>
      </trkpt>
      <trkpt lat="48.442187" lon="24.217726">
        <ele>1007.988918897182</ele>
      </trkpt>
      <trkpt lat="48.442137" lon="24.219024">
        <ele>1003.0298945277985</ele>
      </trkpt>
      <trkpt lat="48.442335" lon="24.220301">
        <ele>989.2553426409722</ele>
      </trkpt>
      <trkpt lat="48.442954" lon="24.221041">
        <ele>982.0879807929741</ele>
      </trkpt>
      <trkpt lat="48.443296" lon="24.221932">
        <ele>971.953448379156</ele>
      </trkpt>
      <trkpt lat="48.443865" lon="24.2222">
        <ele>970.2764897520307</ele>
      </trkpt>
      <trkpt lat="48.444385" lon="24.222661">
        <ele>963.2086135652462</ele>
      </trkpt>
      <trkpt lat="48.444797" lon="24.223358">
        <ele>949.1772194669693</ele>
      </trkpt>
      <trkpt lat="48.445369" lon="24.224385">
        <ele>948.4675007001498</ele>
      </trkpt>
      <trkpt lat="48.446017" lon="24.224718">
        <ele>929.830827214197</ele>
      </trkpt>
      <trkpt lat="48.446572" lon="24.225115">
        <ele>913.1016170376679</ele>
      </trkpt>
      <trkpt lat="48.446906" lon="24.22563">
        <ele>898.3881980570341</ele>
      </trkpt>
      <trkpt lat="48.447241" lon="24.226252">
        <ele>884.5597141336184</ele>
      </trkpt>
      <trkpt lat="48.447419" lon="24.226863">
        <ele>876.074215999106</ele>
      </trkpt>
      <trkpt lat="48.447611" lon="24.227763">
        <ele>865.823558209464</ele>
      </trkpt>
      <trkpt lat="48.44786" lon="24.228664">
        <ele>849.4905641784316</ele>
      </trkpt>
      <trkpt lat="48.447938" lon="24.229576">
        <ele>835.3593384508574</ele>
      </trkpt>
      <trkpt lat="48.448451" lon="24.229994">
        <ele>822.971778113622</ele>
      </trkpt>
      <trkpt lat="48.448821" lon="24.230091">
        <ele>810.8458669120446</ele>
      </trkpt>
      <trkpt lat="48.449056" lon="24.230348">
        <ele>800.9206305765406</ele>
      </trkpt>
      <trkpt lat="48.44939" lon="24.230617">
        <ele>782.0094787055859</ele>
      </trkpt>
      <trkpt lat="48.449561" lon="24.23081">
        <ele>770.2841845302039</ele>
      </trkpt>
    </trkseg>
  </trk>
</gpx>
