<?xml version="1.0" encoding="UTF-8"?>
<gpx version="1.1" creator="phpGPX/1.0RC5" schemaLocation="http://www.topografix.com/GPX/1/1 http://www.topografix.com/GPX/1/1/gpx.xsd http://www.garmin.com/xmlschemas/GpxExtensions/v3 http://www.garmin.com/xmlschemas/GpxExtensionsv3.xsd http://www.garmin.com/xmlschemas/TrackPointExtension/v1 http://www.garmin.com/xmlschemas/TrackPointExtensionv1.xsd http://www.garmin.com/xmlschemas/PowerExtension/v1 http://www.garmin.com/xmlschemas/PowerExtensionv1.xsd http://www.topografix.com/GPX/gpx_style/0/2 http://www.topografix.com/GPX/gpx_style/0/2/gpx_style.xsd" xmlns="http://www.topografix.com/GPX/1/1" xmlns:xsi="http://www.w3.org/2001/XMLSchema-instance" xsi:schemaLocation="http://www.topografix.com/GPX/1/1 http://www.topografix.com/GPX/1/1/gpx.xsd http://www.garmin.com/xmlschemas/GpxExtensions/v3 http://www.garmin.com/xmlschemas/GpxExtensionsv3.xsd http://www.garmin.com/xmlschemas/TrackPointExtension/v1 http://www.garmin.com/xmlschemas/TrackPointExtensionv1.xsd http://www.garmin.com/xmlschemas/PowerExtension/v1 http://www.garmin.com/xmlschemas/PowerExtensionv1.xsd http://www.topografix.com/GPX/gpx_style/0/2 http://www.topografix.com/GPX/gpx_style/0/2/gpx_style.xsd" xmlns:gpxtpx="http://www.garmin.com/xmlschemas/TrackPointExtension/v1" xmlns:gpxx="http://www.garmin.com/xmlschemas/GpxExtensions/v3" xmlns:gpxpx="http://www.garmin.com/xmlschemas/PowerExtension/v1" xmlns:gpx_style="http://www.topografix.com/GPX/gpx_style/0/2">
  <metadata>
    <name>Скелі Довбуша - печерний комплекс</name>
    <author>
      <name>gpx.studio</name>
      <link href="https://gpx.studio"/>
    </author>
  </metadata>
  <trk>
    <name>Скелі Довбуша - печерний комплекс</name>
    <trkseg>
      <trkpt lat="49.034864" lon="23.731453">
        <ele>452</ele>
      </trkpt>
      <trkpt lat="49.036327" lon="23.727075">
        <ele>449.9588895925409</ele>
      </trkpt>
      <trkpt lat="49.035427" lon="23.722526">
        <ele>462.022712357412</ele>
      </trkpt>
      <trkpt lat="49.034976" lon="23.720295">
        <ele>479.8292399098864</ele>
      </trkpt>
      <trkpt lat="49.034892" lon="23.718578">
        <ele>492.9050370226614</ele>
      </trkpt>
      <trkpt lat="49.034751" lon="23.71669">
        <ele>498.3529325800482</ele>
      </trkpt>
      <trkpt lat="49.03447" lon="23.714845">
        <ele>504.65361588782764</ele>
      </trkpt>
      <trkpt lat="49.034639" lon="23.714158">
        <ele>517.4848223914917</ele>
      </trkpt>
      <trkpt lat="49.035342" lon="23.715059">
        <ele>532.4320262153633</ele>
      </trkpt>
      <trkpt lat="49.035961" lon="23.715746">
        <ele>539.7526851754842</ele>
      </trkpt>
      <trkpt lat="49.036693" lon="23.716175">
        <ele>546.1182072908573</ele>
      </trkpt>
      <trkpt lat="49.037115" lon="23.715746">
        <ele>547.5738859607193</ele>
      </trkpt>
      <trkpt lat="49.037763" lon="23.71388">
        <ele>551.1916534057168</ele>
      </trkpt>
      <trkpt lat="49.038593" lon="23.711412">
        <ele>574.1181250074073</ele>
      </trkpt>
      <trkpt lat="49.039353" lon="23.709824">
        <ele>588.968908939046</ele>
      </trkpt>
      <trkpt lat="49.039894" lon="23.707689">
        <ele>602.1995393957477</ele>
      </trkpt>
      <trkpt lat="49.039922" lon="23.70637">
        <ele>609.3304922016077</ele>
      </trkpt>
      <trkpt lat="49.039831" lon="23.70535">
        <ele>610.9970721091377</ele>
      </trkpt>
      <trkpt lat="49.039937" lon="23.704063">
        <ele>612.9721526500091</ele>
      </trkpt>
      <trkpt lat="49.04057" lon="23.702432">
        <ele>619.6383397140279</ele>
      </trkpt>
      <trkpt lat="49.041202" lon="23.701091">
        <ele>639.3543025502004</ele>
      </trkpt>
      <trkpt lat="49.041709" lon="23.700286">
        <ele>651.4656561927926</ele>
      </trkpt>
      <trkpt lat="49.041723" lon="23.698666">
        <ele>658.1129675668781</ele>
      </trkpt>
      <trkpt lat="49.041716" lon="23.697197">
        <ele>661.1083728529047</ele>
      </trkpt>
      <trkpt lat="49.041552" lon="23.696247">
        <ele>663.9424560890445</ele>
      </trkpt>
      <trkpt lat="49.04125" lon="23.695453">
        <ele>658.3825157433748</ele>
      </trkpt>
      <trkpt lat="49.040986" lon="23.693994">
        <ele>658.5769245447714</ele>
      </trkpt>
      <trkpt lat="49.041026" lon="23.693372">
        <ele>660.7879614655003</ele>
      </trkpt>
      <trkpt lat="49.041374" lon="23.692154">
        <ele>654.4013924205433</ele>
      </trkpt>
      <trkpt lat="49.04162" lon="23.690583">
        <ele>642.8791752840407</ele>
      </trkpt>
      <trkpt lat="49.042074" lon="23.689333">
        <ele>651.0095971471301</ele>
      </trkpt>
      <trkpt lat="49.042369" lon="23.688458">
        <ele>649.0982395530432</ele>
      </trkpt>
      <trkpt lat="49.042752" lon="23.68757">
        <ele>647.1831489019086</ele>
      </trkpt>
      <trkpt lat="49.043029" lon="23.687146">
        <ele>649.136647456151</ele>
      </trkpt>
      <trkpt lat="49.043541" lon="23.68594">
        <ele>668.8315797522332</ele>
      </trkpt>
      <trkpt lat="49.043703" lon="23.684846">
        <ele>678.3612180731715</ele>
      </trkpt>
      <trkpt lat="49.043647" lon="23.682925">
        <ele>667.894262291491</ele>
      </trkpt>
      <trkpt lat="49.043594" lon="23.682379">
        <ele>666.7627931894184</ele>
      </trkpt>
      <trkpt lat="49.043464" lon="23.682127">
        <ele>663.4722382220207</ele>
      </trkpt>
      <trkpt lat="49.043432" lon="23.681821">
        <ele>660.7153794517599</ele>
      </trkpt>
      <trkpt lat="49.043499" lon="23.681709">
        <ele>659.9759800570473</ele>
      </trkpt>
      <trkpt lat="49.043545" lon="23.681462">
        <ele>658.5473914020695</ele>
      </trkpt>
      <trkpt lat="49.044262" lon="23.680902">
        <ele>655.933624711507</ele>
      </trkpt>
      <trkpt lat="49.044339" lon="23.680762">
        <ele>657.2083014307492</ele>
      </trkpt>
      <trkpt lat="49.04448" lon="23.680333">
        <ele>660.6820187898702</ele>
      </trkpt>
      <trkpt lat="49.044817" lon="23.679893">
        <ele>659.7476797720883</ele>
      </trkpt>
      <trkpt lat="49.045382" lon="23.679454">
        <ele>657.0204119897577</ele>
      </trkpt>
      <trkpt lat="49.04591" lon="23.679271">
        <ele>658.9829558713245</ele>
      </trkpt>
      <trkpt lat="49.046578" lon="23.679378">
        <ele>661.8290017041145</ele>
      </trkpt>
      <trkpt lat="49.047098" lon="23.679496">
        <ele>647.2418710390688</ele>
      </trkpt>
      <trkpt lat="49.047784" lon="23.679053">
        <ele>647.4238597420664</ele>
      </trkpt>
      <trkpt lat="49.048227" lon="23.678667">
        <ele>641.2595935482532</ele>
      </trkpt>
      <trkpt lat="49.04855" lon="23.678442">
        <ele>636.7095490377801</ele>
      </trkpt>
      <trkpt lat="49.048818" lon="23.678173">
        <ele>635.8098238302046</ele>
      </trkpt>
      <trkpt lat="49.049106" lon="23.678023">
        <ele>636.7152635285165</ele>
      </trkpt>
      <trkpt lat="49.049528" lon="23.678013">
        <ele>638.4422293333337</ele>
      </trkpt>
      <trkpt lat="49.049999" lon="23.677916">
        <ele>638.2262923145224</ele>
      </trkpt>
      <trkpt lat="49.049781" lon="23.679265">
        <ele>626.7364640933229</ele>
      </trkpt>
      <trkpt lat="49.049964" lon="23.680081">
        <ele>620.0452490722528</ele>
      </trkpt>
      <trkpt lat="49.049922" lon="23.680681">
        <ele>614.740937711882</ele>
      </trkpt>
      <trkpt lat="49.049528" lon="23.681647">
        <ele>603.5781723296147</ele>
      </trkpt>
      <trkpt lat="49.049507" lon="23.683664">
        <ele>596.267506158445</ele>
      </trkpt>
      <trkpt lat="49.049289" lon="23.684394">
        <ele>598.2412551080371</ele>
      </trkpt>
      <trkpt lat="49.049598" lon="23.685231">
        <ele>592.5337485109922</ele>
      </trkpt>
      <trkpt lat="49.049444" lon="23.686926">
        <ele>588.4670311539666</ele>
      </trkpt>
      <trkpt lat="49.049542" lon="23.687655">
        <ele>580.9084109705873</ele>
      </trkpt>
      <trkpt lat="49.049177" lon="23.688857">
        <ele>580.3889849882107</ele>
      </trkpt>
      <trkpt lat="49.049233" lon="23.689715">
        <ele>577.6953620325075</ele>
      </trkpt>
      <trkpt lat="49.048909" lon="23.691839">
        <ele>568.30675406722</ele>
      </trkpt>
      <trkpt lat="49.048389" lon="23.693685">
        <ele>552.8090007857536</ele>
      </trkpt>
      <trkpt lat="49.047995" lon="23.695595">
        <ele>544.0772272021467</ele>
      </trkpt>
      <trkpt lat="49.048105" lon="23.696646">
        <ele>541.0545234700504</ele>
      </trkpt>
      <trkpt lat="49.048141" lon="23.698084">
        <ele>535.8572423566366</ele>
      </trkpt>
      <trkpt lat="49.048091" lon="23.699725">
        <ele>529.6210624269443</ele>
      </trkpt>
      <trkpt lat="49.047908" lon="23.701485">
        <ele>529.0321054715896</ele>
      </trkpt>
      <trkpt lat="49.04769" lon="23.702622">
        <ele>531.1400971370749</ele>
      </trkpt>
      <trkpt lat="49.047269" lon="23.703277">
        <ele>530.8597423961037</ele>
      </trkpt>
      <trkpt lat="49.046934" lon="23.703955">
        <ele>530.587073041941</ele>
      </trkpt>
      <trkpt lat="49.046688" lon="23.704824">
        <ele>530.6465282373829</ele>
      </trkpt>
      <trkpt lat="49.046512" lon="23.705704">
        <ele>528.2830399816157</ele>
      </trkpt>
      <trkpt lat="49.046323" lon="23.70625">
        <ele>526.8340255199</ele>
      </trkpt>
      <trkpt lat="49.045922" lon="23.707023">
        <ele>518.3574618223356</ele>
      </trkpt>
      <trkpt lat="49.045465" lon="23.707806">
        <ele>515.2453519915857</ele>
      </trkpt>
      <trkpt lat="49.045113" lon="23.70846">
        <ele>517.9852454850665</ele>
      </trkpt>
      <trkpt lat="49.044586" lon="23.708997">
        <ele>514.3429607456785</ele>
      </trkpt>
      <trkpt lat="49.043967" lon="23.709533">
        <ele>510.5022336738184</ele>
      </trkpt>
      <trkpt lat="49.043475" lon="23.709935">
        <ele>507.09150421257414</ele>
      </trkpt>
      <trkpt lat="49.043204" lon="23.710176">
        <ele>503.29445862661987</ele>
      </trkpt>
      <trkpt lat="49.043014" lon="23.71119">
        <ele>500.5966693115188</ele>
      </trkpt>
      <trkpt lat="49.042881" lon="23.711828">
        <ele>499.3870714895261</ele>
      </trkpt>
      <trkpt lat="49.042543" lon="23.712676">
        <ele>496.36800807998173</ele>
      </trkpt>
      <trkpt lat="49.042262" lon="23.713228">
        <ele>496.22683895844966</ele>
      </trkpt>
      <trkpt lat="49.041816" lon="23.713914">
        <ele>495.9928658866896</ele>
      </trkpt>
      <trkpt lat="49.04157" lon="23.714386">
        <ele>493.7634529599453</ele>
      </trkpt>
      <trkpt lat="49.041341" lon="23.715196">
        <ele>494.1879136081552</ele>
      </trkpt>
      <trkpt lat="49.040972" lon="23.716408">
        <ele>495.34230433730414</ele>
      </trkpt>
      <trkpt lat="49.040563" lon="23.717358">
        <ele>492.75204353887347</ele>
      </trkpt>
      <trkpt lat="49.040112" lon="23.717899">
        <ele>495.1053629828384</ele>
      </trkpt>
      <trkpt lat="49.039669" lon="23.718436">
        <ele>493.3655540025635</ele>
      </trkpt>
      <trkpt lat="49.039097" lon="23.718806">
        <ele>492.06829269337794</ele>
      </trkpt>
      <trkpt lat="49.038495" lon="23.719267">
        <ele>491.7754555191298</ele>
      </trkpt>
      <trkpt lat="49.038021" lon="23.719616">
        <ele>489.6382218252402</ele>
      </trkpt>
      <trkpt lat="49.037758" lon="23.720037">
        <ele>488.88048895163223</ele>
      </trkpt>
      <trkpt lat="49.037428" lon="23.720622">
        <ele>488.6553293412294</ele>
      </trkpt>
      <trkpt lat="49.037115" lon="23.720896">
        <ele>485.0515824844528</ele>
      </trkpt>
      <trkpt lat="49.036795" lon="23.721094">
        <ele>482.20768986083567</ele>
      </trkpt>
      <trkpt lat="49.036542" lon="23.721046">
        <ele>478.03156226172086</ele>
      </trkpt>
      <trkpt lat="49.036394" lon="23.720601">
        <ele>472.8698747520102</ele>
      </trkpt>
      <trkpt lat="49.036236" lon="23.72059">
        <ele>471.2253699960013</ele>
      </trkpt>
      <trkpt lat="49.036019" lon="23.721245">
        <ele>473.57169851919554</ele>
      </trkpt>
      <trkpt lat="49.035815" lon="23.721755">
        <ele>471.4861457544815</ele>
      </trkpt>
      <trkpt lat="49.03552" lon="23.722237">
        <ele>464.8204756942011</ele>
      </trkpt>
    </trkseg>
  </trk>
</gpx>
