<?xml version="1.0" encoding="UTF-8"?>
<gpx version="1.1" creator="phpGPX/1.0RC5" schemaLocation="http://www.topografix.com/GPX/1/1 http://www.topografix.com/GPX/1/1/gpx.xsd http://www.garmin.com/xmlschemas/GpxExtensions/v3 http://www.garmin.com/xmlschemas/GpxExtensionsv3.xsd http://www.garmin.com/xmlschemas/TrackPointExtension/v1 http://www.garmin.com/xmlschemas/TrackPointExtensionv1.xsd http://www.garmin.com/xmlschemas/PowerExtension/v1 http://www.garmin.com/xmlschemas/PowerExtensionv1.xsd http://www.topografix.com/GPX/gpx_style/0/2 http://www.topografix.com/GPX/gpx_style/0/2/gpx_style.xsd" xmlns="http://www.topografix.com/GPX/1/1" xmlns:xsi="http://www.w3.org/2001/XMLSchema-instance" xsi:schemaLocation="http://www.topografix.com/GPX/1/1 http://www.topografix.com/GPX/1/1/gpx.xsd http://www.garmin.com/xmlschemas/GpxExtensions/v3 http://www.garmin.com/xmlschemas/GpxExtensionsv3.xsd http://www.garmin.com/xmlschemas/TrackPointExtension/v1 http://www.garmin.com/xmlschemas/TrackPointExtensionv1.xsd http://www.garmin.com/xmlschemas/PowerExtension/v1 http://www.garmin.com/xmlschemas/PowerExtensionv1.xsd http://www.topografix.com/GPX/gpx_style/0/2 http://www.topografix.com/GPX/gpx_style/0/2/gpx_style.xsd" xmlns:gpxtpx="http://www.garmin.com/xmlschemas/TrackPointExtension/v1" xmlns:gpxx="http://www.garmin.com/xmlschemas/GpxExtensions/v3" xmlns:gpxpx="http://www.garmin.com/xmlschemas/PowerExtension/v1" xmlns:gpx_style="http://www.topografix.com/GPX/gpx_style/0/2">
  <metadata>
    <name>Хребет Синяк  Буковель - Татарів</name>
    <author>
      <name>gpx.studio</name>
      <link href="https://gpx.studio"/>
    </author>
  </metadata>
  <trk>
    <name>Хребет Синяк  Буковель - Татарів</name>
    <trkseg>
      <trkpt lat="48.358275" lon="24.407826">
        <ele>894.5</ele>
      </trkpt>
      <trkpt lat="48.358916" lon="24.407139">
        <ele>892.6739984783344</ele>
      </trkpt>
      <trkpt lat="48.359444" lon="24.406474">
        <ele>893.5000809141227</ele>
      </trkpt>
      <trkpt lat="48.360257" lon="24.406495">
        <ele>900.2070821222151</ele>
      </trkpt>
      <trkpt lat="48.361497" lon="24.405873">
        <ele>901.5024621860587</ele>
      </trkpt>
      <trkpt lat="48.362637" lon="24.40598">
        <ele>904.5026757928674</ele>
      </trkpt>
      <trkpt lat="48.363978" lon="24.406538">
        <ele>918.1512597262627</ele>
      </trkpt>
      <trkpt lat="48.365018" lon="24.406431">
        <ele>927.6467465889873</ele>
      </trkpt>
      <trkpt lat="48.366373" lon="24.406538">
        <ele>943.2189499565866</ele>
      </trkpt>
      <trkpt lat="48.367556" lon="24.406495">
        <ele>961.2722880049841</ele>
      </trkpt>
      <trkpt lat="48.369095" lon="24.406838">
        <ele>985.7610142198391</ele>
      </trkpt>
      <trkpt lat="48.370792" lon="24.407611">
        <ele>1017.3428277918138</ele>
      </trkpt>
      <trkpt lat="48.372516" lon="24.407783">
        <ele>1053.7766066491145</ele>
      </trkpt>
      <trkpt lat="48.374022" lon="24.40821">
        <ele>1077.8368452313587</ele>
      </trkpt>
      <trkpt lat="48.37616" lon="24.410227">
        <ele>1122.3368391536671</ele>
      </trkpt>
      <trkpt lat="48.377043" lon="24.410141">
        <ele>1143.162601648588</ele>
      </trkpt>
      <trkpt lat="48.378469" lon="24.409883">
        <ele>1182.9060790718067</ele>
      </trkpt>
      <trkpt lat="48.379252" lon="24.410334">
        <ele>1190.4838128824786</ele>
      </trkpt>
      <trkpt lat="48.379894" lon="24.410355">
        <ele>1200.8356323586777</ele>
      </trkpt>
      <trkpt lat="48.381433" lon="24.410463">
        <ele>1205.8083358090553</ele>
      </trkpt>
      <trkpt lat="48.382602" lon="24.410785">
        <ele>1202.2621911174501</ele>
      </trkpt>
      <trkpt lat="48.384126" lon="24.41057">
        <ele>1195.570858823677</ele>
      </trkpt>
      <trkpt lat="48.38605" lon="24.408017">
        <ele>1211.160371630873</ele>
      </trkpt>
      <trkpt lat="48.387062" lon="24.407287">
        <ele>1206.925673041267</ele>
      </trkpt>
      <trkpt lat="48.388202" lon="24.406643">
        <ele>1208.9997489778325</ele>
      </trkpt>
      <trkpt lat="48.389413" lon="24.406">
        <ele>1196.7885152484146</ele>
      </trkpt>
      <trkpt lat="48.390168" lon="24.404669">
        <ele>1203.7086017920208</ele>
      </trkpt>
      <trkpt lat="48.39071" lon="24.403789">
        <ele>1220.5929580532102</ele>
      </trkpt>
      <trkpt lat="48.391187" lon="24.402309">
        <ele>1230.5276148193693</ele>
      </trkpt>
      <trkpt lat="48.391269" lon="24.400573">
        <ele>1243.0101622331028</ele>
      </trkpt>
      <trkpt lat="48.391583" lon="24.400876">
        <ele>1246.9153933102075</ele>
      </trkpt>
      <trkpt lat="48.392528" lon="24.401608">
        <ele>1286.3538457974987</ele>
      </trkpt>
      <trkpt lat="48.392975" lon="24.401862">
        <ele>1301.1722980798222</ele>
      </trkpt>
      <trkpt lat="48.393619" lon="24.403393">
        <ele>1328.5896584970178</ele>
      </trkpt>
      <trkpt lat="48.394532" lon="24.40425">
        <ele>1365.5731752204604</ele>
      </trkpt>
      <trkpt lat="48.395585" lon="24.406386">
        <ele>1422.66213496821</ele>
      </trkpt>
      <trkpt lat="48.395883" lon="24.406432">
        <ele>1430.7110308965202</ele>
      </trkpt>
      <trkpt lat="48.396563" lon="24.406064">
        <ele>1442.3495889750482</ele>
      </trkpt>
      <trkpt lat="48.397108" lon="24.405974">
        <ele>1448.278050861787</ele>
      </trkpt>
      <trkpt lat="48.398167" lon="24.407561">
        <ele>1455.8702383192685</ele>
      </trkpt>
      <trkpt lat="48.397867" lon="24.407655">
        <ele>1451.3433714763962</ele>
      </trkpt>
      <trkpt lat="48.39768" lon="24.408929">
        <ele>1453.9608918505542</ele>
      </trkpt>
      <trkpt lat="48.397406" lon="24.410623">
        <ele>1450.791904860409</ele>
      </trkpt>
      <trkpt lat="48.397501" lon="24.412911">
        <ele>1431.2231095713355</ele>
      </trkpt>
      <trkpt lat="48.395758" lon="24.416311">
        <ele>1403.234093453778</ele>
      </trkpt>
      <trkpt lat="48.395702" lon="24.418183">
        <ele>1403.5692855614468</ele>
      </trkpt>
      <trkpt lat="48.395209" lon="24.419659">
        <ele>1390.7698316301685</ele>
      </trkpt>
      <trkpt lat="48.394528" lon="24.422519">
        <ele>1375.12688076946</ele>
      </trkpt>
      <trkpt lat="48.394864" lon="24.42354">
        <ele>1345.959798173746</ele>
      </trkpt>
      <trkpt lat="48.396424" lon="24.425026">
        <ele>1307.6848609924111</ele>
      </trkpt>
      <trkpt lat="48.397154" lon="24.426467">
        <ele>1333.8115020232508</ele>
      </trkpt>
      <trkpt lat="48.397428" lon="24.427755">
        <ele>1360.8797573370393</ele>
      </trkpt>
      <trkpt lat="48.397384" lon="24.431614">
        <ele>1437.2907441318966</ele>
      </trkpt>
      <trkpt lat="48.397957" lon="24.432295">
        <ele>1433.5800329869844</ele>
      </trkpt>
      <trkpt lat="48.398635" lon="24.433592">
        <ele>1472.9529938781634</ele>
      </trkpt>
      <trkpt lat="48.399406" lon="24.434224">
        <ele>1522.3729383045375</ele>
      </trkpt>
      <trkpt lat="48.399619" lon="24.434671">
        <ele>1545.0674268277362</ele>
      </trkpt>
      <trkpt lat="48.400274" lon="24.435099">
        <ele>1583.6909942217699</ele>
      </trkpt>
      <trkpt lat="48.400274" lon="24.435099">
        <ele>1583.6909942217699</ele>
      </trkpt>
      <trkpt lat="48.398268" lon="24.439992">
        <ele>1552.7881737628234</ele>
      </trkpt>
      <trkpt lat="48.395793" lon="24.443685">
        <ele>1535.2340216722966</ele>
      </trkpt>
      <trkpt lat="48.394841" lon="24.445662">
        <ele>1557.3723967595176</ele>
      </trkpt>
      <trkpt lat="48.394755" lon="24.446218">
        <ele>1568.2270558978742</ele>
      </trkpt>
      <trkpt lat="48.394354" lon="24.447688">
        <ele>1580.0050313173695</ele>
      </trkpt>
      <trkpt lat="48.393612" lon="24.449274">
        <ele>1587.6741310656398</ele>
      </trkpt>
      <trkpt lat="48.393055" lon="24.449863">
        <ele>1587.1199367746658</ele>
      </trkpt>
      <trkpt lat="48.392519" lon="24.451094">
        <ele>1597.306100243704</ele>
      </trkpt>
      <trkpt lat="48.391766" lon="24.45244">
        <ele>1608.0132577796094</ele>
      </trkpt>
      <trkpt lat="48.391208" lon="24.453061">
        <ele>1607.4979993915322</ele>
      </trkpt>
      <trkpt lat="48.390232" lon="24.4553">
        <ele>1638.8636061491502</ele>
      </trkpt>
      <trkpt lat="48.389384" lon="24.45652">
        <ele>1656.4774168846197</ele>
      </trkpt>
      <trkpt lat="48.389077" lon="24.456969">
        <ele>1661.115440348629</ele>
      </trkpt>
      <trkpt lat="48.388744" lon="24.457183">
        <ele>1663.7086705777328</ele>
      </trkpt>
      <trkpt lat="48.388199" lon="24.457612">
        <ele>1663.5153383066893</ele>
      </trkpt>
      <trkpt lat="48.387732" lon="24.457817">
        <ele>1659.7348255866596</ele>
      </trkpt>
      <trkpt lat="48.387416" lon="24.457423">
        <ele>1650.0095124258646</ele>
      </trkpt>
      <trkpt lat="48.387267" lon="24.457525">
        <ele>1647.2517976491413</ele>
      </trkpt>
      <trkpt lat="48.387072" lon="24.457997">
        <ele>1646.9805061704308</ele>
      </trkpt>
      <trkpt lat="48.386771" lon="24.458311">
        <ele>1639.0793357630027</ele>
      </trkpt>
      <trkpt lat="48.386671" lon="24.459044">
        <ele>1642.9211334589272</ele>
      </trkpt>
      <trkpt lat="48.386401" lon="24.459541">
        <ele>1639.4176504570291</ele>
      </trkpt>
      <trkpt lat="48.386237" lon="24.460386">
        <ele>1642.5168769283566</ele>
      </trkpt>
      <trkpt lat="48.386038" lon="24.460847">
        <ele>1641.6160437876633</ele>
      </trkpt>
      <trkpt lat="48.38518" lon="24.4628">
        <ele>1641.4418931818536</ele>
      </trkpt>
      <trkpt lat="48.384357" lon="24.463282">
        <ele>1629.2960414445622</ele>
      </trkpt>
      <trkpt lat="48.383965" lon="24.463864">
        <ele>1623.5006814506182</ele>
      </trkpt>
      <trkpt lat="48.38316" lon="24.466024">
        <ele>1596.3280317229894</ele>
      </trkpt>
      <trkpt lat="48.382346" lon="24.467487">
        <ele>1568.0643669561152</ele>
      </trkpt>
      <trkpt lat="48.381864" lon="24.469263">
        <ele>1556.3092603497032</ele>
      </trkpt>
      <trkpt lat="48.381369" lon="24.46989">
        <ele>1545.1146627690746</ele>
      </trkpt>
      <trkpt lat="48.381112" lon="24.470231">
        <ele>1538.4896411562468</ele>
      </trkpt>
      <trkpt lat="48.380968" lon="24.470571">
        <ele>1534.7440331328698</ele>
      </trkpt>
      <trkpt lat="48.380492" lon="24.471139">
        <ele>1523.6895393113975</ele>
      </trkpt>
      <trkpt lat="48.380238" lon="24.471331">
        <ele>1517.028669578518</ele>
      </trkpt>
      <trkpt lat="48.380003" lon="24.471827">
        <ele>1515.3647055415968</ele>
      </trkpt>
      <trkpt lat="48.379997" lon="24.472088">
        <ele>1517.9068149155048</ele>
      </trkpt>
      <trkpt lat="48.379611" lon="24.472593">
        <ele>1513.948461691227</ele>
      </trkpt>
      <trkpt lat="48.379347" lon="24.473342">
        <ele>1516.7977833133943</ele>
      </trkpt>
      <trkpt lat="48.378608" lon="24.474553">
        <ele>1503.2264373432845</ele>
      </trkpt>
      <trkpt lat="48.378649" lon="24.47643">
        <ele>1488.372077869421</ele>
      </trkpt>
      <trkpt lat="48.378164" lon="24.477255">
        <ele>1466.7791605581135</ele>
      </trkpt>
      <trkpt lat="48.37745" lon="24.478964">
        <ele>1439.9791210091014</ele>
      </trkpt>
      <trkpt lat="48.377159" lon="24.479143">
        <ele>1437.7286299793009</ele>
      </trkpt>
      <trkpt lat="48.376975" lon="24.479241">
        <ele>1436.6804968436722</ele>
      </trkpt>
      <trkpt lat="48.375819" lon="24.481962">
        <ele>1429.8844623844489</ele>
      </trkpt>
      <trkpt lat="48.375905" lon="24.482489">
        <ele>1422.0758343109628</ele>
      </trkpt>
      <trkpt lat="48.376414" lon="24.483308">
        <ele>1414.8935032889713</ele>
      </trkpt>
      <trkpt lat="48.376532" lon="24.484019">
        <ele>1408.5032561775297</ele>
      </trkpt>
      <trkpt lat="48.376607" lon="24.485277">
        <ele>1389.1669176957232</ele>
      </trkpt>
      <trkpt lat="48.376902" lon="24.485778">
        <ele>1373.782932246686</ele>
      </trkpt>
      <trkpt lat="48.377301" lon="24.486197">
        <ele>1356.2073376260812</ele>
      </trkpt>
      <trkpt lat="48.377865" lon="24.486904">
        <ele>1333.6902077307814</ele>
      </trkpt>
      <trkpt lat="48.378099" lon="24.487796">
        <ele>1333.0263289645081</ele>
      </trkpt>
      <trkpt lat="48.378188" lon="24.488653">
        <ele>1330.490986949654</ele>
      </trkpt>
      <trkpt lat="48.378003" lon="24.489643">
        <ele>1323.4283893165186</ele>
      </trkpt>
      <trkpt lat="48.377946" lon="24.489877">
        <ele>1322.4536927314468</ele>
      </trkpt>
      <trkpt lat="48.377916" lon="24.490041">
        <ele>1321.663590853645</ele>
      </trkpt>
      <trkpt lat="48.377735" lon="24.490425">
        <ele>1319.940574906276</ele>
      </trkpt>
      <trkpt lat="48.37634" lon="24.493715">
        <ele>1306.8458200672164</ele>
      </trkpt>
      <trkpt lat="48.374997" lon="24.495657">
        <ele>1310.384910190478</ele>
      </trkpt>
      <trkpt lat="48.373846" lon="24.496502">
        <ele>1326.1052203195563</ele>
      </trkpt>
      <trkpt lat="48.373114" lon="24.496664">
        <ele>1329.8055296180148</ele>
      </trkpt>
      <trkpt lat="48.373114" lon="24.496664">
        <ele>1329.8055296180148</ele>
      </trkpt>
      <trkpt lat="48.373846" lon="24.496502">
        <ele>1326.1052203195563</ele>
      </trkpt>
      <trkpt lat="48.374997" lon="24.495822">
        <ele>1310.5146110339065</ele>
      </trkpt>
      <trkpt lat="48.37531" lon="24.496595">
        <ele>1296.9488147497696</ele>
      </trkpt>
      <trkpt lat="48.376222" lon="24.497067">
        <ele>1274.0415261165626</ele>
      </trkpt>
      <trkpt lat="48.377819" lon="24.499556">
        <ele>1165.4388962749154</ele>
      </trkpt>
      <trkpt lat="48.380527" lon="24.505392">
        <ele>1032.3897358622387</ele>
      </trkpt>
      <trkpt lat="48.382037" lon="24.507495">
        <ele>987.9323063776465</ele>
      </trkpt>
      <trkpt lat="48.383149" lon="24.510585">
        <ele>888.9447923711415</ele>
      </trkpt>
      <trkpt lat="48.382978" lon="24.512902">
        <ele>839.5992118952954</ele>
      </trkpt>
      <trkpt lat="48.38312" lon="24.515263">
        <ele>809.5477438854286</ele>
      </trkpt>
      <trkpt lat="48.382493" lon="24.516421">
        <ele>803.32494101768</ele>
      </trkpt>
      <trkpt lat="48.382379" lon="24.517966">
        <ele>782.9046130716623</ele>
      </trkpt>
      <trkpt lat="48.380897" lon="24.520498">
        <ele>763.6570177864123</ele>
      </trkpt>
      <trkpt lat="48.379957" lon="24.523674">
        <ele>749.1358482991927</ele>
      </trkpt>
      <trkpt lat="48.380014" lon="24.524661">
        <ele>736.8806301398818</ele>
      </trkpt>
      <trkpt lat="48.380112" lon="24.524629">
        <ele>734.566006570549</ele>
      </trkpt>
      <trkpt lat="48.379693" lon="24.525351">
        <ele>737.192599228978</ele>
      </trkpt>
      <trkpt lat="48.379366" lon="24.526418">
        <ele>730.2411726983163</ele>
      </trkpt>
      <trkpt lat="48.379212" lon="24.52666">
        <ele>729.7883641288992</ele>
      </trkpt>
      <trkpt lat="48.37897" lon="24.527116">
        <ele>730.7250241192633</ele>
      </trkpt>
      <trkpt lat="48.378307" lon="24.527888">
        <ele>739.737533396688</ele>
      </trkpt>
      <trkpt lat="48.378371" lon="24.528532">
        <ele>721.9095991268991</ele>
      </trkpt>
      <trkpt lat="48.378257" lon="24.528666">
        <ele>722.1977046075402</ele>
      </trkpt>
      <trkpt lat="48.377759" lon="24.528773">
        <ele>720.3632454234175</ele>
      </trkpt>
      <trkpt lat="48.377474" lon="24.52924">
        <ele>722.8182119316249</ele>
      </trkpt>
      <trkpt lat="48.377039" lon="24.531343">
        <ele>719.2134751713602</ele>
      </trkpt>
      <trkpt lat="48.377153" lon="24.532298">
        <ele>708.532768384458</ele>
      </trkpt>
      <trkpt lat="48.377074" lon="24.532534">
        <ele>707.6741333834792</ele>
      </trkpt>
      <trkpt lat="48.376509" lon="24.533479">
        <ele>712.3581779754022</ele>
      </trkpt>
      <trkpt lat="48.376335" lon="24.534412">
        <ele>701.002576783123</ele>
      </trkpt>
      <trkpt lat="48.37579" lon="24.535742">
        <ele>697.0947566172898</ele>
      </trkpt>
      <trkpt lat="48.375647" lon="24.536499">
        <ele>696.1964180509146</ele>
      </trkpt>
      <trkpt lat="48.375487" lon="24.536976">
        <ele>697.880293685306</ele>
      </trkpt>
      <trkpt lat="48.375579" lon="24.538671">
        <ele>709.8135057716572</ele>
      </trkpt>
      <trkpt lat="48.375526" lon="24.539621">
        <ele>690.8035922166832</ele>
      </trkpt>
      <trkpt lat="48.375394" lon="24.540195">
        <ele>686.4682760122554</ele>
      </trkpt>
      <trkpt lat="48.375109" lon="24.54071">
        <ele>681.0867171610573</ele>
      </trkpt>
      <trkpt lat="48.374803" lon="24.541541">
        <ele>680.5490913303424</ele>
      </trkpt>
      <trkpt lat="48.374553" lon="24.542427">
        <ele>675.2539421781269</ele>
      </trkpt>
      <trkpt lat="48.374183" lon="24.542866">
        <ele>671.2880941248357</ele>
      </trkpt>
      <trkpt lat="48.37358" lon="24.543033">
        <ele>672.2129399779919</ele>
      </trkpt>
      <trkpt lat="48.37269" lon="24.543853">
        <ele>676.3135656670986</ele>
      </trkpt>
      <trkpt lat="48.372358" lon="24.545098">
        <ele>664.5922226119867</ele>
      </trkpt>
      <trkpt lat="48.371916" lon="24.546144">
        <ele>660.7322468367638</ele>
      </trkpt>
      <trkpt lat="48.371417" lon="24.548392">
        <ele>652.2700320721984</ele>
      </trkpt>
      <trkpt lat="48.371129" lon="24.550312">
        <ele>649.1516658433791</ele>
      </trkpt>
      <trkpt lat="48.370997" lon="24.550505">
        <ele>647.413909333176</ele>
      </trkpt>
    </trkseg>
  </trk>
</gpx>
