<?xml version="1.0" encoding="UTF-8"?>
<gpx version="1.1" creator="phpGPX/1.0RC5" schemaLocation="http://www.topografix.com/GPX/1/1 http://www.topografix.com/GPX/1/1/gpx.xsd http://www.garmin.com/xmlschemas/GpxExtensions/v3 http://www.garmin.com/xmlschemas/GpxExtensionsv3.xsd http://www.garmin.com/xmlschemas/TrackPointExtension/v1 http://www.garmin.com/xmlschemas/TrackPointExtensionv1.xsd http://www.garmin.com/xmlschemas/PowerExtension/v1 http://www.garmin.com/xmlschemas/PowerExtensionv1.xsd http://www.topografix.com/GPX/gpx_style/0/2 http://www.topografix.com/GPX/gpx_style/0/2/gpx_style.xsd" xmlns="http://www.topografix.com/GPX/1/1" xmlns:xsi="http://www.w3.org/2001/XMLSchema-instance" xsi:schemaLocation="http://www.topografix.com/GPX/1/1 http://www.topografix.com/GPX/1/1/gpx.xsd http://www.garmin.com/xmlschemas/GpxExtensions/v3 http://www.garmin.com/xmlschemas/GpxExtensionsv3.xsd http://www.garmin.com/xmlschemas/TrackPointExtension/v1 http://www.garmin.com/xmlschemas/TrackPointExtensionv1.xsd http://www.garmin.com/xmlschemas/PowerExtension/v1 http://www.garmin.com/xmlschemas/PowerExtensionv1.xsd http://www.topografix.com/GPX/gpx_style/0/2 http://www.topografix.com/GPX/gpx_style/0/2/gpx_style.xsd" xmlns:gpxtpx="http://www.garmin.com/xmlschemas/TrackPointExtension/v1" xmlns:gpxx="http://www.garmin.com/xmlschemas/GpxExtensions/v3" xmlns:gpxpx="http://www.garmin.com/xmlschemas/PowerExtension/v1" xmlns:gpx_style="http://www.topografix.com/GPX/gpx_style/0/2">
  <metadata>
    <name>Хребет Кринта-Скупова, Угорські Скелі</name>
    <author>
      <name>gpx.studio</name>
      <link href="https://gpx.studio"/>
    </author>
  </metadata>
  <trk>
    <name>Хребет Кринта-Скупова, Угорські Скелі</name>
    <trkseg>
      <trkpt lat="48.047549" lon="24.749793">
        <ele>772.6807029929477</ele>
      </trkpt>
      <trkpt lat="48.048281" lon="24.750373">
        <ele>771.1310633329558</ele>
      </trkpt>
      <trkpt lat="48.048668" lon="24.751596">
        <ele>773.8172509765718</ele>
      </trkpt>
      <trkpt lat="48.049113" lon="24.752261">
        <ele>776.8466957045532</ele>
      </trkpt>
      <trkpt lat="48.04917" lon="24.752712">
        <ele>777.9992725333432</ele>
      </trkpt>
      <trkpt lat="48.048582" lon="24.75313">
        <ele>782.8451249937643</ele>
      </trkpt>
      <trkpt lat="48.04851" lon="24.754278">
        <ele>805.3105421885848</ele>
      </trkpt>
      <trkpt lat="48.048654" lon="24.755244">
        <ele>825.1275370526128</ele>
      </trkpt>
      <trkpt lat="48.04917" lon="24.756445">
        <ele>839.9794968722415</ele>
      </trkpt>
      <trkpt lat="48.048826" lon="24.758334">
        <ele>852.6193542469455</ele>
      </trkpt>
      <trkpt lat="48.048181" lon="24.759707">
        <ele>864.0520155195263</ele>
      </trkpt>
      <trkpt lat="48.047277" lon="24.761252">
        <ele>881.1862341313426</ele>
      </trkpt>
      <trkpt lat="48.046803" lon="24.762926">
        <ele>888.0363616614427</ele>
      </trkpt>
      <trkpt lat="48.046129" lon="24.764535">
        <ele>914.8951578454542</ele>
      </trkpt>
      <trkpt lat="48.045455" lon="24.765393">
        <ele>932.3584544350742</ele>
      </trkpt>
      <trkpt lat="48.045164" lon="24.766659">
        <ele>959.9237271944876</ele>
      </trkpt>
      <trkpt lat="48.04492" lon="24.769277">
        <ele>1012.7917788667837</ele>
      </trkpt>
      <trkpt lat="48.044389" lon="24.770243">
        <ele>1029.49041312513</ele>
      </trkpt>
      <trkpt lat="48.044031" lon="24.771509">
        <ele>1038.9640132108095</ele>
      </trkpt>
      <trkpt lat="48.042926" lon="24.773569">
        <ele>1055.7988207419025</ele>
      </trkpt>
      <trkpt lat="48.04175" lon="24.775435">
        <ele>1098.5924919930985</ele>
      </trkpt>
      <trkpt lat="48.041377" lon="24.77627">
        <ele>1104.7142048848327</ele>
      </trkpt>
      <trkpt lat="48.040817" lon="24.776935">
        <ele>1097.60023683367</ele>
      </trkpt>
      <trkpt lat="48.039813" lon="24.777986">
        <ele>1106.2584838620483</ele>
      </trkpt>
      <trkpt lat="48.038622" lon="24.778995">
        <ele>1141.9243947261673</ele>
      </trkpt>
      <trkpt lat="48.038392" lon="24.779853">
        <ele>1157.95643009284</ele>
      </trkpt>
      <trkpt lat="48.03789" lon="24.780604">
        <ele>1159.721832533367</ele>
      </trkpt>
      <trkpt lat="48.037517" lon="24.781956">
        <ele>1173.6474077937892</ele>
      </trkpt>
      <trkpt lat="48.035867" lon="24.783866">
        <ele>1212.2965608694426</ele>
      </trkpt>
      <trkpt lat="48.035222" lon="24.785604">
        <ele>1231.6068685914506</ele>
      </trkpt>
      <trkpt lat="48.03459" lon="24.788222">
        <ele>1238.7803954150543</ele>
      </trkpt>
      <trkpt lat="48.03421" lon="24.789627">
        <ele>1244.0744224498742</ele>
      </trkpt>
      <trkpt lat="48.033566" lon="24.790828">
        <ele>1250.57240303664</ele>
      </trkpt>
      <trkpt lat="48.0332" lon="24.790877">
        <ele>1250.8104260112161</ele>
      </trkpt>
      <trkpt lat="48.032791" lon="24.790877">
        <ele>1255.1615560117125</ele>
      </trkpt>
      <trkpt lat="48.032468" lon="24.790989">
        <ele>1255.5106006181004</ele>
      </trkpt>
      <trkpt lat="48.031881" lon="24.791347">
        <ele>1250.5035633156187</ele>
      </trkpt>
      <trkpt lat="48.031278" lon="24.791664">
        <ele>1255.3038546130992</ele>
      </trkpt>
      <trkpt lat="48.030848" lon="24.79197">
        <ele>1254.4659867971354</ele>
      </trkpt>
      <trkpt lat="48.030373" lon="24.792631">
        <ele>1240.2751559615983</ele>
      </trkpt>
      <trkpt lat="48.030287" lon="24.792846">
        <ele>1235.3685719674882</ele>
      </trkpt>
      <trkpt lat="48.03029" lon="24.793071">
        <ele>1232.4369200322062</ele>
      </trkpt>
      <trkpt lat="48.030039" lon="24.793414">
        <ele>1220.5219099310643</ele>
      </trkpt>
      <trkpt lat="48.029759" lon="24.79423">
        <ele>1202.3191722477382</ele>
      </trkpt>
      <trkpt lat="48.029713" lon="24.79438">
        <ele>1198.0553163038944</ele>
      </trkpt>
      <trkpt lat="48.029185" lon="24.795115">
        <ele>1171.4637389878403</ele>
      </trkpt>
      <trkpt lat="48.029185" lon="24.795115">
        <ele>1171.4637389878403</ele>
      </trkpt>
      <trkpt lat="48.029713" lon="24.79438">
        <ele>1198.0553163038944</ele>
      </trkpt>
      <trkpt lat="48.029759" lon="24.79423">
        <ele>1202.3191722477382</ele>
      </trkpt>
      <trkpt lat="48.030039" lon="24.793414">
        <ele>1220.5219099310643</ele>
      </trkpt>
      <trkpt lat="48.03029" lon="24.793071">
        <ele>1232.4369200322062</ele>
      </trkpt>
      <trkpt lat="48.030287" lon="24.792846">
        <ele>1235.3685719674882</ele>
      </trkpt>
      <trkpt lat="48.030373" lon="24.792631">
        <ele>1240.2751559615983</ele>
      </trkpt>
      <trkpt lat="48.030848" lon="24.79197">
        <ele>1254.4659867971354</ele>
      </trkpt>
      <trkpt lat="48.031278" lon="24.791664">
        <ele>1255.3038546130992</ele>
      </trkpt>
      <trkpt lat="48.031881" lon="24.791347">
        <ele>1250.5035633156187</ele>
      </trkpt>
      <trkpt lat="48.032468" lon="24.790989">
        <ele>1255.5106006181004</ele>
      </trkpt>
      <trkpt lat="48.032791" lon="24.790877">
        <ele>1255.1615560117125</ele>
      </trkpt>
      <trkpt lat="48.0332" lon="24.790877">
        <ele>1250.8104260112161</ele>
      </trkpt>
      <trkpt lat="48.033566" lon="24.790828">
        <ele>1250.57240303664</ele>
      </trkpt>
      <trkpt lat="48.0336" lon="24.790818">
        <ele>1250.8273922757512</ele>
      </trkpt>
      <trkpt lat="48.033945" lon="24.793607">
        <ele>1252.478192305076</ele>
      </trkpt>
      <trkpt lat="48.034059" lon="24.797019">
        <ele>1255.790510532828</ele>
      </trkpt>
      <trkpt lat="48.034174" lon="24.797749">
        <ele>1257.0982652620933</ele>
      </trkpt>
      <trkpt lat="48.033643" lon="24.801118">
        <ele>1270.1778896343894</ele>
      </trkpt>
      <trkpt lat="48.033643" lon="24.80307">
        <ele>1249.3968750241738</ele>
      </trkpt>
      <trkpt lat="48.033873" lon="24.804765">
        <ele>1255.8481032156953</ele>
      </trkpt>
      <trkpt lat="48.034303" lon="24.806117">
        <ele>1267.6831861387473</ele>
      </trkpt>
      <trkpt lat="48.034562" lon="24.807641">
        <ele>1291.5120282726734</ele>
      </trkpt>
      <trkpt lat="48.034662" lon="24.807984">
        <ele>1300.6394794210976</ele>
      </trkpt>
      <trkpt lat="48.03493" lon="24.808322">
        <ele>1319.435849832753</ele>
      </trkpt>
      <trkpt lat="48.035066" lon="24.808451">
        <ele>1328.279171896167</ele>
      </trkpt>
      <trkpt lat="48.035023" lon="24.808773">
        <ele>1337.0696504097266</ele>
      </trkpt>
      <trkpt lat="48.035281" lon="24.808945">
        <ele>1347.383408246329</ele>
      </trkpt>
      <trkpt lat="48.035382" lon="24.809256">
        <ele>1357.304045936594</ele>
      </trkpt>
      <trkpt lat="48.035425" lon="24.809524">
        <ele>1365.5037163443471</ele>
      </trkpt>
      <trkpt lat="48.035603" lon="24.809497">
        <ele>1365.0559728184946</ele>
      </trkpt>
      <trkpt lat="48.039577" lon="24.811128">
        <ele>1418.764620127343</ele>
      </trkpt>
      <trkpt lat="48.039706" lon="24.812458">
        <ele>1425.4593360963045</ele>
      </trkpt>
      <trkpt lat="48.039591" lon="24.814561">
        <ele>1412.9770704366874</ele>
      </trkpt>
      <trkpt lat="48.039735" lon="24.816964">
        <ele>1406.036414365105</ele>
      </trkpt>
      <trkpt lat="48.041169" lon="24.816664">
        <ele>1384.1976923928223</ele>
      </trkpt>
      <trkpt lat="48.041801" lon="24.817093">
        <ele>1379.9153155543024</ele>
      </trkpt>
      <trkpt lat="48.043063" lon="24.816921">
        <ele>1389.2268172166582</ele>
      </trkpt>
      <trkpt lat="48.044152" lon="24.816353">
        <ele>1390.0405397209363</ele>
      </trkpt>
      <trkpt lat="48.044403" lon="24.816648">
        <ele>1400.4183029868584</ele>
      </trkpt>
      <trkpt lat="48.044737" lon="24.817362">
        <ele>1417.100230774416</ele>
      </trkpt>
      <trkpt lat="48.044963" lon="24.818188">
        <ele>1427.1749777351256</ele>
      </trkpt>
      <trkpt lat="48.043948" lon="24.818869">
        <ele>1444.425009130784</ele>
      </trkpt>
      <trkpt lat="48.043399" lon="24.819331">
        <ele>1455.7443386961384</ele>
      </trkpt>
      <trkpt lat="48.042867" lon="24.819878">
        <ele>1462.714048439591</ele>
      </trkpt>
      <trkpt lat="48.042078" lon="24.820688">
        <ele>1477.5577204115689</ele>
      </trkpt>
      <trkpt lat="48.041589" lon="24.820961">
        <ele>1490.7001480238978</ele>
      </trkpt>
      <trkpt lat="48.041263" lon="24.821364">
        <ele>1498.7234205613495</ele>
      </trkpt>
      <trkpt lat="48.041015" lon="24.821444">
        <ele>1503.625422963756</ele>
      </trkpt>
      <trkpt lat="48.040623" lon="24.821364">
        <ele>1513.5550579022383</ele>
      </trkpt>
      <trkpt lat="48.040402" lon="24.821551">
        <ele>1520.861585406179</ele>
      </trkpt>
      <trkpt lat="48.040153" lon="24.821525">
        <ele>1528.1135047994321</ele>
      </trkpt>
      <trkpt lat="48.039937" lon="24.821444">
        <ele>1533.1936032673111</ele>
      </trkpt>
      <trkpt lat="48.0395" lon="24.821804">
        <ele>1544.1803815495518</ele>
      </trkpt>
      <trkpt lat="48.039156" lon="24.821868">
        <ele>1549.022177860907</ele>
      </trkpt>
      <trkpt lat="48.038458" lon="24.822662">
        <ele>1555.1672078156057</ele>
      </trkpt>
      <trkpt lat="48.03768" lon="24.823525">
        <ele>1545.3140240884397</ele>
      </trkpt>
      <trkpt lat="48.036918" lon="24.824389">
        <ele>1540.803058677638</ele>
      </trkpt>
      <trkpt lat="48.03639" lon="24.824916">
        <ele>1544.4413900207328</ele>
      </trkpt>
      <trkpt lat="48.035479" lon="24.825452">
        <ele>1550.9178851822771</ele>
      </trkpt>
      <trkpt lat="48.034529" lon="24.825683">
        <ele>1564.2571455622965</ele>
      </trkpt>
      <trkpt lat="48.034073" lon="24.825807">
        <ele>1571.010870719304</ele>
      </trkpt>
      <trkpt lat="48.033847" lon="24.825834">
        <ele>1574.232223123312</ele>
      </trkpt>
      <trkpt lat="48.033546" lon="24.825796">
        <ele>1576.2280687896764</ele>
      </trkpt>
      <trkpt lat="48.033431" lon="24.825812">
        <ele>1576.1315300199203</ele>
      </trkpt>
      <trkpt lat="48.033352" lon="24.825995">
        <ele>1576.1394304780988</ele>
      </trkpt>
      <trkpt lat="48.033352" lon="24.825995">
        <ele>1576.1394304780988</ele>
      </trkpt>
      <trkpt lat="48.033431" lon="24.825812">
        <ele>1576.1315300199203</ele>
      </trkpt>
      <trkpt lat="48.033546" lon="24.825796">
        <ele>1576.2280687896764</ele>
      </trkpt>
      <trkpt lat="48.033847" lon="24.825834">
        <ele>1574.232223123312</ele>
      </trkpt>
      <trkpt lat="48.034073" lon="24.825807">
        <ele>1571.010870719304</ele>
      </trkpt>
      <trkpt lat="48.034529" lon="24.825683">
        <ele>1564.2571455622965</ele>
      </trkpt>
      <trkpt lat="48.035479" lon="24.825452">
        <ele>1550.9178851822771</ele>
      </trkpt>
      <trkpt lat="48.03639" lon="24.824916">
        <ele>1544.4413900207328</ele>
      </trkpt>
      <trkpt lat="48.036918" lon="24.824389">
        <ele>1540.803058677638</ele>
      </trkpt>
      <trkpt lat="48.03768" lon="24.823525">
        <ele>1545.3140240884397</ele>
      </trkpt>
      <trkpt lat="48.038458" lon="24.822662">
        <ele>1555.1672078156057</ele>
      </trkpt>
      <trkpt lat="48.039156" lon="24.821868">
        <ele>1549.022177860907</ele>
      </trkpt>
      <trkpt lat="48.0395" lon="24.821804">
        <ele>1544.1803815495518</ele>
      </trkpt>
      <trkpt lat="48.039937" lon="24.821444">
        <ele>1533.1936032673111</ele>
      </trkpt>
      <trkpt lat="48.040153" lon="24.821525">
        <ele>1528.1135047994321</ele>
      </trkpt>
      <trkpt lat="48.040402" lon="24.821551">
        <ele>1520.861585406179</ele>
      </trkpt>
      <trkpt lat="48.040623" lon="24.821364">
        <ele>1513.5550579022383</ele>
      </trkpt>
      <trkpt lat="48.041015" lon="24.821444">
        <ele>1503.625422963756</ele>
      </trkpt>
      <trkpt lat="48.041263" lon="24.821364">
        <ele>1498.7234205613495</ele>
      </trkpt>
      <trkpt lat="48.041589" lon="24.820961">
        <ele>1490.7001480238978</ele>
      </trkpt>
      <trkpt lat="48.042078" lon="24.820688">
        <ele>1477.5577204115689</ele>
      </trkpt>
      <trkpt lat="48.042867" lon="24.819878">
        <ele>1462.714048439591</ele>
      </trkpt>
      <trkpt lat="48.043399" lon="24.819331">
        <ele>1455.7443386961384</ele>
      </trkpt>
      <trkpt lat="48.043948" lon="24.818869">
        <ele>1444.425009130784</ele>
      </trkpt>
      <trkpt lat="48.044963" lon="24.818188">
        <ele>1427.1749777351256</ele>
      </trkpt>
      <trkpt lat="48.044737" lon="24.817362">
        <ele>1417.100230774416</ele>
      </trkpt>
      <trkpt lat="48.044403" lon="24.816648">
        <ele>1400.4183029868584</ele>
      </trkpt>
      <trkpt lat="48.044152" lon="24.816353">
        <ele>1390.0405397209363</ele>
      </trkpt>
      <trkpt lat="48.044327" lon="24.816235">
        <ele>1390.7796178369317</ele>
      </trkpt>
      <trkpt lat="48.046508" lon="24.813874">
        <ele>1410.1693461337127</ele>
      </trkpt>
      <trkpt lat="48.047455" lon="24.814904">
        <ele>1416.696066455693</ele>
      </trkpt>
      <trkpt lat="48.049578" lon="24.816235">
        <ele>1420.7690179657138</ele>
      </trkpt>
      <trkpt lat="48.052303" lon="24.813359">
        <ele>1418.4543522285257</ele>
      </trkpt>
      <trkpt lat="48.055315" lon="24.814175">
        <ele>1391.066842279707</ele>
      </trkpt>
      <trkpt lat="48.056577" lon="24.814604">
        <ele>1375.2191999355564</ele>
      </trkpt>
      <trkpt lat="48.057811" lon="24.815076">
        <ele>1364.2922890551272</ele>
      </trkpt>
      <trkpt lat="48.059063" lon="24.816063">
        <ele>1356.6378407112788</ele>
      </trkpt>
      <trkpt lat="48.059895" lon="24.814818">
        <ele>1361.9956762112301</ele>
      </trkpt>
      <trkpt lat="48.061845" lon="24.81293">
        <ele>1377.750630882661</ele>
      </trkpt>
      <trkpt lat="48.062533" lon="24.810956">
        <ele>1386.1901480559027</ele>
      </trkpt>
      <trkpt lat="48.064455" lon="24.807265">
        <ele>1389.480180010898</ele>
      </trkpt>
      <trkpt lat="48.066147" lon="24.804261">
        <ele>1392.360559940832</ele>
      </trkpt>
      <trkpt lat="48.068126" lon="24.803274">
        <ele>1385.5299128274783</ele>
      </trkpt>
      <trkpt lat="48.070133" lon="24.803274">
        <ele>1374.2239928459305</ele>
      </trkpt>
      <trkpt lat="48.071066" lon="24.802759">
        <ele>1366.7437999006145</ele>
      </trkpt>
      <trkpt lat="48.073503" lon="24.799455">
        <ele>1355.0039233766147</ele>
      </trkpt>
      <trkpt lat="48.076485" lon="24.798854">
        <ele>1349.3975886221742</ele>
      </trkpt>
      <trkpt lat="48.077804" lon="24.798725">
        <ele>1337.9734919950552</ele>
      </trkpt>
      <trkpt lat="48.079352" lon="24.798768">
        <ele>1324.7967684469622</ele>
      </trkpt>
      <trkpt lat="48.080929" lon="24.797953">
        <ele>1327.4380316196696</ele>
      </trkpt>
      <trkpt lat="48.082334" lon="24.798124">
        <ele>1330.1723661042383</ele>
      </trkpt>
      <trkpt lat="48.083944" lon="24.797009">
        <ele>1344.1687959310946</ele>
      </trkpt>
      <trkpt lat="48.086696" lon="24.797481">
        <ele>1343.8429250989575</ele>
      </trkpt>
      <trkpt lat="48.088015" lon="24.796708">
        <ele>1346.5239088844976</ele>
      </trkpt>
      <trkpt lat="48.089735" lon="24.794434">
        <ele>1322.8741819718516</ele>
      </trkpt>
      <trkpt lat="48.090595" lon="24.793146">
        <ele>1310.4846370080431</ele>
      </trkpt>
      <trkpt lat="48.091225" lon="24.79143">
        <ele>1307.813841283089</ele>
      </trkpt>
      <trkpt lat="48.092315" lon="24.791215">
        <ele>1305.2157700101156</ele>
      </trkpt>
      <trkpt lat="48.093031" lon="24.791301">
        <ele>1300.6015931612928</ele>
      </trkpt>
      <trkpt lat="48.094436" lon="24.791172">
        <ele>1318.2485097185386</ele>
      </trkpt>
      <trkpt lat="48.096213" lon="24.788345">
        <ele>1309.2224483033642</ele>
      </trkpt>
      <trkpt lat="48.098592" lon="24.784053">
        <ele>1313.873270575412</ele>
      </trkpt>
      <trkpt lat="48.098706" lon="24.782208">
        <ele>1297.171286553028</ele>
      </trkpt>
      <trkpt lat="48.100512" lon="24.781521">
        <ele>1302.6355052238769</ele>
      </trkpt>
      <trkpt lat="48.101974" lon="24.77929">
        <ele>1287.1194050102495</ele>
      </trkpt>
      <trkpt lat="48.103836" lon="24.776715">
        <ele>1280.9402538659015</ele>
      </trkpt>
      <trkpt lat="48.104008" lon="24.773153">
        <ele>1271.1831009988673</ele>
      </trkpt>
      <trkpt lat="48.104094" lon="24.771136">
        <ele>1276.362697695382</ele>
      </trkpt>
      <trkpt lat="48.104725" lon="24.769891">
        <ele>1281.3590439218062</ele>
      </trkpt>
      <trkpt lat="48.105241" lon="24.769119">
        <ele>1280.7741309459554</ele>
      </trkpt>
      <trkpt lat="48.105842" lon="24.769462">
        <ele>1280.273796792323</ele>
      </trkpt>
      <trkpt lat="48.107304" lon="24.76929">
        <ele>1265.948576988536</ele>
      </trkpt>
      <trkpt lat="48.10779" lon="24.768968">
        <ele>1264.2848428336558</ele>
      </trkpt>
      <trkpt lat="48.108736" lon="24.768067">
        <ele>1260.9942170596914</ele>
      </trkpt>
      <trkpt lat="48.109968" lon="24.766736">
        <ele>1266.6690061774366</ele>
      </trkpt>
      <trkpt lat="48.110771" lon="24.765621">
        <ele>1269.7621391921307</ele>
      </trkpt>
      <trkpt lat="48.111114" lon="24.763432">
        <ele>1265.7441798636878</ele>
      </trkpt>
      <trkpt lat="48.110857" lon="24.761157">
        <ele>1257.3587811090983</ele>
      </trkpt>
      <trkpt lat="48.110713" lon="24.759741">
        <ele>1263.8805524582237</ele>
      </trkpt>
      <trkpt lat="48.111401" lon="24.75987">
        <ele>1260.8021103226379</ele>
      </trkpt>
      <trkpt lat="48.112261" lon="24.759097">
        <ele>1236.3577988633733</ele>
      </trkpt>
      <trkpt lat="48.114094" lon="24.757424">
        <ele>1232.397855875572</ele>
      </trkpt>
      <trkpt lat="48.114524" lon="24.756351">
        <ele>1229.111998795299</ele>
      </trkpt>
      <trkpt lat="48.114295" lon="24.753905">
        <ele>1229.9213747827919</ele>
      </trkpt>
      <trkpt lat="48.114094" lon="24.75339">
        <ele>1224.4553361997457</ele>
      </trkpt>
      <trkpt lat="48.114897" lon="24.752832">
        <ele>1224.6341667339439</ele>
      </trkpt>
      <trkpt lat="48.115355" lon="24.752145">
        <ele>1225.3643697816879</ele>
      </trkpt>
      <trkpt lat="48.115298" lon="24.750815">
        <ele>1216.3779055466293</ele>
      </trkpt>
      <trkpt lat="48.114897" lon="24.749098">
        <ele>1212.5716563321184</ele>
      </trkpt>
      <trkpt lat="48.114581" lon="24.747296">
        <ele>1209.9527809393792</ele>
      </trkpt>
      <trkpt lat="48.114925" lon="24.746824">
        <ele>1211.0052136494328</ele>
      </trkpt>
      <trkpt lat="48.115584" lon="24.745944">
        <ele>1179.1564415341709</ele>
      </trkpt>
      <trkpt lat="48.11653" lon="24.745579">
        <ele>1172.44222308381</ele>
      </trkpt>
      <trkpt lat="48.117246" lon="24.743562">
        <ele>1155.4997129060794</ele>
      </trkpt>
      <trkpt lat="48.117533" lon="24.741888">
        <ele>1156.1027910068487</ele>
      </trkpt>
      <trkpt lat="48.118764" lon="24.742833">
        <ele>1178.510693403135</ele>
      </trkpt>
      <trkpt lat="48.120512" lon="24.742532">
        <ele>1152.602011650077</ele>
      </trkpt>
      <trkpt lat="48.121773" lon="24.742833">
        <ele>1134.3914925387285</ele>
      </trkpt>
      <trkpt lat="48.122202" lon="24.742318">
        <ele>1122.8373597095053</ele>
      </trkpt>
      <trkpt lat="48.121773" lon="24.741803">
        <ele>1116.4306493698386</ele>
      </trkpt>
      <trkpt lat="48.121056" lon="24.741245">
        <ele>1099.6403066799448</ele>
      </trkpt>
      <trkpt lat="48.121916" lon="24.740215">
        <ele>1072.5333847731763</ele>
      </trkpt>
      <trkpt lat="48.121171" lon="24.739571">
        <ele>1065.1805039969374</ele>
      </trkpt>
      <trkpt lat="48.121859" lon="24.739099">
        <ele>1028.4629605666362</ele>
      </trkpt>
      <trkpt lat="48.122919" lon="24.738369">
        <ele>1001.5767080040287</ele>
      </trkpt>
      <trkpt lat="48.124122" lon="24.737983">
        <ele>971.8784771430626</ele>
      </trkpt>
      <trkpt lat="48.124781" lon="24.737296">
        <ele>952.8210100477664</ele>
      </trkpt>
      <trkpt lat="48.124809" lon="24.740236">
        <ele>942.2356372450013</ele>
      </trkpt>
      <trkpt lat="48.125468" lon="24.739571">
        <ele>912.4247948706004</ele>
      </trkpt>
      <trkpt lat="48.125926" lon="24.740944">
        <ele>891.4430374272358</ele>
      </trkpt>
      <trkpt lat="48.126585" lon="24.741717">
        <ele>863.5425613357957</ele>
      </trkpt>
      <trkpt lat="48.1267" lon="24.742532">
        <ele>848.097478933482</ele>
      </trkpt>
      <trkpt lat="48.127716" lon="24.742014">
        <ele>825.6740854276727</ele>
      </trkpt>
      <trkpt lat="48.128461" lon="24.741929">
        <ele>811.6046295396519</ele>
      </trkpt>
      <trkpt lat="48.128891" lon="24.741285">
        <ele>797.2609275986906</ele>
      </trkpt>
      <trkpt lat="48.129635" lon="24.740555">
        <ele>783.5202457439125</ele>
      </trkpt>
      <trkpt lat="48.131154" lon="24.740899">
        <ele>747.0780585455359</ele>
      </trkpt>
      <trkpt lat="48.132099" lon="24.740555">
        <ele>734.9217863262165</ele>
      </trkpt>
      <trkpt lat="48.133416" lon="24.73944">
        <ele>701.1441658803959</ele>
      </trkpt>
      <trkpt lat="48.134877" lon="24.73871">
        <ele>670.1414179959102</ele>
      </trkpt>
      <trkpt lat="48.136137" lon="24.739869">
        <ele>661.4971539122766</ele>
      </trkpt>
      <trkpt lat="48.13608" lon="24.741628">
        <ele>663.7805623108954</ele>
      </trkpt>
      <trkpt lat="48.136767" lon="24.742701">
        <ele>661.1612764010206</ele>
      </trkpt>
      <trkpt lat="48.137483" lon="24.743388">
        <ele>662.1588458666811</ele>
      </trkpt>
      <trkpt lat="48.13797" lon="24.744504">
        <ele>660.4082602666458</ele>
      </trkpt>
      <trkpt lat="48.138371" lon="24.742959">
        <ele>658.0889220319821</ele>
      </trkpt>
      <trkpt lat="48.139173" lon="24.740856">
        <ele>655.0001880536453</ele>
      </trkpt>
    </trkseg>
  </trk>
</gpx>
