<?xml version="1.0" encoding="UTF-8"?>
<gpx version="1.1" creator="phpGPX/1.0RC5" schemaLocation="http://www.topografix.com/GPX/1/1 http://www.topografix.com/GPX/1/1/gpx.xsd http://www.garmin.com/xmlschemas/GpxExtensions/v3 http://www.garmin.com/xmlschemas/GpxExtensionsv3.xsd http://www.garmin.com/xmlschemas/TrackPointExtension/v1 http://www.garmin.com/xmlschemas/TrackPointExtensionv1.xsd http://www.garmin.com/xmlschemas/PowerExtension/v1 http://www.garmin.com/xmlschemas/PowerExtensionv1.xsd http://www.topografix.com/GPX/gpx_style/0/2 http://www.topografix.com/GPX/gpx_style/0/2/gpx_style.xsd" xmlns="http://www.topografix.com/GPX/1/1" xmlns:xsi="http://www.w3.org/2001/XMLSchema-instance" xsi:schemaLocation="http://www.topografix.com/GPX/1/1 http://www.topografix.com/GPX/1/1/gpx.xsd http://www.garmin.com/xmlschemas/GpxExtensions/v3 http://www.garmin.com/xmlschemas/GpxExtensionsv3.xsd http://www.garmin.com/xmlschemas/TrackPointExtension/v1 http://www.garmin.com/xmlschemas/TrackPointExtensionv1.xsd http://www.garmin.com/xmlschemas/PowerExtension/v1 http://www.garmin.com/xmlschemas/PowerExtensionv1.xsd http://www.topografix.com/GPX/gpx_style/0/2 http://www.topografix.com/GPX/gpx_style/0/2/gpx_style.xsd" xmlns:gpxtpx="http://www.garmin.com/xmlschemas/TrackPointExtension/v1" xmlns:gpxx="http://www.garmin.com/xmlschemas/GpxExtensions/v3" xmlns:gpxpx="http://www.garmin.com/xmlschemas/PowerExtension/v1" xmlns:gpx_style="http://www.topografix.com/GPX/gpx_style/0/2">
  <metadata>
    <name>Хребет Красна - краса Полонинських Карпат</name>
    <author>
      <name>gpx.studio</name>
      <link href="https://gpx.studio"/>
    </author>
  </metadata>
  <trk>
    <name>Хребет Красна - краса Полонинських Карпат</name>
    <trkseg>
      <trkpt lat="48.331834" lon="23.92709">
        <ele>529.6007930690945</ele>
      </trkpt>
      <trkpt lat="48.331078" lon="23.927412">
        <ele>526.9166789067094</ele>
      </trkpt>
      <trkpt lat="48.330151" lon="23.927391">
        <ele>527.5759746074258</ele>
      </trkpt>
      <trkpt lat="48.329338" lon="23.927412">
        <ele>529.6834669416993</ele>
      </trkpt>
      <trkpt lat="48.328325" lon="23.928399">
        <ele>529.2829085949751</ele>
      </trkpt>
      <trkpt lat="48.327512" lon="23.929923">
        <ele>526.8626901660039</ele>
      </trkpt>
      <trkpt lat="48.32677" lon="23.93179">
        <ele>525.6398575677047</ele>
      </trkpt>
      <trkpt lat="48.326313" lon="23.933163">
        <ele>524.251331311035</ele>
      </trkpt>
      <trkpt lat="48.3255" lon="23.934536">
        <ele>525.2425539082615</ele>
      </trkpt>
      <trkpt lat="48.324259" lon="23.936146">
        <ele>527.8297857700213</ele>
      </trkpt>
      <trkpt lat="48.322475" lon="23.938849">
        <ele>522.5491376777766</ele>
      </trkpt>
      <trkpt lat="48.32112" lon="23.940845">
        <ele>520.8278113685083</ele>
      </trkpt>
      <trkpt lat="48.320527" lon="23.941092">
        <ele>534.8165086231893</ele>
      </trkpt>
      <trkpt lat="48.319343" lon="23.941972">
        <ele>548.9877385013867</ele>
      </trkpt>
      <trkpt lat="48.318886" lon="23.941607">
        <ele>556.8061899786117</ele>
      </trkpt>
      <trkpt lat="48.318201" lon="23.941371">
        <ele>566.3863828983158</ele>
      </trkpt>
      <trkpt lat="48.317802" lon="23.941071">
        <ele>588.60156603306</ele>
      </trkpt>
      <trkpt lat="48.318372" lon="23.940298">
        <ele>601.450559199817</ele>
      </trkpt>
      <trkpt lat="48.318544" lon="23.940019">
        <ele>605.4538508816754</ele>
      </trkpt>
      <trkpt lat="48.318972" lon="23.939676">
        <ele>604.9691864508204</ele>
      </trkpt>
      <trkpt lat="48.319286" lon="23.938324">
        <ele>628.3081207525684</ele>
      </trkpt>
      <trkpt lat="48.319157" lon="23.93753">
        <ele>634.9580180124019</ele>
      </trkpt>
      <trkpt lat="48.318972" lon="23.936972">
        <ele>643.7668771846029</ele>
      </trkpt>
      <trkpt lat="48.31843" lon="23.936801">
        <ele>654.5359547624291</ele>
      </trkpt>
      <trkpt lat="48.317317" lon="23.937166">
        <ele>667.9842969369577</ele>
      </trkpt>
      <trkpt lat="48.316974" lon="23.937702">
        <ele>679.0035624512819</ele>
      </trkpt>
      <trkpt lat="48.316189" lon="23.937745">
        <ele>689.4305131039582</ele>
      </trkpt>
      <trkpt lat="48.315733" lon="23.937423">
        <ele>705.5475766788201</ele>
      </trkpt>
      <trkpt lat="48.315433" lon="23.937595">
        <ele>709.6401348416694</ele>
      </trkpt>
      <trkpt lat="48.314621" lon="23.937266">
        <ele>733.049176186639</ele>
      </trkpt>
      <trkpt lat="48.314606" lon="23.938103">
        <ele>731.271490516812</ele>
      </trkpt>
      <trkpt lat="48.31405" lon="23.938833">
        <ele>747.8018280210774</ele>
      </trkpt>
      <trkpt lat="48.313022" lon="23.939283">
        <ele>766.4012420984293</ele>
      </trkpt>
      <trkpt lat="48.312195" lon="23.939455">
        <ele>778.6664061588028</ele>
      </trkpt>
      <trkpt lat="48.31101" lon="23.938918">
        <ele>793.0919902454036</ele>
      </trkpt>
      <trkpt lat="48.31061" lon="23.937996">
        <ele>799.6708026359556</ele>
      </trkpt>
      <trkpt lat="48.310468" lon="23.937395">
        <ele>810.4852871109033</ele>
      </trkpt>
      <trkpt lat="48.310625" lon="23.93718">
        <ele>815.8970110662049</ele>
      </trkpt>
      <trkpt lat="48.31111" lon="23.937331">
        <ele>821.6595391704468</ele>
      </trkpt>
      <trkpt lat="48.311595" lon="23.937202">
        <ele>836.9836787269451</ele>
      </trkpt>
      <trkpt lat="48.312352" lon="23.936365">
        <ele>847.1122273935864</ele>
      </trkpt>
      <trkpt lat="48.312466" lon="23.936215">
        <ele>848.5689030366809</ele>
      </trkpt>
      <trkpt lat="48.31238" lon="23.935957">
        <ele>851.9943398733704</ele>
      </trkpt>
      <trkpt lat="48.312009" lon="23.935871">
        <ele>861.3047685279271</ele>
      </trkpt>
      <trkpt lat="48.311452" lon="23.935378">
        <ele>875.979865051775</ele>
      </trkpt>
      <trkpt lat="48.31101" lon="23.935077">
        <ele>882.6458944959754</ele>
      </trkpt>
      <trkpt lat="48.311531" lon="23.934702">
        <ele>892.1643150423188</ele>
      </trkpt>
      <trkpt lat="48.311938" lon="23.933983">
        <ele>904.3754694388041</ele>
      </trkpt>
      <trkpt lat="48.311866" lon="23.93364">
        <ele>908.0842931990046</ele>
      </trkpt>
      <trkpt lat="48.311695" lon="23.933597">
        <ele>910.7234727335162</ele>
      </trkpt>
      <trkpt lat="48.31111" lon="23.933704">
        <ele>916.8534099059179</ele>
      </trkpt>
      <trkpt lat="48.311024" lon="23.933575">
        <ele>921.1100762096147</ele>
      </trkpt>
      <trkpt lat="48.311852" lon="23.93203">
        <ele>952.255373934266</ele>
      </trkpt>
      <trkpt lat="48.312837" lon="23.930636">
        <ele>969.6742158709169</ele>
      </trkpt>
      <trkpt lat="48.313179" lon="23.92982">
        <ele>979.7252569549706</ele>
      </trkpt>
      <trkpt lat="48.313593" lon="23.929284">
        <ele>981.9311830903171</ele>
      </trkpt>
      <trkpt lat="48.313479" lon="23.928876">
        <ele>985.1675457912163</ele>
      </trkpt>
      <trkpt lat="48.311681" lon="23.929241">
        <ele>1029.193120456613</ele>
      </trkpt>
      <trkpt lat="48.311181" lon="23.929327">
        <ele>1033.3830270084306</ele>
      </trkpt>
      <trkpt lat="48.311039" lon="23.928983">
        <ele>1044.2551754102515</ele>
      </trkpt>
      <trkpt lat="48.311367" lon="23.92837">
        <ele>1049.994768526186</ele>
      </trkpt>
      <trkpt lat="48.31151" lon="23.927812">
        <ele>1048.5599701392155</ele>
      </trkpt>
      <trkpt lat="48.311452" lon="23.927125">
        <ele>1051.6250508436938</ele>
      </trkpt>
      <trkpt lat="48.310953" lon="23.926246">
        <ele>1055.7167754718103</ele>
      </trkpt>
      <trkpt lat="48.310953" lon="23.925774">
        <ele>1058.4593468495877</ele>
      </trkpt>
      <trkpt lat="48.310767" lon="23.925602">
        <ele>1058.4345114181576</ele>
      </trkpt>
      <trkpt lat="48.310211" lon="23.925709">
        <ele>1066.354300121835</ele>
      </trkpt>
      <trkpt lat="48.309554" lon="23.925344">
        <ele>1080.986582723808</ele>
      </trkpt>
      <trkpt lat="48.309169" lon="23.924765">
        <ele>1089.871074125464</ele>
      </trkpt>
      <trkpt lat="48.308798" lon="23.923435">
        <ele>1097.4155685633052</ele>
      </trkpt>
      <trkpt lat="48.308541" lon="23.922705">
        <ele>1097.7249264786303</ele>
      </trkpt>
      <trkpt lat="48.308184" lon="23.922319">
        <ele>1096.16401220178</ele>
      </trkpt>
      <trkpt lat="48.307785" lon="23.922448">
        <ele>1101.7857576741371</ele>
      </trkpt>
      <trkpt lat="48.306514" lon="23.922019">
        <ele>1119.57960208119</ele>
      </trkpt>
      <trkpt lat="48.306138" lon="23.921461">
        <ele>1119.274249392229</ele>
      </trkpt>
      <trkpt lat="48.305938" lon="23.921053">
        <ele>1119.1364557996503</ele>
      </trkpt>
      <trkpt lat="48.305396" lon="23.920946">
        <ele>1127.8719263918465</ele>
      </trkpt>
      <trkpt lat="48.305296" lon="23.920366">
        <ele>1126.0636646128678</ele>
      </trkpt>
      <trkpt lat="48.304754" lon="23.920602">
        <ele>1139.862294509483</ele>
      </trkpt>
      <trkpt lat="48.30434" lon="23.919615">
        <ele>1145.5528478027138</ele>
      </trkpt>
      <trkpt lat="48.304268" lon="23.918564">
        <ele>1153.0066301601034</ele>
      </trkpt>
      <trkpt lat="48.304083" lon="23.918135">
        <ele>1158.851206073055</ele>
      </trkpt>
      <trkpt lat="48.303912" lon="23.918736">
        <ele>1158.6714198291302</ele>
      </trkpt>
      <trkpt lat="48.303369" lon="23.918542">
        <ele>1172.2874365621012</ele>
      </trkpt>
      <trkpt lat="48.302713" lon="23.919487">
        <ele>1192.0568055015785</ele>
      </trkpt>
      <trkpt lat="48.302391" lon="23.920216">
        <ele>1203.6027312672115</ele>
      </trkpt>
      <trkpt lat="48.301928" lon="23.920516">
        <ele>1214.3817754249321</ele>
      </trkpt>
      <trkpt lat="48.301442" lon="23.92028">
        <ele>1224.1374897969997</ele>
      </trkpt>
      <trkpt lat="48.301214" lon="23.919229">
        <ele>1228.3500581902613</ele>
      </trkpt>
      <trkpt lat="48.301214" lon="23.917491">
        <ele>1240.909787679324</ele>
      </trkpt>
      <trkpt lat="48.301399" lon="23.915238">
        <ele>1239.3935525207867</ele>
      </trkpt>
      <trkpt lat="48.301285" lon="23.913264">
        <ele>1229.4010623568452</ele>
      </trkpt>
      <trkpt lat="48.301085" lon="23.911676">
        <ele>1219.0845918069244</ele>
      </trkpt>
      <trkpt lat="48.301142" lon="23.909788">
        <ele>1211.2575043003878</ele>
      </trkpt>
      <trkpt lat="48.301171" lon="23.908565">
        <ele>1217.6799280320013</ele>
      </trkpt>
      <trkpt lat="48.301057" lon="23.906226">
        <ele>1257.5</ele>
      </trkpt>
      <trkpt lat="48.301267" lon="23.905216">
        <ele>1269.5499189602876</ele>
      </trkpt>
      <trkpt lat="48.301396" lon="23.904337">
        <ele>1279.9337198832966</ele>
      </trkpt>
      <trkpt lat="48.301653" lon="23.903457">
        <ele>1293.716173226811</ele>
      </trkpt>
      <trkpt lat="48.302709" lon="23.902319">
        <ele>1311.1197379385121</ele>
      </trkpt>
      <trkpt lat="48.303637" lon="23.902212">
        <ele>1314.8305553896596</ele>
      </trkpt>
      <trkpt lat="48.303979" lon="23.901955">
        <ele>1316.5185855003208</ele>
      </trkpt>
      <trkpt lat="48.304093" lon="23.90129">
        <ele>1313.6076116529293</ele>
      </trkpt>
      <trkpt lat="48.304265" lon="23.899187">
        <ele>1294.838601528705</ele>
      </trkpt>
      <trkpt lat="48.305535" lon="23.895775">
        <ele>1272.5</ele>
      </trkpt>
      <trkpt lat="48.305977" lon="23.894723">
        <ele>1271.7121565897392</ele>
      </trkpt>
      <trkpt lat="48.307847" lon="23.893157">
        <ele>1309.0228072613545</ele>
      </trkpt>
      <trkpt lat="48.309117" lon="23.893457">
        <ele>1328.3116358345271</ele>
      </trkpt>
      <trkpt lat="48.308689" lon="23.892385">
        <ele>1336.855885231439</ele>
      </trkpt>
      <trkpt lat="48.308489" lon="23.890904">
        <ele>1335.6506486705234</ele>
      </trkpt>
      <trkpt lat="48.309189" lon="23.888286">
        <ele>1336.121474792171</ele>
      </trkpt>
      <trkpt lat="48.309959" lon="23.886849">
        <ele>1330.1494993820088</ele>
      </trkpt>
      <trkpt lat="48.310573" lon="23.88511">
        <ele>1325.3564632085618</ele>
      </trkpt>
      <trkpt lat="48.31103" lon="23.881312">
        <ele>1338.148859668371</ele>
      </trkpt>
      <trkpt lat="48.311001" lon="23.880154">
        <ele>1354.0522784910863</ele>
      </trkpt>
      <trkpt lat="48.311301" lon="23.878909">
        <ele>1365.6258066823743</ele>
      </trkpt>
      <trkpt lat="48.313927" lon="23.878051">
        <ele>1337.6578604315862</ele>
      </trkpt>
      <trkpt lat="48.318693" lon="23.873952">
        <ele>1363.3023511826696</ele>
      </trkpt>
      <trkpt lat="48.321789" lon="23.8723">
        <ele>1407.0062132707944</ele>
      </trkpt>
      <trkpt lat="48.322916" lon="23.871721">
        <ele>1425.4819052216526</ele>
      </trkpt>
      <trkpt lat="48.323986" lon="23.869232">
        <ele>1420.418939773965</ele>
      </trkpt>
      <trkpt lat="48.324157" lon="23.868352">
        <ele>1418.3509245173773</ele>
      </trkpt>
      <trkpt lat="48.3241" lon="23.867397">
        <ele>1411.8724453456844</ele>
      </trkpt>
      <trkpt lat="48.324157" lon="23.866485">
        <ele>1416.820991860237</ele>
      </trkpt>
      <trkpt lat="48.324314" lon="23.86552">
        <ele>1420.651431891587</ele>
      </trkpt>
      <trkpt lat="48.3245" lon="23.864511">
        <ele>1426.6182053419452</ele>
      </trkpt>
      <trkpt lat="48.326141" lon="23.861764">
        <ele>1482.995497533017</ele>
      </trkpt>
      <trkpt lat="48.326055" lon="23.86052">
        <ele>1481.5843666468281</ele>
      </trkpt>
      <trkpt lat="48.325384" lon="23.858224">
        <ele>1438.8754465130041</ele>
      </trkpt>
      <trkpt lat="48.324771" lon="23.856915">
        <ele>1419.3396431704018</ele>
      </trkpt>
      <trkpt lat="48.324643" lon="23.856239">
        <ele>1417.3388594648568</ele>
      </trkpt>
      <trkpt lat="48.324657" lon="23.854705">
        <ele>1414.7997497367905</ele>
      </trkpt>
      <trkpt lat="48.324386" lon="23.853847">
        <ele>1412.6087980109048</ele>
      </trkpt>
      <trkpt lat="48.321903" lon="23.849276">
        <ele>1458.0373682734742</ele>
      </trkpt>
      <trkpt lat="48.321418" lon="23.848504">
        <ele>1470.8514681353383</ele>
      </trkpt>
      <trkpt lat="48.321204" lon="23.847216">
        <ele>1466.1020245333202</ele>
      </trkpt>
      <trkpt lat="48.32129" lon="23.8458">
        <ele>1462.9266133332858</ele>
      </trkpt>
      <trkpt lat="48.321732" lon="23.845199">
        <ele>1462.6630130485705</ele>
      </trkpt>
      <trkpt lat="48.323344" lon="23.844963">
        <ele>1475.1370876337169</ele>
      </trkpt>
      <trkpt lat="48.324443" lon="23.844985">
        <ele>1481.9688447880908</ele>
      </trkpt>
      <trkpt lat="48.32537" lon="23.843804">
        <ele>1462.1084875593647</ele>
      </trkpt>
      <trkpt lat="48.326654" lon="23.841337">
        <ele>1402.090124757359</ele>
      </trkpt>
      <trkpt lat="48.326911" lon="23.839819">
        <ele>1370.0398172443965</ele>
      </trkpt>
      <trkpt lat="48.327853" lon="23.837266">
        <ele>1328.285463738407</ele>
      </trkpt>
      <trkpt lat="48.330906" lon="23.833189">
        <ele>1257.4118827649847</ele>
      </trkpt>
      <trkpt lat="48.331861" lon="23.832352">
        <ele>1264.4290275427672</ele>
      </trkpt>
      <trkpt lat="48.332175" lon="23.831837">
        <ele>1267.7435719111236</ele>
      </trkpt>
      <trkpt lat="48.332532" lon="23.830979">
        <ele>1269.9521240527224</ele>
      </trkpt>
      <trkpt lat="48.332703" lon="23.830078">
        <ele>1278.6312816111413</ele>
      </trkpt>
      <trkpt lat="48.333174" lon="23.82937">
        <ele>1284.1132215562975</ele>
      </trkpt>
      <trkpt lat="48.334454" lon="23.828947">
        <ele>1297.1422300832216</ele>
      </trkpt>
      <trkpt lat="48.336593" lon="23.825427">
        <ele>1318.9117820618037</ele>
      </trkpt>
      <trkpt lat="48.336679" lon="23.823625">
        <ele>1324.2081646425602</ele>
      </trkpt>
      <trkpt lat="48.337592" lon="23.822509">
        <ele>1322.2751889677509</ele>
      </trkpt>
      <trkpt lat="48.338547" lon="23.818883">
        <ele>1333.7084740373537</ele>
      </trkpt>
      <trkpt lat="48.337178" lon="23.811115">
        <ele>1349.6406401180236</ele>
      </trkpt>
      <trkpt lat="48.335927" lon="23.808583">
        <ele>1386.6612528578842</ele>
      </trkpt>
      <trkpt lat="48.335855" lon="23.806266">
        <ele>1419.8296629752933</ele>
      </trkpt>
      <trkpt lat="48.336212" lon="23.805343">
        <ele>1436.57889283041</ele>
      </trkpt>
      <trkpt lat="48.338109" lon="23.803369">
        <ele>1475.4761701068492</ele>
      </trkpt>
      <trkpt lat="48.341033" lon="23.800901">
        <ele>1434.4140856922559</ele>
      </trkpt>
      <trkpt lat="48.343044" lon="23.800472">
        <ele>1420.4022657889059</ele>
      </trkpt>
      <trkpt lat="48.343985" lon="23.800043">
        <ele>1433.6255197098494</ele>
      </trkpt>
      <trkpt lat="48.345526" lon="23.800944">
        <ele>1441.2787378373323</ele>
      </trkpt>
      <trkpt lat="48.346104" lon="23.80099">
        <ele>1441.7387579361941</ele>
      </trkpt>
      <trkpt lat="48.347245" lon="23.800153">
        <ele>1417.751006546977</ele>
      </trkpt>
      <trkpt lat="48.348885" lon="23.797063">
        <ele>1389.1462668354409</ele>
      </trkpt>
      <trkpt lat="48.349976" lon="23.79524">
        <ele>1387.1518693282944</ele>
      </trkpt>
      <trkpt lat="48.350753" lon="23.793373">
        <ele>1399.6043369704726</ele>
      </trkpt>
      <trkpt lat="48.351766" lon="23.791205">
        <ele>1418.4530824369308</ele>
      </trkpt>
      <trkpt lat="48.352707" lon="23.789982">
        <ele>1453.0980154607678</ele>
      </trkpt>
      <trkpt lat="48.35342" lon="23.789682">
        <ele>1475.0508922780323</ele>
      </trkpt>
      <trkpt lat="48.354931" lon="23.789446">
        <ele>1511.0589958423516</ele>
      </trkpt>
      <trkpt lat="48.356842" lon="23.788781">
        <ele>1558.846738488879</ele>
      </trkpt>
      <trkpt lat="48.357327" lon="23.789103">
        <ele>1557.4301659454889</ele>
      </trkpt>
      <trkpt lat="48.358339" lon="23.790154">
        <ele>1540.1569362624614</ele>
      </trkpt>
      <trkpt lat="48.359565" lon="23.791399">
        <ele>1512.943237096674</ele>
      </trkpt>
      <trkpt lat="48.360649" lon="23.793223">
        <ele>1498.075574439939</ele>
      </trkpt>
      <trkpt lat="48.362046" lon="23.794145">
        <ele>1547.2572367202729</ele>
      </trkpt>
      <trkpt lat="48.362759" lon="23.794188">
        <ele>1559.7784022885612</ele>
      </trkpt>
      <trkpt lat="48.365168" lon="23.79127">
        <ele>1501.2828295304928</ele>
      </trkpt>
      <trkpt lat="48.366708" lon="23.789832">
        <ele>1479.1501536825672</ele>
      </trkpt>
      <trkpt lat="48.3698" lon="23.78788">
        <ele>1477.0699853377882</ele>
      </trkpt>
      <trkpt lat="48.371111" lon="23.786292">
        <ele>1480.7244012743965</ele>
      </trkpt>
      <trkpt lat="48.371995" lon="23.785069">
        <ele>1485.9000057186931</ele>
      </trkpt>
      <trkpt lat="48.372351" lon="23.784318">
        <ele>1489.5589900139344</ele>
      </trkpt>
      <trkpt lat="48.373631" lon="23.783754">
        <ele>1479.2126207486212</ele>
      </trkpt>
      <trkpt lat="48.377308" lon="23.783539">
        <ele>1506.9741846986115</ele>
      </trkpt>
      <trkpt lat="48.378962" lon="23.782982">
        <ele>1518.3752357732737</ele>
      </trkpt>
      <trkpt lat="48.379746" lon="23.782145">
        <ele>1510.0165166840902</ele>
      </trkpt>
      <trkpt lat="48.382952" lon="23.773926">
        <ele>1482.066076634323</ele>
      </trkpt>
      <trkpt lat="48.382781" lon="23.772188">
        <ele>1481.8637375950022</ele>
      </trkpt>
      <trkpt lat="48.383579" lon="23.76897">
        <ele>1437.3569813333452</ele>
      </trkpt>
      <trkpt lat="48.384449" lon="23.767403">
        <ele>1466.648553405138</ele>
      </trkpt>
      <trkpt lat="48.385845" lon="23.763305">
        <ele>1476.9032107121814</ele>
      </trkpt>
      <trkpt lat="48.388054" lon="23.757361">
        <ele>1455.7022515771703</ele>
      </trkpt>
      <trkpt lat="48.388154" lon="23.756374">
        <ele>1464.5453132183757</ele>
      </trkpt>
      <trkpt lat="48.387968" lon="23.754486">
        <ele>1487.9576931629563</ele>
      </trkpt>
      <trkpt lat="48.387598" lon="23.752233">
        <ele>1501.2937427791767</ele>
      </trkpt>
      <trkpt lat="48.387897" lon="23.751568">
        <ele>1508.2765604494575</ele>
      </trkpt>
      <trkpt lat="48.388467" lon="23.751074">
        <ele>1497.9589847418265</ele>
      </trkpt>
      <trkpt lat="48.390063" lon="23.74998">
        <ele>1456.0068299296095</ele>
      </trkpt>
      <trkpt lat="48.392861" lon="23.742935">
        <ele>1290.842590242442</ele>
      </trkpt>
      <trkpt lat="48.394543" lon="23.737699">
        <ele>1231.0718156528892</ele>
      </trkpt>
      <trkpt lat="48.39554" lon="23.735639">
        <ele>1236.6785713208374</ele>
      </trkpt>
      <trkpt lat="48.396281" lon="23.735596">
        <ele>1235.9766034004278</ele>
      </trkpt>
      <trkpt lat="48.397364" lon="23.734566">
        <ele>1220.2905122186057</ele>
      </trkpt>
      <trkpt lat="48.39876" lon="23.731476">
        <ele>1157.8893988886898</ele>
      </trkpt>
      <trkpt lat="48.399073" lon="23.72933">
        <ele>1143.1317352498431</ele>
      </trkpt>
      <trkpt lat="48.39856" lon="23.726155">
        <ele>1136.9301028003454</ele>
      </trkpt>
      <trkpt lat="48.397734" lon="23.723408">
        <ele>1136.3505626468686</ele>
      </trkpt>
      <trkpt lat="48.399216" lon="23.721005">
        <ele>1103.0881874983916</ele>
      </trkpt>
      <trkpt lat="48.400775" lon="23.720434">
        <ele>1087.6026426019714</ele>
      </trkpt>
      <trkpt lat="48.402399" lon="23.717473">
        <ele>1034.9415216853376</ele>
      </trkpt>
      <trkpt lat="48.402712" lon="23.715799">
        <ele>1023.1326060984532</ele>
      </trkpt>
      <trkpt lat="48.406387" lon="23.712924">
        <ele>984.2160354601036</ele>
      </trkpt>
      <trkpt lat="48.407128" lon="23.713911">
        <ele>977.5970615918632</ele>
      </trkpt>
      <trkpt lat="48.406273" lon="23.714469">
        <ele>967.176523087755</ele>
      </trkpt>
      <trkpt lat="48.405276" lon="23.716614">
        <ele>939.1953207368895</ele>
      </trkpt>
      <trkpt lat="48.405333" lon="23.717172">
        <ele>916.3171475236735</ele>
      </trkpt>
      <trkpt lat="48.40502" lon="23.717601">
        <ele>907.6886823738636</ele>
      </trkpt>
      <trkpt lat="48.404991" lon="23.718202">
        <ele>897.0193211878485</ele>
      </trkpt>
      <trkpt lat="48.406273" lon="23.719876">
        <ele>875.2237190312226</ele>
      </trkpt>
      <trkpt lat="48.407071" lon="23.721893">
        <ele>837.9945790834028</ele>
      </trkpt>
      <trkpt lat="48.407413" lon="23.722322">
        <ele>826.0675509542925</ele>
      </trkpt>
      <trkpt lat="48.407669" lon="23.72288">
        <ele>813.0527137779864</ele>
      </trkpt>
      <trkpt lat="48.408068" lon="23.722365">
        <ele>798.8563645985726</ele>
      </trkpt>
      <trkpt lat="48.408524" lon="23.723309">
        <ele>777.6126570872154</ele>
      </trkpt>
      <trkpt lat="48.409407" lon="23.723438">
        <ele>766.3015745701268</ele>
      </trkpt>
      <trkpt lat="48.411344" lon="23.725026">
        <ele>721.3653047395637</ele>
      </trkpt>
      <trkpt lat="48.412697" lon="23.724875">
        <ele>695.4236505570589</ele>
      </trkpt>
      <trkpt lat="48.413295" lon="23.724897">
        <ele>680.3473323231449</ele>
      </trkpt>
      <trkpt lat="48.413794" lon="23.725348">
        <ele>672.1358166743303</ele>
      </trkpt>
      <trkpt lat="48.414463" lon="23.725433">
        <ele>658.9697550710978</ele>
      </trkpt>
      <trkpt lat="48.415161" lon="23.725905">
        <ele>645.3742894283496</ele>
      </trkpt>
      <trkpt lat="48.415745" lon="23.726635">
        <ele>636.1562373849911</ele>
      </trkpt>
      <trkpt lat="48.415816" lon="23.727558">
        <ele>630.1618759001914</ele>
      </trkpt>
      <trkpt lat="48.415774" lon="23.728373">
        <ele>623.5680402931757</ele>
      </trkpt>
      <trkpt lat="48.416685" lon="23.728824">
        <ele>612.4629594023934</ele>
      </trkpt>
      <trkpt lat="48.417297" lon="23.728738">
        <ele>604.6887187147513</ele>
      </trkpt>
      <trkpt lat="48.417582" lon="23.729274">
        <ele>600.4906436432772</ele>
      </trkpt>
      <trkpt lat="48.417981" lon="23.728995">
        <ele>599.1061179916212</ele>
      </trkpt>
      <trkpt lat="48.41865" lon="23.729017">
        <ele>602.8591656310562</ele>
      </trkpt>
      <trkpt lat="48.418266" lon="23.724296">
        <ele>591.520562488935</ele>
      </trkpt>
      <trkpt lat="48.419263" lon="23.720742">
        <ele>585.0509493264835</ele>
      </trkpt>
      <trkpt lat="48.420544" lon="23.715142">
        <ele>576.139981081008</ele>
      </trkpt>
      <trkpt lat="48.421278" lon="23.713929">
        <ele>571.295442350378</ele>
      </trkpt>
      <trkpt lat="48.422495" lon="23.713232">
        <ele>568.2943267555675</ele>
      </trkpt>
      <trkpt lat="48.423364" lon="23.711902">
        <ele>568.2220463546691</ele>
      </trkpt>
      <trkpt lat="48.424033" lon="23.710314">
        <ele>564.3473229058254</ele>
      </trkpt>
    </trkseg>
  </trk>
</gpx>
