<?xml version="1.0" encoding="UTF-8"?>
<gpx version="1.1" creator="phpGPX/1.0RC5" schemaLocation="http://www.topografix.com/GPX/1/1 http://www.topografix.com/GPX/1/1/gpx.xsd http://www.garmin.com/xmlschemas/GpxExtensions/v3 http://www.garmin.com/xmlschemas/GpxExtensionsv3.xsd http://www.garmin.com/xmlschemas/TrackPointExtension/v1 http://www.garmin.com/xmlschemas/TrackPointExtensionv1.xsd http://www.garmin.com/xmlschemas/PowerExtension/v1 http://www.garmin.com/xmlschemas/PowerExtensionv1.xsd http://www.topografix.com/GPX/gpx_style/0/2 http://www.topografix.com/GPX/gpx_style/0/2/gpx_style.xsd" xmlns="http://www.topografix.com/GPX/1/1" xmlns:xsi="http://www.w3.org/2001/XMLSchema-instance" xsi:schemaLocation="http://www.topografix.com/GPX/1/1 http://www.topografix.com/GPX/1/1/gpx.xsd http://www.garmin.com/xmlschemas/GpxExtensions/v3 http://www.garmin.com/xmlschemas/GpxExtensionsv3.xsd http://www.garmin.com/xmlschemas/TrackPointExtension/v1 http://www.garmin.com/xmlschemas/TrackPointExtensionv1.xsd http://www.garmin.com/xmlschemas/PowerExtension/v1 http://www.garmin.com/xmlschemas/PowerExtensionv1.xsd http://www.topografix.com/GPX/gpx_style/0/2 http://www.topografix.com/GPX/gpx_style/0/2/gpx_style.xsd" xmlns:gpxtpx="http://www.garmin.com/xmlschemas/TrackPointExtension/v1" xmlns:gpxx="http://www.garmin.com/xmlschemas/GpxExtensions/v3" xmlns:gpxpx="http://www.garmin.com/xmlschemas/PowerExtension/v1" xmlns:gpx_style="http://www.topografix.com/GPX/gpx_style/0/2">
  <metadata>
    <name>Через весь Свидівець</name>
    <author>
      <name>gpx.studio</name>
      <link href="https://gpx.studio"/>
    </author>
  </metadata>
  <trk>
    <name>Через весь Свидівець</name>
    <trkseg>
      <trkpt lat="48.166076" lon="24.277527">
        <ele>540.64</ele>
      </trkpt>
      <trkpt lat="48.166105" lon="24.277509">
        <ele>540.45</ele>
      </trkpt>
      <trkpt lat="48.165909" lon="24.277052">
        <ele>548.81</ele>
      </trkpt>
      <trkpt lat="48.165853" lon="24.276873">
        <ele>550.59</ele>
      </trkpt>
      <trkpt lat="48.165826" lon="24.276693">
        <ele>553.72</ele>
      </trkpt>
      <trkpt lat="48.165824" lon="24.276532">
        <ele>555.49</ele>
      </trkpt>
      <trkpt lat="48.165832" lon="24.276366">
        <ele>556.67</ele>
      </trkpt>
      <trkpt lat="48.166009" lon="24.275886">
        <ele>563.24</ele>
      </trkpt>
      <trkpt lat="48.166064" lon="24.275616">
        <ele>565.43</ele>
      </trkpt>
      <trkpt lat="48.166115" lon="24.27527">
        <ele>570.39</ele>
      </trkpt>
      <trkpt lat="48.166179" lon="24.274967">
        <ele>571.39</ele>
      </trkpt>
      <trkpt lat="48.166234" lon="24.274778">
        <ele>572.88</ele>
      </trkpt>
      <trkpt lat="48.166322" lon="24.274634">
        <ele>574.93</ele>
      </trkpt>
      <trkpt lat="48.166486" lon="24.274436">
        <ele>576.48</ele>
      </trkpt>
      <trkpt lat="48.166486" lon="24.274436">
        <ele>576.48</ele>
      </trkpt>
      <trkpt lat="48.166508" lon="24.27441">
        <ele>576.68</ele>
      </trkpt>
      <trkpt lat="48.166618" lon="24.27461">
        <ele>577.88</ele>
      </trkpt>
      <trkpt lat="48.166715" lon="24.274753">
        <ele>578.49</ele>
      </trkpt>
      <trkpt lat="48.166795" lon="24.274808">
        <ele>579.19</ele>
      </trkpt>
      <trkpt lat="48.167143" lon="24.27484">
        <ele>582.22</ele>
      </trkpt>
      <trkpt lat="48.167741" lon="24.274993">
        <ele>587.55</ele>
      </trkpt>
      <trkpt lat="48.168053" lon="24.275187">
        <ele>590.14</ele>
      </trkpt>
      <trkpt lat="48.168397" lon="24.275228">
        <ele>593.26</ele>
      </trkpt>
      <trkpt lat="48.168588" lon="24.275226">
        <ele>595.77</ele>
      </trkpt>
      <trkpt lat="48.169138" lon="24.275108">
        <ele>603.88</ele>
      </trkpt>
      <trkpt lat="48.169421" lon="24.274997">
        <ele>607.09</ele>
      </trkpt>
      <trkpt lat="48.169579" lon="24.274852">
        <ele>608.86</ele>
      </trkpt>
      <trkpt lat="48.169636" lon="24.274796">
        <ele>609.24</ele>
      </trkpt>
      <trkpt lat="48.169731" lon="24.274761">
        <ele>609.82</ele>
      </trkpt>
      <trkpt lat="48.170122" lon="24.274662">
        <ele>615.26</ele>
      </trkpt>
      <trkpt lat="48.170354" lon="24.274588">
        <ele>619.26</ele>
      </trkpt>
      <trkpt lat="48.170535" lon="24.2746">
        <ele>621.97</ele>
      </trkpt>
      <trkpt lat="48.170731" lon="24.274644">
        <ele>623.71</ele>
      </trkpt>
      <trkpt lat="48.170907" lon="24.274567">
        <ele>627.25</ele>
      </trkpt>
      <trkpt lat="48.171045" lon="24.274554">
        <ele>630.46</ele>
      </trkpt>
      <trkpt lat="48.171332" lon="24.274568">
        <ele>634.8</ele>
      </trkpt>
      <trkpt lat="48.17158" lon="24.274559">
        <ele>638.08</ele>
      </trkpt>
      <trkpt lat="48.172028" lon="24.274488">
        <ele>645.96</ele>
      </trkpt>
      <trkpt lat="48.172257" lon="24.274528">
        <ele>647.43</ele>
      </trkpt>
      <trkpt lat="48.172405" lon="24.274464">
        <ele>649.66</ele>
      </trkpt>
      <trkpt lat="48.172515" lon="24.274456">
        <ele>650.76</ele>
      </trkpt>
      <trkpt lat="48.172777" lon="24.274501">
        <ele>652.29</ele>
      </trkpt>
      <trkpt lat="48.17298" lon="24.274497">
        <ele>654.09</ele>
      </trkpt>
      <trkpt lat="48.173132" lon="24.274449">
        <ele>655.98</ele>
      </trkpt>
      <trkpt lat="48.173244" lon="24.274361">
        <ele>657.98</ele>
      </trkpt>
      <trkpt lat="48.173318" lon="24.274192">
        <ele>660.64</ele>
      </trkpt>
      <trkpt lat="48.173353" lon="24.273931">
        <ele>665.5</ele>
      </trkpt>
      <trkpt lat="48.173395" lon="24.273825">
        <ele>668.32</ele>
      </trkpt>
      <trkpt lat="48.173438" lon="24.27376">
        <ele>670.22</ele>
      </trkpt>
      <trkpt lat="48.173544" lon="24.273702">
        <ele>672.52</ele>
      </trkpt>
      <trkpt lat="48.17367" lon="24.273654">
        <ele>675.85</ele>
      </trkpt>
      <trkpt lat="48.17382" lon="24.273664">
        <ele>678.37</ele>
      </trkpt>
      <trkpt lat="48.17392" lon="24.27364">
        <ele>680.24</ele>
      </trkpt>
      <trkpt lat="48.174052" lon="24.273554">
        <ele>682.89</ele>
      </trkpt>
      <trkpt lat="48.17437" lon="24.27325">
        <ele>690.71</ele>
      </trkpt>
      <trkpt lat="48.174482" lon="24.273064">
        <ele>693.99</ele>
      </trkpt>
      <trkpt lat="48.174506" lon="24.27293">
        <ele>695.58</ele>
      </trkpt>
      <trkpt lat="48.17456" lon="24.272767">
        <ele>697.11</ele>
      </trkpt>
      <trkpt lat="48.174677" lon="24.272537">
        <ele>700.2</ele>
      </trkpt>
      <trkpt lat="48.174776" lon="24.272297">
        <ele>704.99</ele>
      </trkpt>
      <trkpt lat="48.174797" lon="24.272216">
        <ele>707.02</ele>
      </trkpt>
      <trkpt lat="48.174894" lon="24.27218">
        <ele>707.52</ele>
      </trkpt>
      <trkpt lat="48.174894" lon="24.27218">
        <ele>707.52</ele>
      </trkpt>
      <trkpt lat="48.174797" lon="24.272216">
        <ele>707.02</ele>
      </trkpt>
      <trkpt lat="48.174758" lon="24.272075">
        <ele>710.34</ele>
      </trkpt>
      <trkpt lat="48.174704" lon="24.27199">
        <ele>712.37</ele>
      </trkpt>
      <trkpt lat="48.174613" lon="24.271892">
        <ele>714.72</ele>
      </trkpt>
      <trkpt lat="48.174437" lon="24.271822">
        <ele>717.2</ele>
      </trkpt>
      <trkpt lat="48.174216" lon="24.271767">
        <ele>719.48</ele>
      </trkpt>
      <trkpt lat="48.174055" lon="24.271657">
        <ele>721.53</ele>
      </trkpt>
      <trkpt lat="48.174023" lon="24.271603">
        <ele>722.46</ele>
      </trkpt>
      <trkpt lat="48.174007" lon="24.271525">
        <ele>723.56</ele>
      </trkpt>
      <trkpt lat="48.174037" lon="24.271056">
        <ele>728.64</ele>
      </trkpt>
      <trkpt lat="48.174033" lon="24.270866">
        <ele>730.86</ele>
      </trkpt>
      <trkpt lat="48.173997" lon="24.27075">
        <ele>732.3</ele>
      </trkpt>
      <trkpt lat="48.17389" lon="24.270531">
        <ele>734.24</ele>
      </trkpt>
      <trkpt lat="48.173858" lon="24.270388">
        <ele>736.17</ele>
      </trkpt>
      <trkpt lat="48.173849" lon="24.270271">
        <ele>737.49</ele>
      </trkpt>
      <trkpt lat="48.173865" lon="24.270172">
        <ele>739.04</ele>
      </trkpt>
      <trkpt lat="48.173936" lon="24.270043">
        <ele>742.56</ele>
      </trkpt>
      <trkpt lat="48.174401" lon="24.269803">
        <ele>751.56</ele>
      </trkpt>
      <trkpt lat="48.174644" lon="24.26975">
        <ele>754.8</ele>
      </trkpt>
      <trkpt lat="48.174748" lon="24.26968">
        <ele>756.52</ele>
      </trkpt>
      <trkpt lat="48.174843" lon="24.269534">
        <ele>758.2</ele>
      </trkpt>
      <trkpt lat="48.174921" lon="24.269379">
        <ele>760.54</ele>
      </trkpt>
      <trkpt lat="48.17501" lon="24.269276">
        <ele>762.79</ele>
      </trkpt>
      <trkpt lat="48.175292" lon="24.269094">
        <ele>768.49</ele>
      </trkpt>
      <trkpt lat="48.175521" lon="24.268997">
        <ele>771.93</ele>
      </trkpt>
      <trkpt lat="48.175684" lon="24.268965">
        <ele>772.47</ele>
      </trkpt>
      <trkpt lat="48.175914" lon="24.268956">
        <ele>773.18</ele>
      </trkpt>
      <trkpt lat="48.176091" lon="24.268878">
        <ele>775.22</ele>
      </trkpt>
      <trkpt lat="48.176119" lon="24.268786">
        <ele>777.37</ele>
      </trkpt>
      <trkpt lat="48.176113" lon="24.268681">
        <ele>780.13</ele>
      </trkpt>
      <trkpt lat="48.17605" lon="24.268585">
        <ele>783.12</ele>
      </trkpt>
      <trkpt lat="48.175901" lon="24.268477">
        <ele>786.97</ele>
      </trkpt>
      <trkpt lat="48.175554" lon="24.268368">
        <ele>790.79</ele>
      </trkpt>
      <trkpt lat="48.175261" lon="24.268153">
        <ele>794.52</ele>
      </trkpt>
      <trkpt lat="48.175201" lon="24.268061">
        <ele>795.3</ele>
      </trkpt>
      <trkpt lat="48.175178" lon="24.267941">
        <ele>796.53</ele>
      </trkpt>
      <trkpt lat="48.175162" lon="24.267764">
        <ele>798.54</ele>
      </trkpt>
      <trkpt lat="48.175104" lon="24.267527">
        <ele>799.91</ele>
      </trkpt>
      <trkpt lat="48.175007" lon="24.267234">
        <ele>803.01</ele>
      </trkpt>
      <trkpt lat="48.174683" lon="24.266574">
        <ele>812.14</ele>
      </trkpt>
      <trkpt lat="48.174498" lon="24.266166">
        <ele>816.86</ele>
      </trkpt>
      <trkpt lat="48.174449" lon="24.265996">
        <ele>819.03</ele>
      </trkpt>
      <trkpt lat="48.174449" lon="24.265996">
        <ele>819.02</ele>
      </trkpt>
      <trkpt lat="48.17442" lon="24.265894">
        <ele>820.33</ele>
      </trkpt>
      <trkpt lat="48.174407" lon="24.265773">
        <ele>821.87</ele>
      </trkpt>
      <trkpt lat="48.174444" lon="24.265573">
        <ele>824.45</ele>
      </trkpt>
      <trkpt lat="48.17451" lon="24.265406">
        <ele>826.77</ele>
      </trkpt>
      <trkpt lat="48.17462" lon="24.265208">
        <ele>830.21</ele>
      </trkpt>
      <trkpt lat="48.174747" lon="24.265014">
        <ele>833.96</ele>
      </trkpt>
      <trkpt lat="48.174826" lon="24.264931">
        <ele>836.09</ele>
      </trkpt>
      <trkpt lat="48.174926" lon="24.264899">
        <ele>839.21</ele>
      </trkpt>
      <trkpt lat="48.175198" lon="24.265036">
        <ele>846.31</ele>
      </trkpt>
      <trkpt lat="48.1753" lon="24.265064">
        <ele>848.67</ele>
      </trkpt>
      <trkpt lat="48.175394" lon="24.265068">
        <ele>850.31</ele>
      </trkpt>
      <trkpt lat="48.175505" lon="24.265054">
        <ele>852.13</ele>
      </trkpt>
      <trkpt lat="48.175652" lon="24.265015">
        <ele>853.67</ele>
      </trkpt>
      <trkpt lat="48.176356" lon="24.264558">
        <ele>862.17</ele>
      </trkpt>
      <trkpt lat="48.176475" lon="24.264449">
        <ele>862.49</ele>
      </trkpt>
      <trkpt lat="48.17655" lon="24.264338">
        <ele>862.56</ele>
      </trkpt>
      <trkpt lat="48.176658" lon="24.26405">
        <ele>862.47</ele>
      </trkpt>
      <trkpt lat="48.176854" lon="24.263412">
        <ele>867.66</ele>
      </trkpt>
      <trkpt lat="48.177014" lon="24.263045">
        <ele>871.74</ele>
      </trkpt>
      <trkpt lat="48.177188" lon="24.262733">
        <ele>875.98</ele>
      </trkpt>
      <trkpt lat="48.177426" lon="24.262217">
        <ele>882.6</ele>
      </trkpt>
      <trkpt lat="48.177542" lon="24.261969">
        <ele>887.29</ele>
      </trkpt>
      <trkpt lat="48.177736" lon="24.261562">
        <ele>890.91</ele>
      </trkpt>
      <trkpt lat="48.178193" lon="24.261155">
        <ele>889.57</ele>
      </trkpt>
      <trkpt lat="48.178395" lon="24.260977">
        <ele>890.87</ele>
      </trkpt>
      <trkpt lat="48.178807" lon="24.260615">
        <ele>888.53</ele>
      </trkpt>
      <trkpt lat="48.179069" lon="24.260337">
        <ele>888.19</ele>
      </trkpt>
      <trkpt lat="48.179398" lon="24.260115">
        <ele>889.29</ele>
      </trkpt>
      <trkpt lat="48.179677" lon="24.259803">
        <ele>898.11</ele>
      </trkpt>
      <trkpt lat="48.179986" lon="24.259278">
        <ele>913.3</ele>
      </trkpt>
      <trkpt lat="48.180117" lon="24.258915">
        <ele>921.63</ele>
      </trkpt>
      <trkpt lat="48.180348" lon="24.25826">
        <ele>940.08</ele>
      </trkpt>
      <trkpt lat="48.180431" lon="24.257964">
        <ele>946.81</ele>
      </trkpt>
      <trkpt lat="48.180515" lon="24.257667">
        <ele>958.08</ele>
      </trkpt>
      <trkpt lat="48.18059" lon="24.257316">
        <ele>964.27</ele>
      </trkpt>
      <trkpt lat="48.180811" lon="24.256322">
        <ele>971.15</ele>
      </trkpt>
      <trkpt lat="48.180911" lon="24.255916">
        <ele>974.52</ele>
      </trkpt>
      <trkpt lat="48.181017" lon="24.255566">
        <ele>977.89</ele>
      </trkpt>
      <trkpt lat="48.18112" lon="24.255204">
        <ele>986.61</ele>
      </trkpt>
      <trkpt lat="48.181206" lon="24.254878">
        <ele>991.25</ele>
      </trkpt>
      <trkpt lat="48.181242" lon="24.254544">
        <ele>990.27</ele>
      </trkpt>
      <trkpt lat="48.181339" lon="24.254189">
        <ele>991.98</ele>
      </trkpt>
      <trkpt lat="48.181427" lon="24.254044">
        <ele>993.58</ele>
      </trkpt>
      <trkpt lat="48.181498" lon="24.25382">
        <ele>994.53</ele>
      </trkpt>
      <trkpt lat="48.181679" lon="24.253553">
        <ele>996.37</ele>
      </trkpt>
      <trkpt lat="48.181785" lon="24.253272">
        <ele>998.16</ele>
      </trkpt>
      <trkpt lat="48.182062" lon="24.252998">
        <ele>1009.06</ele>
      </trkpt>
      <trkpt lat="48.182226" lon="24.252795">
        <ele>1016.56</ele>
      </trkpt>
      <trkpt lat="48.182391" lon="24.252512">
        <ele>1022.7</ele>
      </trkpt>
      <trkpt lat="48.182597" lon="24.251901">
        <ele>1029.87</ele>
      </trkpt>
      <trkpt lat="48.182597" lon="24.251901">
        <ele>1029.87</ele>
      </trkpt>
      <trkpt lat="48.182742" lon="24.251554">
        <ele>1031.65</ele>
      </trkpt>
      <trkpt lat="48.182858" lon="24.251477">
        <ele>1033.12</ele>
      </trkpt>
      <trkpt lat="48.183175" lon="24.251403">
        <ele>1036.19</ele>
      </trkpt>
      <trkpt lat="48.183345" lon="24.251364">
        <ele>1039.45</ele>
      </trkpt>
      <trkpt lat="48.183932" lon="24.251066">
        <ele>1056.25</ele>
      </trkpt>
      <trkpt lat="48.184254" lon="24.250991">
        <ele>1062.49</ele>
      </trkpt>
      <trkpt lat="48.184449" lon="24.251075">
        <ele>1065.66</ele>
      </trkpt>
      <trkpt lat="48.184707" lon="24.251216">
        <ele>1069.43</ele>
      </trkpt>
      <trkpt lat="48.184854" lon="24.251316">
        <ele>1072.81</ele>
      </trkpt>
      <trkpt lat="48.185053" lon="24.25152">
        <ele>1078.57</ele>
      </trkpt>
      <trkpt lat="48.185095" lon="24.251629">
        <ele>1080.63</ele>
      </trkpt>
      <trkpt lat="48.18508" lon="24.251705">
        <ele>1081.69</ele>
      </trkpt>
      <trkpt lat="48.18501" lon="24.251766">
        <ele>1081.91</ele>
      </trkpt>
      <trkpt lat="48.18501" lon="24.251766">
        <ele>1081.91</ele>
      </trkpt>
      <trkpt lat="48.184939" lon="24.251828">
        <ele>1082.13</ele>
      </trkpt>
      <trkpt lat="48.184816" lon="24.251958">
        <ele>1085.54</ele>
      </trkpt>
      <trkpt lat="48.18477" lon="24.252143">
        <ele>1090.43</ele>
      </trkpt>
      <trkpt lat="48.184836" lon="24.252461">
        <ele>1096.57</ele>
      </trkpt>
      <trkpt lat="48.184914" lon="24.252745">
        <ele>1100.9</ele>
      </trkpt>
      <trkpt lat="48.184984" lon="24.252942">
        <ele>1104.86</ele>
      </trkpt>
      <trkpt lat="48.185086" lon="24.253125">
        <ele>1108.82</ele>
      </trkpt>
      <trkpt lat="48.18512" lon="24.253346">
        <ele>1113.13</ele>
      </trkpt>
      <trkpt lat="48.185069" lon="24.253644">
        <ele>1118.78</ele>
      </trkpt>
      <trkpt lat="48.184989" lon="24.253932">
        <ele>1122.7</ele>
      </trkpt>
      <trkpt lat="48.184939" lon="24.254204">
        <ele>1126.68</ele>
      </trkpt>
      <trkpt lat="48.185025" lon="24.254403">
        <ele>1129.42</ele>
      </trkpt>
      <trkpt lat="48.185215" lon="24.25448">
        <ele>1130.8</ele>
      </trkpt>
      <trkpt lat="48.185263" lon="24.254551">
        <ele>1132.76</ele>
      </trkpt>
      <trkpt lat="48.185258" lon="24.254712">
        <ele>1136.36</ele>
      </trkpt>
      <trkpt lat="48.185213" lon="24.255093">
        <ele>1145.28</ele>
      </trkpt>
      <trkpt lat="48.185189" lon="24.255412">
        <ele>1151.23</ele>
      </trkpt>
      <trkpt lat="48.185155" lon="24.255549">
        <ele>1152.43</ele>
      </trkpt>
      <trkpt lat="48.185091" lon="24.255898">
        <ele>1156.16</ele>
      </trkpt>
      <trkpt lat="48.185073" lon="24.256281">
        <ele>1160.33</ele>
      </trkpt>
      <trkpt lat="48.185093" lon="24.256811">
        <ele>1168.35</ele>
      </trkpt>
      <trkpt lat="48.185161" lon="24.257283">
        <ele>1173.84</ele>
      </trkpt>
      <trkpt lat="48.18545" lon="24.257752">
        <ele>1183.06</ele>
      </trkpt>
      <trkpt lat="48.18545" lon="24.257752">
        <ele>1183.05</ele>
      </trkpt>
      <trkpt lat="48.185471" lon="24.257786">
        <ele>1183.72</ele>
      </trkpt>
      <trkpt lat="48.185604" lon="24.257801">
        <ele>1186.22</ele>
      </trkpt>
      <trkpt lat="48.18574" lon="24.257727">
        <ele>1188.23</ele>
      </trkpt>
      <trkpt lat="48.185855" lon="24.257587">
        <ele>1189.22</ele>
      </trkpt>
      <trkpt lat="48.18603" lon="24.257506">
        <ele>1192.9</ele>
      </trkpt>
      <trkpt lat="48.186229" lon="24.257344">
        <ele>1196.44</ele>
      </trkpt>
      <trkpt lat="48.186426" lon="24.257333">
        <ele>1201.24</ele>
      </trkpt>
      <trkpt lat="48.186583" lon="24.257338">
        <ele>1205.22</ele>
      </trkpt>
      <trkpt lat="48.186851" lon="24.257288">
        <ele>1211.1</ele>
      </trkpt>
      <trkpt lat="48.186983" lon="24.257296">
        <ele>1214.6</ele>
      </trkpt>
      <trkpt lat="48.187166" lon="24.257275">
        <ele>1218.44</ele>
      </trkpt>
      <trkpt lat="48.187348" lon="24.25716">
        <ele>1222.38</ele>
      </trkpt>
      <trkpt lat="48.188083" lon="24.257186">
        <ele>1244.25</ele>
      </trkpt>
      <trkpt lat="48.188279" lon="24.257144">
        <ele>1250.06</ele>
      </trkpt>
      <trkpt lat="48.188727" lon="24.2572">
        <ele>1261.23</ele>
      </trkpt>
      <trkpt lat="48.188875" lon="24.257237">
        <ele>1264.41</ele>
      </trkpt>
      <trkpt lat="48.189053" lon="24.257238">
        <ele>1268.26</ele>
      </trkpt>
      <trkpt lat="48.189203" lon="24.257443">
        <ele>1271.68</ele>
      </trkpt>
      <trkpt lat="48.18955" lon="24.257486">
        <ele>1280.75</ele>
      </trkpt>
      <trkpt lat="48.18968" lon="24.257457">
        <ele>1284.1</ele>
      </trkpt>
      <trkpt lat="48.190177" lon="24.257576">
        <ele>1295.56</ele>
      </trkpt>
      <trkpt lat="48.191094" lon="24.257535">
        <ele>1318.42</ele>
      </trkpt>
      <trkpt lat="48.191704" lon="24.257549">
        <ele>1338.57</ele>
      </trkpt>
      <trkpt lat="48.192026" lon="24.257514">
        <ele>1348.01</ele>
      </trkpt>
      <trkpt lat="48.192416" lon="24.257485">
        <ele>1358.56</ele>
      </trkpt>
      <trkpt lat="48.192575" lon="24.25745">
        <ele>1363.01</ele>
      </trkpt>
      <trkpt lat="48.192859" lon="24.257472">
        <ele>1367.86</ele>
      </trkpt>
      <trkpt lat="48.192995" lon="24.257438">
        <ele>1371.15</ele>
      </trkpt>
      <trkpt lat="48.193152" lon="24.257471">
        <ele>1373.97</ele>
      </trkpt>
      <trkpt lat="48.193568" lon="24.257507">
        <ele>1380.95</ele>
      </trkpt>
      <trkpt lat="48.193922" lon="24.25748">
        <ele>1388.3</ele>
      </trkpt>
      <trkpt lat="48.194251" lon="24.25751">
        <ele>1394.08</ele>
      </trkpt>
      <trkpt lat="48.194485" lon="24.257569">
        <ele>1398.68</ele>
      </trkpt>
      <trkpt lat="48.194642" lon="24.257489">
        <ele>1401.99</ele>
      </trkpt>
      <trkpt lat="48.194794" lon="24.257324">
        <ele>1405.54</ele>
      </trkpt>
      <trkpt lat="48.195077" lon="24.257062">
        <ele>1411.01</ele>
      </trkpt>
      <trkpt lat="48.195333" lon="24.257114">
        <ele>1416.99</ele>
      </trkpt>
      <trkpt lat="48.195514" lon="24.257205">
        <ele>1420.21</ele>
      </trkpt>
      <trkpt lat="48.196071" lon="24.257597">
        <ele>1433.67</ele>
      </trkpt>
      <trkpt lat="48.196447" lon="24.257864">
        <ele>1439.49</ele>
      </trkpt>
      <trkpt lat="48.197201" lon="24.258482">
        <ele>1449.5</ele>
      </trkpt>
      <trkpt lat="48.197468" lon="24.258734">
        <ele>1454</ele>
      </trkpt>
      <trkpt lat="48.197584" lon="24.258843">
        <ele>1455.65</ele>
      </trkpt>
      <trkpt lat="48.198033" lon="24.259117">
        <ele>1463.74</ele>
      </trkpt>
      <trkpt lat="48.198702" lon="24.25942">
        <ele>1474.67</ele>
      </trkpt>
      <trkpt lat="48.198969" lon="24.259524">
        <ele>1478.49</ele>
      </trkpt>
      <trkpt lat="48.199727" lon="24.25961">
        <ele>1490.7</ele>
      </trkpt>
      <trkpt lat="48.200822" lon="24.259421">
        <ele>1503.85</ele>
      </trkpt>
      <trkpt lat="48.202383" lon="24.259159">
        <ele>1530.39</ele>
      </trkpt>
      <trkpt lat="48.202383" lon="24.259159">
        <ele>1530.39</ele>
      </trkpt>
      <trkpt lat="48.202575" lon="24.259128">
        <ele>1532</ele>
      </trkpt>
      <trkpt lat="48.202687" lon="24.258989">
        <ele>1532</ele>
      </trkpt>
      <trkpt lat="48.202736" lon="24.258771">
        <ele>1531.83</ele>
      </trkpt>
      <trkpt lat="48.20294" lon="24.25846">
        <ele>1533</ele>
      </trkpt>
      <trkpt lat="48.203032" lon="24.258361">
        <ele>1533.15</ele>
      </trkpt>
      <trkpt lat="48.203669" lon="24.256997">
        <ele>1543.67</ele>
      </trkpt>
      <trkpt lat="48.204347" lon="24.255855">
        <ele>1563.08</ele>
      </trkpt>
      <trkpt lat="48.204432" lon="24.255497">
        <ele>1568.1</ele>
      </trkpt>
      <trkpt lat="48.204534" lon="24.254734">
        <ele>1579.05</ele>
      </trkpt>
      <trkpt lat="48.204689" lon="24.254259">
        <ele>1589.25</ele>
      </trkpt>
      <trkpt lat="48.205741" lon="24.251948">
        <ele>1640.79</ele>
      </trkpt>
      <trkpt lat="48.206041" lon="24.251288">
        <ele>1652.7</ele>
      </trkpt>
      <trkpt lat="48.206155" lon="24.250926">
        <ele>1657.93</ele>
      </trkpt>
      <trkpt lat="48.206249" lon="24.250469">
        <ele>1663.64</ele>
      </trkpt>
      <trkpt lat="48.206787" lon="24.24901">
        <ele>1684.06</ele>
      </trkpt>
      <trkpt lat="48.207584" lon="24.247166">
        <ele>1712.68</ele>
      </trkpt>
      <trkpt lat="48.208286" lon="24.246071">
        <ele>1726.02</ele>
      </trkpt>
      <trkpt lat="48.208918" lon="24.245338">
        <ele>1735.28</ele>
      </trkpt>
      <trkpt lat="48.209339" lon="24.24485">
        <ele>1739.71</ele>
      </trkpt>
      <trkpt lat="48.210144" lon="24.243332">
        <ele>1744.93</ele>
      </trkpt>
      <trkpt lat="48.210468" lon="24.242868">
        <ele>1749.1</ele>
      </trkpt>
      <trkpt lat="48.21059" lon="24.242844">
        <ele>1751.15</ele>
      </trkpt>
      <trkpt lat="48.211037" lon="24.24221">
        <ele>1759.4</ele>
      </trkpt>
      <trkpt lat="48.211544" lon="24.241101">
        <ele>1772.83</ele>
      </trkpt>
      <trkpt lat="48.211639" lon="24.240892">
        <ele>1777.12</ele>
      </trkpt>
      <trkpt lat="48.211784" lon="24.240719">
        <ele>1783.12</ele>
      </trkpt>
      <trkpt lat="48.211784" lon="24.240719">
        <ele>1783.13</ele>
      </trkpt>
      <trkpt lat="48.212765" lon="24.239548">
        <ele>1823.66</ele>
      </trkpt>
      <trkpt lat="48.213364" lon="24.239025">
        <ele>1842.95</ele>
      </trkpt>
      <trkpt lat="48.214068" lon="24.238518">
        <ele>1859.55</ele>
      </trkpt>
      <trkpt lat="48.214303" lon="24.238349">
        <ele>1863.43</ele>
      </trkpt>
      <trkpt lat="48.214608" lon="24.238166">
        <ele>1865.17</ele>
      </trkpt>
      <trkpt lat="48.21524" lon="24.2379">
        <ele>1867.69</ele>
      </trkpt>
      <trkpt lat="48.216267" lon="24.237811">
        <ele>1873.36</ele>
      </trkpt>
      <trkpt lat="48.216354" lon="24.237839">
        <ele>1873.88</ele>
      </trkpt>
      <trkpt lat="48.21648" lon="24.237799">
        <ele>1873.13</ele>
      </trkpt>
      <trkpt lat="48.216637" lon="24.237681">
        <ele>1871.96</ele>
      </trkpt>
      <trkpt lat="48.216766" lon="24.237492">
        <ele>1869.7</ele>
      </trkpt>
      <trkpt lat="48.217144" lon="24.237104">
        <ele>1859.29</ele>
      </trkpt>
      <trkpt lat="48.217362" lon="24.236856">
        <ele>1850.51</ele>
      </trkpt>
      <trkpt lat="48.217621" lon="24.236635">
        <ele>1839.29</ele>
      </trkpt>
      <trkpt lat="48.218113" lon="24.236292">
        <ele>1820.49</ele>
      </trkpt>
      <trkpt lat="48.218418" lon="24.236041">
        <ele>1810.4</ele>
      </trkpt>
      <trkpt lat="48.218719" lon="24.235762">
        <ele>1803.68</ele>
      </trkpt>
      <trkpt lat="48.219184" lon="24.235113">
        <ele>1799.9</ele>
      </trkpt>
      <trkpt lat="48.219543" lon="24.23465">
        <ele>1797.41</ele>
      </trkpt>
      <trkpt lat="48.219891" lon="24.234459">
        <ele>1802.48</ele>
      </trkpt>
      <trkpt lat="48.220329" lon="24.234083">
        <ele>1809.05</ele>
      </trkpt>
      <trkpt lat="48.220541" lon="24.233794">
        <ele>1811.89</ele>
      </trkpt>
      <trkpt lat="48.220753" lon="24.233504">
        <ele>1817.18</ele>
      </trkpt>
      <trkpt lat="48.22139" lon="24.232636">
        <ele>1842.43</ele>
      </trkpt>
      <trkpt lat="48.221578" lon="24.232364">
        <ele>1849.9</ele>
      </trkpt>
      <trkpt lat="48.221935" lon="24.231937">
        <ele>1860.98</ele>
      </trkpt>
      <trkpt lat="48.222164" lon="24.231594">
        <ele>1867.63</ele>
      </trkpt>
      <trkpt lat="48.222349" lon="24.231414">
        <ele>1871.93</ele>
      </trkpt>
      <trkpt lat="48.222533" lon="24.231234">
        <ele>1873.49</ele>
      </trkpt>
      <trkpt lat="48.22264" lon="24.23111">
        <ele>1873.3</ele>
      </trkpt>
      <trkpt lat="48.222741" lon="24.230726">
        <ele>1868.48</ele>
      </trkpt>
      <trkpt lat="48.222946" lon="24.229745">
        <ele>1853.46</ele>
      </trkpt>
      <trkpt lat="48.223086" lon="24.229429">
        <ele>1846.64</ele>
      </trkpt>
      <trkpt lat="48.223086" lon="24.229429">
        <ele>1846.64</ele>
      </trkpt>
      <trkpt lat="48.22332" lon="24.229357">
        <ele>1839.89</ele>
      </trkpt>
      <trkpt lat="48.22406" lon="24.229415">
        <ele>1813.18</ele>
      </trkpt>
      <trkpt lat="48.224553" lon="24.229453">
        <ele>1798.26</ele>
      </trkpt>
      <trkpt lat="48.224886" lon="24.229385">
        <ele>1784.86</ele>
      </trkpt>
      <trkpt lat="48.225148" lon="24.229331">
        <ele>1777.88</ele>
      </trkpt>
      <trkpt lat="48.22541" lon="24.229278">
        <ele>1771.33</ele>
      </trkpt>
      <trkpt lat="48.225814" lon="24.229195">
        <ele>1764.68</ele>
      </trkpt>
      <trkpt lat="48.226028" lon="24.229036">
        <ele>1762.12</ele>
      </trkpt>
      <trkpt lat="48.226242" lon="24.228878">
        <ele>1761.93</ele>
      </trkpt>
      <trkpt lat="48.226635" lon="24.228586">
        <ele>1765.97</ele>
      </trkpt>
      <trkpt lat="48.226908" lon="24.22848">
        <ele>1770.82</ele>
      </trkpt>
      <trkpt lat="48.227295" lon="24.228329">
        <ele>1780.66</ele>
      </trkpt>
      <trkpt lat="48.227769" lon="24.228839">
        <ele>1788</ele>
      </trkpt>
      <trkpt lat="48.227745" lon="24.229193">
        <ele>1784.7</ele>
      </trkpt>
      <trkpt lat="48.227801" lon="24.229424">
        <ele>1777.95</ele>
      </trkpt>
      <trkpt lat="48.227901" lon="24.229572">
        <ele>1768.77</ele>
      </trkpt>
      <trkpt lat="48.228061" lon="24.229586">
        <ele>1770.2</ele>
      </trkpt>
      <trkpt lat="48.228233" lon="24.229528">
        <ele>1774.03</ele>
      </trkpt>
      <trkpt lat="48.228354" lon="24.229602">
        <ele>1770.81</ele>
      </trkpt>
      <trkpt lat="48.228463" lon="24.229746">
        <ele>1764.04</ele>
      </trkpt>
      <trkpt lat="48.228578" lon="24.229813">
        <ele>1761.42</ele>
      </trkpt>
      <trkpt lat="48.228737" lon="24.22982">
        <ele>1758.59</ele>
      </trkpt>
      <trkpt lat="48.228892" lon="24.229901">
        <ele>1754.55</ele>
      </trkpt>
      <trkpt lat="48.229032" lon="24.230177">
        <ele>1750.29</ele>
      </trkpt>
      <trkpt lat="48.229296" lon="24.230517">
        <ele>1747.95</ele>
      </trkpt>
      <trkpt lat="48.229572" lon="24.230837">
        <ele>1747.2</ele>
      </trkpt>
      <trkpt lat="48.229866" lon="24.230902">
        <ele>1746</ele>
      </trkpt>
      <trkpt lat="48.230183" lon="24.230873">
        <ele>1746.72</ele>
      </trkpt>
      <trkpt lat="48.230467" lon="24.230756">
        <ele>1749.27</ele>
      </trkpt>
      <trkpt lat="48.231201" lon="24.230455">
        <ele>1752</ele>
      </trkpt>
      <trkpt lat="48.231705" lon="24.230459">
        <ele>1759.75</ele>
      </trkpt>
      <trkpt lat="48.231965" lon="24.230542">
        <ele>1762.65</ele>
      </trkpt>
      <trkpt lat="48.23219" lon="24.230609">
        <ele>1761.55</ele>
      </trkpt>
      <trkpt lat="48.232665" lon="24.230279">
        <ele>1755.49</ele>
      </trkpt>
      <trkpt lat="48.233428" lon="24.230334">
        <ele>1736.94</ele>
      </trkpt>
      <trkpt lat="48.233618" lon="24.230467">
        <ele>1731.76</ele>
      </trkpt>
      <trkpt lat="48.23373" lon="24.230451">
        <ele>1728.92</ele>
      </trkpt>
      <trkpt lat="48.233865" lon="24.230359">
        <ele>1725.8</ele>
      </trkpt>
      <trkpt lat="48.234062" lon="24.230378">
        <ele>1719.69</ele>
      </trkpt>
      <trkpt lat="48.234341" lon="24.230429">
        <ele>1712.06</ele>
      </trkpt>
      <trkpt lat="48.234583" lon="24.230565">
        <ele>1705.23</ele>
      </trkpt>
      <trkpt lat="48.234726" lon="24.230572">
        <ele>1702.51</ele>
      </trkpt>
      <trkpt lat="48.235809" lon="24.230417">
        <ele>1680.41</ele>
      </trkpt>
      <trkpt lat="48.236076" lon="24.230442">
        <ele>1674.35</ele>
      </trkpt>
      <trkpt lat="48.23745" lon="24.23068">
        <ele>1641.28</ele>
      </trkpt>
      <trkpt lat="48.238439" lon="24.230647">
        <ele>1612.65</ele>
      </trkpt>
      <trkpt lat="48.239144" lon="24.230534">
        <ele>1591.76</ele>
      </trkpt>
      <trkpt lat="48.24008" lon="24.230573">
        <ele>1564.2</ele>
      </trkpt>
      <trkpt lat="48.240629" lon="24.2305">
        <ele>1552.97</ele>
      </trkpt>
      <trkpt lat="48.240629" lon="24.2305">
        <ele>1552.97</ele>
      </trkpt>
      <trkpt lat="48.241249" lon="24.230418">
        <ele>1549</ele>
      </trkpt>
      <trkpt lat="48.24171" lon="24.230118">
        <ele>1553.01</ele>
      </trkpt>
      <trkpt lat="48.242038" lon="24.229596">
        <ele>1554.46</ele>
      </trkpt>
      <trkpt lat="48.242218" lon="24.229065">
        <ele>1557.01</ele>
      </trkpt>
      <trkpt lat="48.242393" lon="24.228773">
        <ele>1558.73</ele>
      </trkpt>
      <trkpt lat="48.242916" lon="24.227896">
        <ele>1559.68</ele>
      </trkpt>
      <trkpt lat="48.243382" lon="24.227406">
        <ele>1557.41</ele>
      </trkpt>
      <trkpt lat="48.24419" lon="24.226498">
        <ele>1552.96</ele>
      </trkpt>
      <trkpt lat="48.244644" lon="24.226263">
        <ele>1553</ele>
      </trkpt>
      <trkpt lat="48.244745" lon="24.226285">
        <ele>1553</ele>
      </trkpt>
      <trkpt lat="48.244844" lon="24.226221">
        <ele>1553</ele>
      </trkpt>
      <trkpt lat="48.244924" lon="24.226153">
        <ele>1552.93</ele>
      </trkpt>
      <trkpt lat="48.245033" lon="24.226051">
        <ele>1552.34</ele>
      </trkpt>
      <trkpt lat="48.245388" lon="24.225482">
        <ele>1549.88</ele>
      </trkpt>
      <trkpt lat="48.245583" lon="24.225292">
        <ele>1548.38</ele>
      </trkpt>
      <trkpt lat="48.246181" lon="24.224915">
        <ele>1551.24</ele>
      </trkpt>
      <trkpt lat="48.246686" lon="24.224467">
        <ele>1552.83</ele>
      </trkpt>
      <trkpt lat="48.247137" lon="24.224038">
        <ele>1556.23</ele>
      </trkpt>
      <trkpt lat="48.247449" lon="24.2236">
        <ele>1558.33</ele>
      </trkpt>
      <trkpt lat="48.247641" lon="24.223132">
        <ele>1559.36</ele>
      </trkpt>
      <trkpt lat="48.248026" lon="24.222065">
        <ele>1564.44</ele>
      </trkpt>
      <trkpt lat="48.248285" lon="24.221607">
        <ele>1567.94</ele>
      </trkpt>
      <trkpt lat="48.24923" lon="24.220449">
        <ele>1576.74</ele>
      </trkpt>
      <trkpt lat="48.249614" lon="24.219919">
        <ele>1580.76</ele>
      </trkpt>
      <trkpt lat="48.249797" lon="24.219638">
        <ele>1584</ele>
      </trkpt>
      <trkpt lat="48.249942" lon="24.219284">
        <ele>1586.31</ele>
      </trkpt>
      <trkpt lat="48.250059" lon="24.218968">
        <ele>1589.48</ele>
      </trkpt>
      <trkpt lat="48.25012" lon="24.218764">
        <ele>1591.41</ele>
      </trkpt>
      <trkpt lat="48.250182" lon="24.218512">
        <ele>1593.03</ele>
      </trkpt>
      <trkpt lat="48.250229" lon="24.218209">
        <ele>1595.26</ele>
      </trkpt>
      <trkpt lat="48.250421" lon="24.217621">
        <ele>1599.38</ele>
      </trkpt>
      <trkpt lat="48.250545" lon="24.217334">
        <ele>1601.18</ele>
      </trkpt>
      <trkpt lat="48.250713" lon="24.217013">
        <ele>1602.07</ele>
      </trkpt>
      <trkpt lat="48.250972" lon="24.216595">
        <ele>1601.8</ele>
      </trkpt>
      <trkpt lat="48.251457" lon="24.216017">
        <ele>1599.6</ele>
      </trkpt>
      <trkpt lat="48.252014" lon="24.215568">
        <ele>1597.84</ele>
      </trkpt>
      <trkpt lat="48.25257" lon="24.21506">
        <ele>1595.1</ele>
      </trkpt>
      <trkpt lat="48.25257" lon="24.21506">
        <ele>1595.1</ele>
      </trkpt>
      <trkpt lat="48.25266" lon="24.214977">
        <ele>1594.65</ele>
      </trkpt>
      <trkpt lat="48.252735" lon="24.214766">
        <ele>1593.99</ele>
      </trkpt>
      <trkpt lat="48.252909" lon="24.214255">
        <ele>1595.74</ele>
      </trkpt>
      <trkpt lat="48.252663" lon="24.213385">
        <ele>1594.97</ele>
      </trkpt>
      <trkpt lat="48.252694" lon="24.213057">
        <ele>1597.05</ele>
      </trkpt>
      <trkpt lat="48.252714" lon="24.212373">
        <ele>1601.54</ele>
      </trkpt>
      <trkpt lat="48.252648" lon="24.211783">
        <ele>1605.85</ele>
      </trkpt>
      <trkpt lat="48.252484" lon="24.211322">
        <ele>1609.23</ele>
      </trkpt>
      <trkpt lat="48.252296" lon="24.210931">
        <ele>1612.1</ele>
      </trkpt>
      <trkpt lat="48.251748" lon="24.210214">
        <ele>1614.99</ele>
      </trkpt>
      <trkpt lat="48.251294" lon="24.209317">
        <ele>1622.96</ele>
      </trkpt>
      <trkpt lat="48.25084" lon="24.20842">
        <ele>1626.76</ele>
      </trkpt>
      <trkpt lat="48.250627" lon="24.207999">
        <ele>1626.91</ele>
      </trkpt>
      <trkpt lat="48.250508" lon="24.207433">
        <ele>1628.95</ele>
      </trkpt>
      <trkpt lat="48.250517" lon="24.207239">
        <ele>1629.22</ele>
      </trkpt>
      <trkpt lat="48.250598" lon="24.207138">
        <ele>1630.43</ele>
      </trkpt>
      <trkpt lat="48.25069" lon="24.207136">
        <ele>1631.41</ele>
      </trkpt>
      <trkpt lat="48.250519" lon="24.206958">
        <ele>1628.81</ele>
      </trkpt>
      <trkpt lat="48.250519" lon="24.206958">
        <ele>1628.81</ele>
      </trkpt>
      <trkpt lat="48.25069" lon="24.207136">
        <ele>1631.41</ele>
      </trkpt>
      <trkpt lat="48.250791" lon="24.207281">
        <ele>1633.2</ele>
      </trkpt>
      <trkpt lat="48.25084" lon="24.207292">
        <ele>1633.81</ele>
      </trkpt>
      <trkpt lat="48.251062" lon="24.207345">
        <ele>1636.89</ele>
      </trkpt>
      <trkpt lat="48.251434" lon="24.207324">
        <ele>1642.58</ele>
      </trkpt>
      <trkpt lat="48.251691" lon="24.207109">
        <ele>1643.42</ele>
      </trkpt>
      <trkpt lat="48.252063" lon="24.206937">
        <ele>1643.35</ele>
      </trkpt>
      <trkpt lat="48.252353" lon="24.206942">
        <ele>1645.34</ele>
      </trkpt>
      <trkpt lat="48.253225" lon="24.206958">
        <ele>1646.21</ele>
      </trkpt>
      <trkpt lat="48.25342" lon="24.206916">
        <ele>1646.45</ele>
      </trkpt>
      <trkpt lat="48.253527" lon="24.206835">
        <ele>1645.83</ele>
      </trkpt>
      <trkpt lat="48.253634" lon="24.206809">
        <ele>1646.12</ele>
      </trkpt>
      <trkpt lat="48.25385" lon="24.206795">
        <ele>1648.04</ele>
      </trkpt>
      <trkpt lat="48.254034" lon="24.206744">
        <ele>1649.94</ele>
      </trkpt>
      <trkpt lat="48.254118" lon="24.206682">
        <ele>1649.96</ele>
      </trkpt>
      <trkpt lat="48.254182" lon="24.206599">
        <ele>1649.02</ele>
      </trkpt>
      <trkpt lat="48.254334" lon="24.206336">
        <ele>1646.06</ele>
      </trkpt>
      <trkpt lat="48.254413" lon="24.206275">
        <ele>1645.92</ele>
      </trkpt>
      <trkpt lat="48.254491" lon="24.206251">
        <ele>1646.11</ele>
      </trkpt>
      <trkpt lat="48.254791" lon="24.206208">
        <ele>1646.04</ele>
      </trkpt>
      <trkpt lat="48.254997" lon="24.206022">
        <ele>1644.17</ele>
      </trkpt>
      <trkpt lat="48.255123" lon="24.205761">
        <ele>1640.74</ele>
      </trkpt>
      <trkpt lat="48.255232" lon="24.20556">
        <ele>1638.46</ele>
      </trkpt>
      <trkpt lat="48.25542" lon="24.205293">
        <ele>1633.9</ele>
      </trkpt>
      <trkpt lat="48.255849" lon="24.204723">
        <ele>1627.75</ele>
      </trkpt>
      <trkpt lat="48.255983" lon="24.204485">
        <ele>1627.13</ele>
      </trkpt>
      <trkpt lat="48.256035" lon="24.204298">
        <ele>1628.65</ele>
      </trkpt>
      <trkpt lat="48.256314" lon="24.203912">
        <ele>1632.57</ele>
      </trkpt>
      <trkpt lat="48.256653" lon="24.203506">
        <ele>1642.54</ele>
      </trkpt>
      <trkpt lat="48.256949" lon="24.203294">
        <ele>1651.43</ele>
      </trkpt>
      <trkpt lat="48.257155" lon="24.203121">
        <ele>1657.51</ele>
      </trkpt>
      <trkpt lat="48.257361" lon="24.202785">
        <ele>1663.2</ele>
      </trkpt>
      <trkpt lat="48.257494" lon="24.202386">
        <ele>1667.3</ele>
      </trkpt>
      <trkpt lat="48.25768" lon="24.202052">
        <ele>1672.53</ele>
      </trkpt>
      <trkpt lat="48.257886" lon="24.201779">
        <ele>1678.13</ele>
      </trkpt>
      <trkpt lat="48.257886" lon="24.201779">
        <ele>1678.13</ele>
      </trkpt>
      <trkpt lat="48.258124" lon="24.20153">
        <ele>1682</ele>
      </trkpt>
      <trkpt lat="48.258243" lon="24.20149">
        <ele>1681.93</ele>
      </trkpt>
      <trkpt lat="48.258405" lon="24.201534">
        <ele>1680.03</ele>
      </trkpt>
      <trkpt lat="48.258966" lon="24.201734">
        <ele>1667.28</ele>
      </trkpt>
      <trkpt lat="48.259304" lon="24.201819">
        <ele>1659.58</ele>
      </trkpt>
      <trkpt lat="48.259406" lon="24.201798">
        <ele>1658.3</ele>
      </trkpt>
      <trkpt lat="48.259505" lon="24.2018">
        <ele>1656.86</ele>
      </trkpt>
      <trkpt lat="48.259736" lon="24.201912">
        <ele>1654.79</ele>
      </trkpt>
      <trkpt lat="48.259901" lon="24.201959">
        <ele>1652.33</ele>
      </trkpt>
      <trkpt lat="48.260693" lon="24.20204">
        <ele>1647</ele>
      </trkpt>
      <trkpt lat="48.260944" lon="24.202227">
        <ele>1647.37</ele>
      </trkpt>
      <trkpt lat="48.261174" lon="24.202432">
        <ele>1649.28</ele>
      </trkpt>
      <trkpt lat="48.261716" lon="24.202668">
        <ele>1658.78</ele>
      </trkpt>
      <trkpt lat="48.262239" lon="24.202837">
        <ele>1669.88</ele>
      </trkpt>
      <trkpt lat="48.262381" lon="24.202858">
        <ele>1672.51</ele>
      </trkpt>
      <trkpt lat="48.262541" lon="24.202965">
        <ele>1676.19</ele>
      </trkpt>
      <trkpt lat="48.263097" lon="24.203181">
        <ele>1687.91</ele>
      </trkpt>
      <trkpt lat="48.26339" lon="24.203155">
        <ele>1693.24</ele>
      </trkpt>
      <trkpt lat="48.263745" lon="24.203341">
        <ele>1697.73</ele>
      </trkpt>
      <trkpt lat="48.264525" lon="24.203486">
        <ele>1701.92</ele>
      </trkpt>
      <trkpt lat="48.264756" lon="24.203523">
        <ele>1705.9</ele>
      </trkpt>
      <trkpt lat="48.265066" lon="24.2034">
        <ele>1711.07</ele>
      </trkpt>
      <trkpt lat="48.265381" lon="24.203483">
        <ele>1715.4</ele>
      </trkpt>
      <trkpt lat="48.265953" lon="24.203282">
        <ele>1715.53</ele>
      </trkpt>
      <trkpt lat="48.266045" lon="24.203235">
        <ele>1714.86</ele>
      </trkpt>
      <trkpt lat="48.266045" lon="24.203234">
        <ele>1714.86</ele>
      </trkpt>
      <trkpt lat="48.266404" lon="24.203052">
        <ele>1712.28</ele>
      </trkpt>
      <trkpt lat="48.266999" lon="24.202819">
        <ele>1708.86</ele>
      </trkpt>
      <trkpt lat="48.267582" lon="24.2026">
        <ele>1710</ele>
      </trkpt>
      <trkpt lat="48.267821" lon="24.202567">
        <ele>1711.68</ele>
      </trkpt>
      <trkpt lat="48.268599" lon="24.202427">
        <ele>1727.02</ele>
      </trkpt>
      <trkpt lat="48.268881" lon="24.20245">
        <ele>1732.46</ele>
      </trkpt>
      <trkpt lat="48.269234" lon="24.202586">
        <ele>1737.27</ele>
      </trkpt>
      <trkpt lat="48.269854" lon="24.20266">
        <ele>1749.43</ele>
      </trkpt>
      <trkpt lat="48.270402" lon="24.202912">
        <ele>1761.33</ele>
      </trkpt>
      <trkpt lat="48.270676" lon="24.203038">
        <ele>1765.01</ele>
      </trkpt>
      <trkpt lat="48.270526" lon="24.202636">
        <ele>1759.27</ele>
      </trkpt>
      <trkpt lat="48.270526" lon="24.202636">
        <ele>1759.27</ele>
      </trkpt>
      <trkpt lat="48.270453" lon="24.20244">
        <ele>1755.23</ele>
      </trkpt>
      <trkpt lat="48.270276" lon="24.201538">
        <ele>1735.42</ele>
      </trkpt>
      <trkpt lat="48.270197" lon="24.200592">
        <ele>1715.8</ele>
      </trkpt>
      <trkpt lat="48.270318" lon="24.199667">
        <ele>1698.79</ele>
      </trkpt>
      <trkpt lat="48.270807" lon="24.197901">
        <ele>1671.95</ele>
      </trkpt>
      <trkpt lat="48.270749" lon="24.197237">
        <ele>1663.49</ele>
      </trkpt>
      <trkpt lat="48.270745" lon="24.19684">
        <ele>1657.23</ele>
      </trkpt>
      <trkpt lat="48.27079" lon="24.196441">
        <ele>1653.24</ele>
      </trkpt>
      <trkpt lat="48.270835" lon="24.196042">
        <ele>1652.95</ele>
      </trkpt>
      <trkpt lat="48.270904" lon="24.195664">
        <ele>1653.27</ele>
      </trkpt>
      <trkpt lat="48.270972" lon="24.195286">
        <ele>1656.72</ele>
      </trkpt>
      <trkpt lat="48.271003" lon="24.19506">
        <ele>1659.2</ele>
      </trkpt>
      <trkpt lat="48.271113" lon="24.19426">
        <ele>1667.88</ele>
      </trkpt>
      <trkpt lat="48.271272" lon="24.193365">
        <ele>1675.28</ele>
      </trkpt>
      <trkpt lat="48.271392" lon="24.19229">
        <ele>1679.68</ele>
      </trkpt>
      <trkpt lat="48.271542" lon="24.191904">
        <ele>1683.68</ele>
      </trkpt>
      <trkpt lat="48.271842" lon="24.191132">
        <ele>1685.14</ele>
      </trkpt>
      <trkpt lat="48.271989" lon="24.190812">
        <ele>1685.75</ele>
      </trkpt>
      <trkpt lat="48.272429" lon="24.189852">
        <ele>1682.83</ele>
      </trkpt>
      <trkpt lat="48.272807" lon="24.188743">
        <ele>1680.96</ele>
      </trkpt>
      <trkpt lat="48.273071" lon="24.187969">
        <ele>1682.65</ele>
      </trkpt>
      <trkpt lat="48.273344" lon="24.186606">
        <ele>1684.88</ele>
      </trkpt>
      <trkpt lat="48.273473" lon="24.185737">
        <ele>1685.2</ele>
      </trkpt>
      <trkpt lat="48.273593" lon="24.185443">
        <ele>1686.65</ele>
      </trkpt>
      <trkpt lat="48.273834" lon="24.184856">
        <ele>1686.24</ele>
      </trkpt>
      <trkpt lat="48.274148" lon="24.184077">
        <ele>1682.83</ele>
      </trkpt>
      <trkpt lat="48.274603" lon="24.182961">
        <ele>1681.25</ele>
      </trkpt>
      <trkpt lat="48.275312" lon="24.181271">
        <ele>1672.42</ele>
      </trkpt>
      <trkpt lat="48.275462" lon="24.180936">
        <ele>1671.46</ele>
      </trkpt>
      <trkpt lat="48.275558" lon="24.180467">
        <ele>1669.2</ele>
      </trkpt>
      <trkpt lat="48.275559" lon="24.180307">
        <ele>1668.31</ele>
      </trkpt>
      <trkpt lat="48.275971" lon="24.179753">
        <ele>1675.88</ele>
      </trkpt>
      <trkpt lat="48.276324" lon="24.178374">
        <ele>1682.99</ele>
      </trkpt>
      <trkpt lat="48.276446" lon="24.177981">
        <ele>1686.26</ele>
      </trkpt>
      <trkpt lat="48.276472" lon="24.17753">
        <ele>1689.32</ele>
      </trkpt>
      <trkpt lat="48.276522" lon="24.17663">
        <ele>1692.16</ele>
      </trkpt>
      <trkpt lat="48.276683" lon="24.175839">
        <ele>1697.24</ele>
      </trkpt>
      <trkpt lat="48.276831" lon="24.174609">
        <ele>1700.83</ele>
      </trkpt>
      <trkpt lat="48.276834" lon="24.174124">
        <ele>1700.57</ele>
      </trkpt>
      <trkpt lat="48.276834" lon="24.174124">
        <ele>1700.57</ele>
      </trkpt>
      <trkpt lat="48.276836" lon="24.173787">
        <ele>1700.39</ele>
      </trkpt>
      <trkpt lat="48.276777" lon="24.172998">
        <ele>1701.01</ele>
      </trkpt>
      <trkpt lat="48.27656" lon="24.172081">
        <ele>1703.55</ele>
      </trkpt>
      <trkpt lat="48.276362" lon="24.170873">
        <ele>1708.11</ele>
      </trkpt>
      <trkpt lat="48.276282" lon="24.170317">
        <ele>1709.83</ele>
      </trkpt>
      <trkpt lat="48.276099" lon="24.169622">
        <ele>1711.8</ele>
      </trkpt>
      <trkpt lat="48.275961" lon="24.168367">
        <ele>1716.47</ele>
      </trkpt>
      <trkpt lat="48.275933" lon="24.168032">
        <ele>1717.13</ele>
      </trkpt>
      <trkpt lat="48.275938" lon="24.167659">
        <ele>1718.33</ele>
      </trkpt>
      <trkpt lat="48.275891" lon="24.166937">
        <ele>1719.42</ele>
      </trkpt>
      <trkpt lat="48.275737" lon="24.166125">
        <ele>1720.87</ele>
      </trkpt>
      <trkpt lat="48.27552" lon="24.165459">
        <ele>1723.98</ele>
      </trkpt>
      <trkpt lat="48.275424" lon="24.165259">
        <ele>1725.75</ele>
      </trkpt>
      <trkpt lat="48.275273" lon="24.165017">
        <ele>1728.81</ele>
      </trkpt>
      <trkpt lat="48.27497" lon="24.164572">
        <ele>1734.93</ele>
      </trkpt>
      <trkpt lat="48.274765" lon="24.164078">
        <ele>1740.58</ele>
      </trkpt>
      <trkpt lat="48.2746" lon="24.163524">
        <ele>1749.28</ele>
      </trkpt>
      <trkpt lat="48.274471" lon="24.163043">
        <ele>1754.39</ele>
      </trkpt>
      <trkpt lat="48.274301" lon="24.16272">
        <ele>1756.4</ele>
      </trkpt>
      <trkpt lat="48.274154" lon="24.162619">
        <ele>1757.5</ele>
      </trkpt>
      <trkpt lat="48.273913" lon="24.162291">
        <ele>1758.66</ele>
      </trkpt>
      <trkpt lat="48.273901" lon="24.162276">
        <ele>1758.64</ele>
      </trkpt>
      <trkpt lat="48.273901" lon="24.162276">
        <ele>1758.64</ele>
      </trkpt>
      <trkpt lat="48.273913" lon="24.162291">
        <ele>1758.66</ele>
      </trkpt>
      <trkpt lat="48.274144" lon="24.161988">
        <ele>1750.73</ele>
      </trkpt>
      <trkpt lat="48.274374" lon="24.161685">
        <ele>1740.43</ele>
      </trkpt>
      <trkpt lat="48.275222" lon="24.160946">
        <ele>1709.24</ele>
      </trkpt>
      <trkpt lat="48.275386" lon="24.160838">
        <ele>1703.5</ele>
      </trkpt>
      <trkpt lat="48.27559" lon="24.160648">
        <ele>1697.18</ele>
      </trkpt>
      <trkpt lat="48.275997" lon="24.160269">
        <ele>1689.74</ele>
      </trkpt>
      <trkpt lat="48.276474" lon="24.159569">
        <ele>1681.42</ele>
      </trkpt>
      <trkpt lat="48.276668" lon="24.158996">
        <ele>1672.44</ele>
      </trkpt>
      <trkpt lat="48.276663" lon="24.158335">
        <ele>1661.85</ele>
      </trkpt>
      <trkpt lat="48.27672" lon="24.157845">
        <ele>1653.35</ele>
      </trkpt>
      <trkpt lat="48.27696" lon="24.156742">
        <ele>1638.74</ele>
      </trkpt>
      <trkpt lat="48.277166" lon="24.156063">
        <ele>1633.28</ele>
      </trkpt>
      <trkpt lat="48.27727" lon="24.155724">
        <ele>1632.14</ele>
      </trkpt>
      <trkpt lat="48.277574" lon="24.15488">
        <ele>1637.36</ele>
      </trkpt>
      <trkpt lat="48.277958" lon="24.153816">
        <ele>1649.91</ele>
      </trkpt>
      <trkpt lat="48.278063" lon="24.153459">
        <ele>1652.9</ele>
      </trkpt>
      <trkpt lat="48.278168" lon="24.153102">
        <ele>1653.21</ele>
      </trkpt>
      <trkpt lat="48.278286" lon="24.1527">
        <ele>1650.63</ele>
      </trkpt>
      <trkpt lat="48.278538" lon="24.152">
        <ele>1641.33</ele>
      </trkpt>
      <trkpt lat="48.278831" lon="24.151159">
        <ele>1632.9</ele>
      </trkpt>
      <trkpt lat="48.279144" lon="24.15055">
        <ele>1629.99</ele>
      </trkpt>
      <trkpt lat="48.279456" lon="24.149942">
        <ele>1630.35</ele>
      </trkpt>
      <trkpt lat="48.279644" lon="24.149765">
        <ele>1632.18</ele>
      </trkpt>
      <trkpt lat="48.27993" lon="24.149278">
        <ele>1636.53</ele>
      </trkpt>
      <trkpt lat="48.280323" lon="24.148438">
        <ele>1647.74</ele>
      </trkpt>
      <trkpt lat="48.280495" lon="24.148188">
        <ele>1652.15</ele>
      </trkpt>
      <trkpt lat="48.280695" lon="24.147676">
        <ele>1659.85</ele>
      </trkpt>
      <trkpt lat="48.28092" lon="24.147449">
        <ele>1663.31</ele>
      </trkpt>
      <trkpt lat="48.280987" lon="24.147168">
        <ele>1666.51</ele>
      </trkpt>
      <trkpt lat="48.28109" lon="24.147014">
        <ele>1667.83</ele>
      </trkpt>
      <trkpt lat="48.28109" lon="24.147014">
        <ele>1667.83</ele>
      </trkpt>
      <trkpt lat="48.281178" lon="24.146884">
        <ele>1668.94</ele>
      </trkpt>
      <trkpt lat="48.281422" lon="24.146714">
        <ele>1669.93</ele>
      </trkpt>
      <trkpt lat="48.281732" lon="24.146673">
        <ele>1671.24</ele>
      </trkpt>
      <trkpt lat="48.282042" lon="24.146631">
        <ele>1674.89</ele>
      </trkpt>
      <trkpt lat="48.282405" lon="24.14656">
        <ele>1679.04</ele>
      </trkpt>
      <trkpt lat="48.282847" lon="24.14637">
        <ele>1684.9</ele>
      </trkpt>
      <trkpt lat="48.283142" lon="24.146293">
        <ele>1688.27</ele>
      </trkpt>
      <trkpt lat="48.283436" lon="24.146216">
        <ele>1694.8</ele>
      </trkpt>
      <trkpt lat="48.28373" lon="24.146139">
        <ele>1698.19</ele>
      </trkpt>
      <trkpt lat="48.28387" lon="24.146032">
        <ele>1698.99</ele>
      </trkpt>
      <trkpt lat="48.283945" lon="24.146054">
        <ele>1698.42</ele>
      </trkpt>
      <trkpt lat="48.283945" lon="24.146054">
        <ele>1698.42</ele>
      </trkpt>
      <trkpt lat="48.28387" lon="24.146032">
        <ele>1698.99</ele>
      </trkpt>
      <trkpt lat="48.283826" lon="24.145569">
        <ele>1694.82</ele>
      </trkpt>
      <trkpt lat="48.28376" lon="24.144894">
        <ele>1683.46</ele>
      </trkpt>
      <trkpt lat="48.28362" lon="24.144225">
        <ele>1670.68</ele>
      </trkpt>
      <trkpt lat="48.283417" lon="24.143382">
        <ele>1655.05</ele>
      </trkpt>
      <trkpt lat="48.283085" lon="24.142288">
        <ele>1634.69</ele>
      </trkpt>
      <trkpt lat="48.282864" lon="24.141559">
        <ele>1623.33</ele>
      </trkpt>
      <trkpt lat="48.282592" lon="24.140908">
        <ele>1613.3</ele>
      </trkpt>
      <trkpt lat="48.282456" lon="24.140583">
        <ele>1609.98</ele>
      </trkpt>
      <trkpt lat="48.282369" lon="24.140202">
        <ele>1607.01</ele>
      </trkpt>
      <trkpt lat="48.28226" lon="24.139627">
        <ele>1605.73</ele>
      </trkpt>
      <trkpt lat="48.282109" lon="24.139057">
        <ele>1603.76</ele>
      </trkpt>
      <trkpt lat="48.28198" lon="24.138567">
        <ele>1603</ele>
      </trkpt>
      <trkpt lat="48.28172" lon="24.137839">
        <ele>1602.93</ele>
      </trkpt>
      <trkpt lat="48.281492" lon="24.137336">
        <ele>1602.53</ele>
      </trkpt>
      <trkpt lat="48.281397" lon="24.13656">
        <ele>1604.98</ele>
      </trkpt>
      <trkpt lat="48.28135" lon="24.136172">
        <ele>1608.12</ele>
      </trkpt>
      <trkpt lat="48.281339" lon="24.135627">
        <ele>1611.12</ele>
      </trkpt>
      <trkpt lat="48.281339" lon="24.135627">
        <ele>1611.12</ele>
      </trkpt>
      <trkpt lat="48.281331" lon="24.135273">
        <ele>1613.07</ele>
      </trkpt>
      <trkpt lat="48.281464" lon="24.134425">
        <ele>1617.78</ele>
      </trkpt>
      <trkpt lat="48.281693" lon="24.133225">
        <ele>1618.79</ele>
      </trkpt>
      <trkpt lat="48.281846" lon="24.132425">
        <ele>1623.46</ele>
      </trkpt>
      <trkpt lat="48.282085" lon="24.131067">
        <ele>1630.02</ele>
      </trkpt>
      <trkpt lat="48.282248" lon="24.130437">
        <ele>1630.68</ele>
      </trkpt>
      <trkpt lat="48.282455" lon="24.129666">
        <ele>1629.62</ele>
      </trkpt>
      <trkpt lat="48.282715" lon="24.128702">
        <ele>1631.46</ele>
      </trkpt>
      <trkpt lat="48.28277" lon="24.128238">
        <ele>1632.97</ele>
      </trkpt>
      <trkpt lat="48.28277" lon="24.128238">
        <ele>1632.97</ele>
      </trkpt>
      <trkpt lat="48.282772" lon="24.12765">
        <ele>1634.48</ele>
      </trkpt>
      <trkpt lat="48.282711" lon="24.126898">
        <ele>1635.9</ele>
      </trkpt>
      <trkpt lat="48.282616" lon="24.126077">
        <ele>1638.88</ele>
      </trkpt>
      <trkpt lat="48.28247" lon="24.125395">
        <ele>1642.88</ele>
      </trkpt>
      <trkpt lat="48.28239" lon="24.125022">
        <ele>1647.05</ele>
      </trkpt>
      <trkpt lat="48.282294" lon="24.124597">
        <ele>1653.21</ele>
      </trkpt>
      <trkpt lat="48.282102" lon="24.123747">
        <ele>1672.93</ele>
      </trkpt>
      <trkpt lat="48.281986" lon="24.123074">
        <ele>1683.12</ele>
      </trkpt>
      <trkpt lat="48.281948" lon="24.122771">
        <ele>1685.88</ele>
      </trkpt>
      <trkpt lat="48.28191" lon="24.122467">
        <ele>1686</ele>
      </trkpt>
      <trkpt lat="48.281922" lon="24.122366">
        <ele>1685.4</ele>
      </trkpt>
      <trkpt lat="48.281922" lon="24.122366">
        <ele>1685.4</ele>
      </trkpt>
      <trkpt lat="48.281949" lon="24.122141">
        <ele>1684.07</ele>
      </trkpt>
      <trkpt lat="48.282161" lon="24.121165">
        <ele>1674.51</ele>
      </trkpt>
      <trkpt lat="48.282274" lon="24.120557">
        <ele>1670.96</ele>
      </trkpt>
      <trkpt lat="48.282246" lon="24.120147">
        <ele>1668.79</ele>
      </trkpt>
      <trkpt lat="48.282233" lon="24.119315">
        <ele>1664.37</ele>
      </trkpt>
      <trkpt lat="48.282189" lon="24.118491">
        <ele>1661.14</ele>
      </trkpt>
      <trkpt lat="48.282271" lon="24.117399">
        <ele>1664.09</ele>
      </trkpt>
      <trkpt lat="48.282265" lon="24.116986">
        <ele>1664.43</ele>
      </trkpt>
      <trkpt lat="48.282258" lon="24.116573">
        <ele>1666.34</ele>
      </trkpt>
      <trkpt lat="48.282167" lon="24.115596">
        <ele>1668.11</ele>
      </trkpt>
      <trkpt lat="48.28224" lon="24.115247">
        <ele>1666.57</ele>
      </trkpt>
      <trkpt lat="48.28244" lon="24.114959">
        <ele>1665.98</ele>
      </trkpt>
      <trkpt lat="48.283441" lon="24.113519">
        <ele>1653.56</ele>
      </trkpt>
      <trkpt lat="48.284047" lon="24.112714">
        <ele>1647.11</ele>
      </trkpt>
      <trkpt lat="48.284451" lon="24.112178">
        <ele>1644.54</ele>
      </trkpt>
      <trkpt lat="48.284682" lon="24.111796">
        <ele>1643.12</ele>
      </trkpt>
      <trkpt lat="48.284706" lon="24.111664">
        <ele>1642.02</ele>
      </trkpt>
      <trkpt lat="48.284811" lon="24.110529">
        <ele>1634.96</ele>
      </trkpt>
      <trkpt lat="48.284832" lon="24.109199">
        <ele>1627.22</ele>
      </trkpt>
      <trkpt lat="48.284889" lon="24.108802">
        <ele>1624.11</ele>
      </trkpt>
      <trkpt lat="48.285282" lon="24.108233">
        <ele>1618.68</ele>
      </trkpt>
      <trkpt lat="48.285807" lon="24.107896">
        <ele>1611.91</ele>
      </trkpt>
      <trkpt lat="48.28607" lon="24.107727">
        <ele>1606.65</ele>
      </trkpt>
      <trkpt lat="48.286717" lon="24.107224">
        <ele>1593.16</ele>
      </trkpt>
      <trkpt lat="48.28722" lon="24.106865">
        <ele>1583.58</ele>
      </trkpt>
      <trkpt lat="48.287723" lon="24.106506">
        <ele>1577</ele>
      </trkpt>
      <trkpt lat="48.288241" lon="24.105937">
        <ele>1572.1</ele>
      </trkpt>
      <trkpt lat="48.288637" lon="24.105422">
        <ele>1571.56</ele>
      </trkpt>
      <trkpt lat="48.28898" lon="24.104746">
        <ele>1572.16</ele>
      </trkpt>
      <trkpt lat="48.289297" lon="24.104078">
        <ele>1574.34</ele>
      </trkpt>
      <trkpt lat="48.289799" lon="24.102789">
        <ele>1575.41</ele>
      </trkpt>
      <trkpt lat="48.290033" lon="24.10211">
        <ele>1574.94</ele>
      </trkpt>
      <trkpt lat="48.290284" lon="24.101571">
        <ele>1575</ele>
      </trkpt>
      <trkpt lat="48.290364" lon="24.100972">
        <ele>1574.9</ele>
      </trkpt>
      <trkpt lat="48.290364" lon="24.100972">
        <ele>1574.9</ele>
      </trkpt>
      <trkpt lat="48.290364" lon="24.100972">
        <ele>1574.9</ele>
      </trkpt>
      <trkpt lat="48.290386" lon="24.100807">
        <ele>1574.87</ele>
      </trkpt>
      <trkpt lat="48.290321" lon="24.098769">
        <ele>1574.57</ele>
      </trkpt>
      <trkpt lat="48.290291" lon="24.097561">
        <ele>1573.04</ele>
      </trkpt>
      <trkpt lat="48.290077" lon="24.096283">
        <ele>1567.45</ele>
      </trkpt>
      <trkpt lat="48.289861" lon="24.095321">
        <ele>1563.52</ele>
      </trkpt>
      <trkpt lat="48.289842" lon="24.094757">
        <ele>1562.08</ele>
      </trkpt>
      <trkpt lat="48.289411" lon="24.093974">
        <ele>1556.14</ele>
      </trkpt>
      <trkpt lat="48.28886" lon="24.093147">
        <ele>1550.21</ele>
      </trkpt>
      <trkpt lat="48.28847" lon="24.092432">
        <ele>1552.47</ele>
      </trkpt>
      <trkpt lat="48.288276" lon="24.092074">
        <ele>1556.54</ele>
      </trkpt>
      <trkpt lat="48.288042" lon="24.091693">
        <ele>1560.96</ele>
      </trkpt>
      <trkpt lat="48.287918" lon="24.091209">
        <ele>1564.58</ele>
      </trkpt>
      <trkpt lat="48.287572" lon="24.090172">
        <ele>1576.84</ele>
      </trkpt>
      <trkpt lat="48.287244" lon="24.089518">
        <ele>1585.1</ele>
      </trkpt>
      <trkpt lat="48.28707" lon="24.089262">
        <ele>1588.58</ele>
      </trkpt>
      <trkpt lat="48.286896" lon="24.089006">
        <ele>1590.03</ele>
      </trkpt>
      <trkpt lat="48.286836" lon="24.088974">
        <ele>1590.74</ele>
      </trkpt>
      <trkpt lat="48.286836" lon="24.088973">
        <ele>1590.74</ele>
      </trkpt>
      <trkpt lat="48.286448" lon="24.088767">
        <ele>1593.14</ele>
      </trkpt>
      <trkpt lat="48.286" lon="24.088529">
        <ele>1591.35</ele>
      </trkpt>
      <trkpt lat="48.285572" lon="24.08849">
        <ele>1592.41</ele>
      </trkpt>
      <trkpt lat="48.284938" lon="24.088357">
        <ele>1594.39</ele>
      </trkpt>
      <trkpt lat="48.284423" lon="24.088008">
        <ele>1596.75</ele>
      </trkpt>
      <trkpt lat="48.283499" lon="24.087062">
        <ele>1604.54</ele>
      </trkpt>
      <trkpt lat="48.283002" lon="24.086822">
        <ele>1609.93</ele>
      </trkpt>
      <trkpt lat="48.282233" lon="24.086796">
        <ele>1615.2</ele>
      </trkpt>
      <trkpt lat="48.281905" lon="24.086717">
        <ele>1616.62</ele>
      </trkpt>
      <trkpt lat="48.281578" lon="24.086639">
        <ele>1615.01</ele>
      </trkpt>
      <trkpt lat="48.281445" lon="24.086506">
        <ele>1614.42</ele>
      </trkpt>
      <trkpt lat="48.280952" lon="24.086089">
        <ele>1610.55</ele>
      </trkpt>
      <trkpt lat="48.280459" lon="24.085672">
        <ele>1612.52</ele>
      </trkpt>
      <trkpt lat="48.280212" lon="24.085463">
        <ele>1611.83</ele>
      </trkpt>
      <trkpt lat="48.28006" lon="24.085279">
        <ele>1607.13</ele>
      </trkpt>
      <trkpt lat="48.279801" lon="24.083995">
        <ele>1597.26</ele>
      </trkpt>
      <trkpt lat="48.279715" lon="24.083567">
        <ele>1598.67</ele>
      </trkpt>
      <trkpt lat="48.279365" lon="24.082663">
        <ele>1605.38</ele>
      </trkpt>
      <trkpt lat="48.279167" lon="24.082474">
        <ele>1606.74</ele>
      </trkpt>
      <trkpt lat="48.278969" lon="24.082285">
        <ele>1605.52</ele>
      </trkpt>
      <trkpt lat="48.278857" lon="24.082">
        <ele>1600.91</ele>
      </trkpt>
      <trkpt lat="48.278634" lon="24.080941">
        <ele>1588.67</ele>
      </trkpt>
      <trkpt lat="48.278545" lon="24.080258">
        <ele>1580.75</ele>
      </trkpt>
      <trkpt lat="48.2785" lon="24.079916">
        <ele>1578.7</ele>
      </trkpt>
      <trkpt lat="48.278489" lon="24.079529">
        <ele>1577.77</ele>
      </trkpt>
      <trkpt lat="48.278405" lon="24.07866">
        <ele>1576.9</ele>
      </trkpt>
      <trkpt lat="48.2785" lon="24.078231">
        <ele>1575.9</ele>
      </trkpt>
      <trkpt lat="48.278467" lon="24.077395">
        <ele>1574</ele>
      </trkpt>
      <trkpt lat="48.278418" lon="24.07614">
        <ele>1576.22</ele>
      </trkpt>
      <trkpt lat="48.278279" lon="24.075768">
        <ele>1574.59</ele>
      </trkpt>
      <trkpt lat="48.277862" lon="24.074653">
        <ele>1564.04</ele>
      </trkpt>
      <trkpt lat="48.277662" lon="24.074322">
        <ele>1563.38</ele>
      </trkpt>
      <trkpt lat="48.277463" lon="24.073992">
        <ele>1565.78</ele>
      </trkpt>
      <trkpt lat="48.277273" lon="24.073673">
        <ele>1570.74</ele>
      </trkpt>
      <trkpt lat="48.276703" lon="24.072715">
        <ele>1592.98</ele>
      </trkpt>
      <trkpt lat="48.276432" lon="24.072322">
        <ele>1600.55</ele>
      </trkpt>
      <trkpt lat="48.276193" lon="24.072084">
        <ele>1603.83</ele>
      </trkpt>
      <trkpt lat="48.275985" lon="24.071957">
        <ele>1603.84</ele>
      </trkpt>
      <trkpt lat="48.275749" lon="24.071898">
        <ele>1604.03</ele>
      </trkpt>
      <trkpt lat="48.275626" lon="24.071832">
        <ele>1604.5</ele>
      </trkpt>
      <trkpt lat="48.275235" lon="24.071512">
        <ele>1605.48</ele>
      </trkpt>
      <trkpt lat="48.274576" lon="24.070755">
        <ele>1604.75</ele>
      </trkpt>
      <trkpt lat="48.274323" lon="24.070557">
        <ele>1603.78</ele>
      </trkpt>
      <trkpt lat="48.274017" lon="24.070097">
        <ele>1603.9</ele>
      </trkpt>
      <trkpt lat="48.273781" lon="24.069731">
        <ele>1605.4</ele>
      </trkpt>
      <trkpt lat="48.273244" lon="24.068878">
        <ele>1613.35</ele>
      </trkpt>
      <trkpt lat="48.273064" lon="24.068593">
        <ele>1613.93</ele>
      </trkpt>
      <trkpt lat="48.272331" lon="24.067882">
        <ele>1611.34</ele>
      </trkpt>
      <trkpt lat="48.272055" lon="24.067528">
        <ele>1611.8</ele>
      </trkpt>
      <trkpt lat="48.271584" lon="24.066992">
        <ele>1614.95</ele>
      </trkpt>
      <trkpt lat="48.271343" lon="24.066766">
        <ele>1616.63</ele>
      </trkpt>
      <trkpt lat="48.270881" lon="24.066295">
        <ele>1618.02</ele>
      </trkpt>
      <trkpt lat="48.270881" lon="24.066295">
        <ele>1618.02</ele>
      </trkpt>
      <trkpt lat="48.270827" lon="24.066241">
        <ele>1618.19</ele>
      </trkpt>
      <trkpt lat="48.270698" lon="24.065704">
        <ele>1610.22</ele>
      </trkpt>
      <trkpt lat="48.270684" lon="24.064985">
        <ele>1595.61</ele>
      </trkpt>
      <trkpt lat="48.270705" lon="24.064288">
        <ele>1580.6</ele>
      </trkpt>
      <trkpt lat="48.270699" lon="24.064018">
        <ele>1575.82</ele>
      </trkpt>
      <trkpt lat="48.270762" lon="24.063741">
        <ele>1570.98</ele>
      </trkpt>
      <trkpt lat="48.270963" lon="24.063279">
        <ele>1565.96</ele>
      </trkpt>
      <trkpt lat="48.27114" lon="24.062784">
        <ele>1564</ele>
      </trkpt>
      <trkpt lat="48.271293" lon="24.061684">
        <ele>1563.66</ele>
      </trkpt>
      <trkpt lat="48.271382" lon="24.061366">
        <ele>1561.82</ele>
      </trkpt>
      <trkpt lat="48.27168" lon="24.060774">
        <ele>1554.65</ele>
      </trkpt>
      <trkpt lat="48.271878" lon="24.060693">
        <ele>1551.64</ele>
      </trkpt>
      <trkpt lat="48.272293" lon="24.060053">
        <ele>1540.49</ele>
      </trkpt>
      <trkpt lat="48.272461" lon="24.059724">
        <ele>1536.98</ele>
      </trkpt>
      <trkpt lat="48.272629" lon="24.059395">
        <ele>1535.72</ele>
      </trkpt>
      <trkpt lat="48.272864" lon="24.05868">
        <ele>1537.41</ele>
      </trkpt>
      <trkpt lat="48.272973" lon="24.05821">
        <ele>1539.94</ele>
      </trkpt>
      <trkpt lat="48.272979" lon="24.057693">
        <ele>1539.91</ele>
      </trkpt>
      <trkpt lat="48.272921" lon="24.05692">
        <ele>1537.27</ele>
      </trkpt>
      <trkpt lat="48.272807" lon="24.056105">
        <ele>1535</ele>
      </trkpt>
      <trkpt lat="48.272607" lon="24.055333">
        <ele>1539.11</ele>
      </trkpt>
      <trkpt lat="48.272522" lon="24.054217">
        <ele>1544.49</ele>
      </trkpt>
      <trkpt lat="48.272633" lon="24.053641">
        <ele>1549</ele>
      </trkpt>
      <trkpt lat="48.272807" lon="24.053187">
        <ele>1548.73</ele>
      </trkpt>
      <trkpt lat="48.273109" lon="24.052504">
        <ele>1546.03</ele>
      </trkpt>
      <trkpt lat="48.27318" lon="24.051891">
        <ele>1542.65</ele>
      </trkpt>
      <trkpt lat="48.273436" lon="24.050869">
        <ele>1538</ele>
      </trkpt>
      <trkpt lat="48.273471" lon="24.050476">
        <ele>1537.96</ele>
      </trkpt>
      <trkpt lat="48.273521" lon="24.049925">
        <ele>1539.34</ele>
      </trkpt>
      <trkpt lat="48.273664" lon="24.048809">
        <ele>1551.82</ele>
      </trkpt>
      <trkpt lat="48.273707" lon="24.047986">
        <ele>1559.81</ele>
      </trkpt>
      <trkpt lat="48.273607" lon="24.047265">
        <ele>1564.1</ele>
      </trkpt>
      <trkpt lat="48.273593" lon="24.046571">
        <ele>1568.2</ele>
      </trkpt>
      <trkpt lat="48.273586" lon="24.046225">
        <ele>1572.46</ele>
      </trkpt>
      <trkpt lat="48.273545" lon="24.045818">
        <ele>1579.18</ele>
      </trkpt>
      <trkpt lat="48.273465" lon="24.045004">
        <ele>1597.1</ele>
      </trkpt>
      <trkpt lat="48.273365" lon="24.044586">
        <ele>1607.58</ele>
      </trkpt>
      <trkpt lat="48.273266" lon="24.044169">
        <ele>1615.72</ele>
      </trkpt>
      <trkpt lat="48.273121" lon="24.043535">
        <ele>1624.8</ele>
      </trkpt>
      <trkpt lat="48.273002" lon="24.043249">
        <ele>1628.48</ele>
      </trkpt>
      <trkpt lat="48.272763" lon="24.042677">
        <ele>1630.88</ele>
      </trkpt>
      <trkpt lat="48.272717" lon="24.042035">
        <ele>1630.48</ele>
      </trkpt>
      <trkpt lat="48.272702" lon="24.041953">
        <ele>1629.97</ele>
      </trkpt>
      <trkpt lat="48.272702" lon="24.041953">
        <ele>1629.97</ele>
      </trkpt>
      <trkpt lat="48.27252" lon="24.041003">
        <ele>1623.98</ele>
      </trkpt>
      <trkpt lat="48.272318" lon="24.040496">
        <ele>1616.51</ele>
      </trkpt>
      <trkpt lat="48.271084" lon="24.039141">
        <ele>1575.29</ele>
      </trkpt>
      <trkpt lat="48.270468" lon="24.038463">
        <ele>1559.55</ele>
      </trkpt>
      <trkpt lat="48.269842" lon="24.037308">
        <ele>1547.34</ele>
      </trkpt>
      <trkpt lat="48.26948" lon="24.036733">
        <ele>1541.19</ele>
      </trkpt>
      <trkpt lat="48.269239" lon="24.036547">
        <ele>1538.61</ele>
      </trkpt>
      <trkpt lat="48.268998" lon="24.036362">
        <ele>1532.95</ele>
      </trkpt>
      <trkpt lat="48.268715" lon="24.035967">
        <ele>1522.72</ele>
      </trkpt>
      <trkpt lat="48.268349" lon="24.035616">
        <ele>1514.42</ele>
      </trkpt>
      <trkpt lat="48.267865" lon="24.034783">
        <ele>1495.72</ele>
      </trkpt>
      <trkpt lat="48.267107" lon="24.03373">
        <ele>1483.26</ele>
      </trkpt>
      <trkpt lat="48.266624" lon="24.033344">
        <ele>1475.07</ele>
      </trkpt>
      <trkpt lat="48.266382" lon="24.03315">
        <ele>1472.58</ele>
      </trkpt>
      <trkpt lat="48.26614" lon="24.032957">
        <ele>1472.64</ele>
      </trkpt>
      <trkpt lat="48.265614" lon="24.032537">
        <ele>1481.52</ele>
      </trkpt>
      <trkpt lat="48.265293" lon="24.031734">
        <ele>1485.43</ele>
      </trkpt>
      <trkpt lat="48.26468" lon="24.030337">
        <ele>1497.27</ele>
      </trkpt>
      <trkpt lat="48.264466" lon="24.030072">
        <ele>1499.47</ele>
      </trkpt>
      <trkpt lat="48.264302" lon="24.029774">
        <ele>1498.95</ele>
      </trkpt>
      <trkpt lat="48.263808" lon="24.02888">
        <ele>1490.65</ele>
      </trkpt>
      <trkpt lat="48.263644" lon="24.028582">
        <ele>1489.83</ele>
      </trkpt>
      <trkpt lat="48.263426" lon="24.028407">
        <ele>1490.52</ele>
      </trkpt>
      <trkpt lat="48.262771" lon="24.027881">
        <ele>1498.32</ele>
      </trkpt>
      <trkpt lat="48.262553" lon="24.027705">
        <ele>1498</ele>
      </trkpt>
      <trkpt lat="48.262119" lon="24.026989">
        <ele>1491.88</ele>
      </trkpt>
      <trkpt lat="48.261964" lon="24.026706">
        <ele>1488.09</ele>
      </trkpt>
      <trkpt lat="48.2615" lon="24.025857">
        <ele>1471.51</ele>
      </trkpt>
      <trkpt lat="48.261345" lon="24.025574">
        <ele>1467.51</ele>
      </trkpt>
      <trkpt lat="48.261164" lon="24.025268">
        <ele>1464.99</ele>
      </trkpt>
      <trkpt lat="48.260982" lon="24.024962">
        <ele>1466.01</ele>
      </trkpt>
      <trkpt lat="48.260513" lon="24.024657">
        <ele>1471.15</ele>
      </trkpt>
      <trkpt lat="48.2601" lon="24.024664">
        <ele>1468.49</ele>
      </trkpt>
      <trkpt lat="48.259808" lon="24.024832">
        <ele>1464.03</ele>
      </trkpt>
      <trkpt lat="48.259258" lon="24.025271">
        <ele>1452.86</ele>
      </trkpt>
      <trkpt lat="48.258942" lon="24.025605">
        <ele>1446.33</ele>
      </trkpt>
      <trkpt lat="48.258447" lon="24.025938">
        <ele>1440.98</ele>
      </trkpt>
      <trkpt lat="48.257855" lon="24.025954">
        <ele>1436.64</ele>
      </trkpt>
      <trkpt lat="48.257326" lon="24.026107">
        <ele>1429.12</ele>
      </trkpt>
      <trkpt lat="48.257127" lon="24.026371">
        <ele>1424.57</ele>
      </trkpt>
      <trkpt lat="48.256928" lon="24.026636">
        <ele>1417.39</ele>
      </trkpt>
      <trkpt lat="48.256446" lon="24.026942">
        <ele>1399.78</ele>
      </trkpt>
      <trkpt lat="48.255905" lon="24.027165">
        <ele>1379.6</ele>
      </trkpt>
      <trkpt lat="48.254824" lon="24.02761">
        <ele>1348.5</ele>
      </trkpt>
      <trkpt lat="48.254187" lon="24.027912">
        <ele>1331.71</ele>
      </trkpt>
      <trkpt lat="48.253943" lon="24.028028">
        <ele>1327.05</ele>
      </trkpt>
      <trkpt lat="48.25341" lon="24.028064">
        <ele>1319.01</ele>
      </trkpt>
      <trkpt lat="48.25341" lon="24.028064">
        <ele>1319</ele>
      </trkpt>
      <trkpt lat="48.253118" lon="24.028083">
        <ele>1314.32</ele>
      </trkpt>
      <trkpt lat="48.252729" lon="24.027958">
        <ele>1304.06</ele>
      </trkpt>
      <trkpt lat="48.252527" lon="24.027769">
        <ele>1297.41</ele>
      </trkpt>
      <trkpt lat="48.251719" lon="24.027012">
        <ele>1265.41</ele>
      </trkpt>
      <trkpt lat="48.25162" lon="24.026824">
        <ele>1261.71</ele>
      </trkpt>
      <trkpt lat="48.251633" lon="24.026666">
        <ele>1261.13</ele>
      </trkpt>
      <trkpt lat="48.25199" lon="24.025968">
        <ele>1255.09</ele>
      </trkpt>
      <trkpt lat="48.252226" lon="24.025598">
        <ele>1251.68</ele>
      </trkpt>
      <trkpt lat="48.252449" lon="24.025396">
        <ele>1252.55</ele>
      </trkpt>
      <trkpt lat="48.252598" lon="24.0252">
        <ele>1254.66</ele>
      </trkpt>
      <trkpt lat="48.252593" lon="24.024844">
        <ele>1252.03</ele>
      </trkpt>
      <trkpt lat="48.252584" lon="24.024131">
        <ele>1242.52</ele>
      </trkpt>
      <trkpt lat="48.252467" lon="24.023701">
        <ele>1235.66</ele>
      </trkpt>
      <trkpt lat="48.25235" lon="24.023272">
        <ele>1236.72</ele>
      </trkpt>
      <trkpt lat="48.252233" lon="24.022842">
        <ele>1242.73</ele>
      </trkpt>
      <trkpt lat="48.252201" lon="24.022352">
        <ele>1245.92</ele>
      </trkpt>
      <trkpt lat="48.25217" lon="24.021863">
        <ele>1241.09</ele>
      </trkpt>
      <trkpt lat="48.252069" lon="24.021519">
        <ele>1237.79</ele>
      </trkpt>
      <trkpt lat="48.251969" lon="24.021175">
        <ele>1232.29</ele>
      </trkpt>
      <trkpt lat="48.251811" lon="24.020857">
        <ele>1225.28</ele>
      </trkpt>
      <trkpt lat="48.251497" lon="24.020222">
        <ele>1205.84</ele>
      </trkpt>
      <trkpt lat="48.25134" lon="24.019904">
        <ele>1197.99</ele>
      </trkpt>
      <trkpt lat="48.251245" lon="24.019986">
        <ele>1196.9</ele>
      </trkpt>
      <trkpt lat="48.25121" lon="24.020663">
        <ele>1193.75</ele>
      </trkpt>
      <trkpt lat="48.251085" lon="24.020641">
        <ele>1186.44</ele>
      </trkpt>
      <trkpt lat="48.250791" lon="24.020343">
        <ele>1174.63</ele>
      </trkpt>
      <trkpt lat="48.250453" lon="24.01999">
        <ele>1163.64</ele>
      </trkpt>
      <trkpt lat="48.250255" lon="24.019649">
        <ele>1157.28</ele>
      </trkpt>
      <trkpt lat="48.250058" lon="24.019307">
        <ele>1147.27</ele>
      </trkpt>
      <trkpt lat="48.249769" lon="24.018656">
        <ele>1133.83</ele>
      </trkpt>
      <trkpt lat="48.249547" lon="24.01852">
        <ele>1128.62</ele>
      </trkpt>
      <trkpt lat="48.249326" lon="24.018384">
        <ele>1125.91</ele>
      </trkpt>
      <trkpt lat="48.24876" lon="24.018269">
        <ele>1120.23</ele>
      </trkpt>
      <trkpt lat="48.248482" lon="24.018346">
        <ele>1113.98</ele>
      </trkpt>
      <trkpt lat="48.248204" lon="24.018423">
        <ele>1105.47</ele>
      </trkpt>
      <trkpt lat="48.247931" lon="24.018382">
        <ele>1098.16</ele>
      </trkpt>
      <trkpt lat="48.247931" lon="24.018382">
        <ele>1098.17</ele>
      </trkpt>
      <trkpt lat="48.247803" lon="24.018362">
        <ele>1094.73</ele>
      </trkpt>
      <trkpt lat="48.2478" lon="24.017654">
        <ele>1090.06</ele>
      </trkpt>
      <trkpt lat="48.247719" lon="24.017066">
        <ele>1078.38</ele>
      </trkpt>
      <trkpt lat="48.247569" lon="24.016393">
        <ele>1068.61</ele>
      </trkpt>
      <trkpt lat="48.247273" lon="24.015611">
        <ele>1059.94</ele>
      </trkpt>
      <trkpt lat="48.247013" lon="24.014969">
        <ele>1053.1</ele>
      </trkpt>
      <trkpt lat="48.246753" lon="24.014326">
        <ele>1041.1</ele>
      </trkpt>
      <trkpt lat="48.246696" lon="24.014035">
        <ele>1038.4</ele>
      </trkpt>
      <trkpt lat="48.246639" lon="24.013744">
        <ele>1037.77</ele>
      </trkpt>
      <trkpt lat="48.246377" lon="24.013196">
        <ele>1043.28</ele>
      </trkpt>
      <trkpt lat="48.246281" lon="24.012655">
        <ele>1052.78</ele>
      </trkpt>
      <trkpt lat="48.246281" lon="24.012038">
        <ele>1059</ele>
      </trkpt>
      <trkpt lat="48.246224" lon="24.011525">
        <ele>1059.5</ele>
      </trkpt>
      <trkpt lat="48.246035" lon="24.010864">
        <ele>1055.35</ele>
      </trkpt>
      <trkpt lat="48.246016" lon="24.010447">
        <ele>1052.81</ele>
      </trkpt>
      <trkpt lat="48.245957" lon="24.009198">
        <ele>1032.87</ele>
      </trkpt>
      <trkpt lat="48.245586" lon="24.007527">
        <ele>1024.1</ele>
      </trkpt>
      <trkpt lat="48.245524" lon="24.006725">
        <ele>1021.18</ele>
      </trkpt>
      <trkpt lat="48.245612" lon="24.006134">
        <ele>1016.24</ele>
      </trkpt>
      <trkpt lat="48.245699" lon="24.005607">
        <ele>1011.46</ele>
      </trkpt>
      <trkpt lat="48.245766" lon="24.004878">
        <ele>1009.31</ele>
      </trkpt>
      <trkpt lat="48.245899" lon="24.004528">
        <ele>1005.39</ele>
      </trkpt>
      <trkpt lat="48.246032" lon="24.004178">
        <ele>1006.09</ele>
      </trkpt>
      <trkpt lat="48.246116" lon="24.00369">
        <ele>1009.06</ele>
      </trkpt>
      <trkpt lat="48.2462" lon="24.003202">
        <ele>1007.19</ele>
      </trkpt>
      <trkpt lat="48.246249" lon="24.002511">
        <ele>1000.89</ele>
      </trkpt>
      <trkpt lat="48.246146" lon="24.002207">
        <ele>998.44</ele>
      </trkpt>
      <trkpt lat="48.245941" lon="24.001597">
        <ele>997</ele>
      </trkpt>
      <trkpt lat="48.245767" lon="24.001168">
        <ele>992.98</ele>
      </trkpt>
      <trkpt lat="48.245638" lon="24.000828">
        <ele>988.76</ele>
      </trkpt>
      <trkpt lat="48.245522" lon="24.000524">
        <ele>982.63</ele>
      </trkpt>
      <trkpt lat="48.245522" lon="24.000524">
        <ele>982.63</ele>
      </trkpt>
      <trkpt lat="48.245379" lon="24.00015">
        <ele>975.09</ele>
      </trkpt>
      <trkpt lat="48.245075" lon="23.99953">
        <ele>958.62</ele>
      </trkpt>
      <trkpt lat="48.244709" lon="23.999154">
        <ele>941.47</ele>
      </trkpt>
      <trkpt lat="48.244462" lon="23.999084">
        <ele>930.94</ele>
      </trkpt>
      <trkpt lat="48.244215" lon="23.999014">
        <ele>923.72</ele>
      </trkpt>
      <trkpt lat="48.243967" lon="23.998944">
        <ele>920.42</ele>
      </trkpt>
      <trkpt lat="48.24371" lon="23.998514">
        <ele>919.74</ele>
      </trkpt>
      <trkpt lat="48.243438" lon="23.998283">
        <ele>919.73</ele>
      </trkpt>
      <trkpt lat="48.243123" lon="23.997808">
        <ele>920.72</ele>
      </trkpt>
      <trkpt lat="48.242917" lon="23.997676">
        <ele>917.83</ele>
      </trkpt>
      <trkpt lat="48.242909" lon="23.99804">
        <ele>915.69</ele>
      </trkpt>
      <trkpt lat="48.242958" lon="23.998437">
        <ele>913.25</ele>
      </trkpt>
      <trkpt lat="48.243056" lon="23.999231">
        <ele>905.34</ele>
      </trkpt>
      <trkpt lat="48.242902" lon="23.999705">
        <ele>891.41</ele>
      </trkpt>
      <trkpt lat="48.242946" lon="23.99997">
        <ele>888.33</ele>
      </trkpt>
      <trkpt lat="48.242652" lon="23.999728">
        <ele>884.33</ele>
      </trkpt>
      <trkpt lat="48.24241" lon="23.999397">
        <ele>879.98</ele>
      </trkpt>
      <trkpt lat="48.241418" lon="23.998029">
        <ele>853.6</ele>
      </trkpt>
      <trkpt lat="48.241066" lon="23.997376">
        <ele>845.35</ele>
      </trkpt>
      <trkpt lat="48.240537" lon="23.996396">
        <ele>824.33</ele>
      </trkpt>
      <trkpt lat="48.240507" lon="23.995856">
        <ele>822.03</ele>
      </trkpt>
      <trkpt lat="48.240522" lon="23.995091">
        <ele>818.07</ele>
      </trkpt>
      <trkpt lat="48.240529" lon="23.994709">
        <ele>813.73</ele>
      </trkpt>
      <trkpt lat="48.240471" lon="23.994275">
        <ele>802.87</ele>
      </trkpt>
      <trkpt lat="48.240412" lon="23.993841">
        <ele>789.77</ele>
      </trkpt>
      <trkpt lat="48.240353" lon="23.993407">
        <ele>781.88</ele>
      </trkpt>
      <trkpt lat="48.240309" lon="23.992955">
        <ele>776.46</ele>
      </trkpt>
      <trkpt lat="48.240169" lon="23.992436">
        <ele>767.08</ele>
      </trkpt>
      <trkpt lat="48.239831" lon="23.991957">
        <ele>745.67</ele>
      </trkpt>
      <trkpt lat="48.239493" lon="23.991477">
        <ele>731.98</ele>
      </trkpt>
      <trkpt lat="48.239372" lon="23.991151">
        <ele>728.92</ele>
      </trkpt>
      <trkpt lat="48.239009" lon="23.990175">
        <ele>706.7</ele>
      </trkpt>
      <trkpt lat="48.238722" lon="23.989004">
        <ele>678.35</ele>
      </trkpt>
      <trkpt lat="48.238531" lon="23.988223">
        <ele>657.63</ele>
      </trkpt>
      <trkpt lat="48.238134" lon="23.987726">
        <ele>641.41</ele>
      </trkpt>
      <trkpt lat="48.237712" lon="23.987103">
        <ele>626.79</ele>
      </trkpt>
      <trkpt lat="48.237655" lon="23.986824">
        <ele>620.83</ele>
      </trkpt>
      <trkpt lat="48.237469" lon="23.986526">
        <ele>612.87</ele>
      </trkpt>
      <trkpt lat="48.237249" lon="23.986432">
        <ele>606.84</ele>
      </trkpt>
      <trkpt lat="48.236808" lon="23.986244">
        <ele>590.02</ele>
      </trkpt>
      <trkpt lat="48.236551" lon="23.986061">
        <ele>581.4</ele>
      </trkpt>
      <trkpt lat="48.236371" lon="23.9858">
        <ele>576.66</ele>
      </trkpt>
      <trkpt lat="48.236265" lon="23.985413">
        <ele>574.56</ele>
      </trkpt>
      <trkpt lat="48.236193" lon="23.985343">
        <ele>573.34</ele>
      </trkpt>
      <trkpt lat="48.236143" lon="23.985407">
        <ele>572.46</ele>
      </trkpt>
      <trkpt lat="48.236169" lon="23.985671">
        <ele>573.68</ele>
      </trkpt>
      <trkpt lat="48.236147" lon="23.985829">
        <ele>572.62</ele>
      </trkpt>
      <trkpt lat="48.236058" lon="23.985901">
        <ele>570.75</ele>
      </trkpt>
      <trkpt lat="48.235948" lon="23.985828">
        <ele>570.14</ele>
      </trkpt>
      <trkpt lat="48.235816" lon="23.985546">
        <ele>570.02</ele>
      </trkpt>
      <trkpt lat="48.235614" lon="23.984859">
        <ele>561.02</ele>
      </trkpt>
      <trkpt lat="48.235175" lon="23.984077">
        <ele>560.34</ele>
      </trkpt>
      <trkpt lat="48.235106" lon="23.983823">
        <ele>559.92</ele>
      </trkpt>
      <trkpt lat="48.235106" lon="23.983823">
        <ele>559.92</ele>
      </trkpt>
      <trkpt lat="48.235055" lon="23.983634">
        <ele>559.61</ele>
      </trkpt>
      <trkpt lat="48.235218" lon="23.982608">
        <ele>560.09</ele>
      </trkpt>
      <trkpt lat="48.235497" lon="23.98137">
        <ele>561.24</ele>
      </trkpt>
      <trkpt lat="48.235532" lon="23.980955">
        <ele>564</ele>
      </trkpt>
      <trkpt lat="48.235513" lon="23.980499">
        <ele>564.09</ele>
      </trkpt>
      <trkpt lat="48.235493" lon="23.980043">
        <ele>561.54</ele>
      </trkpt>
      <trkpt lat="48.235356" lon="23.979669">
        <ele>548.13</ele>
      </trkpt>
      <trkpt lat="48.235193" lon="23.979395">
        <ele>542.18</ele>
      </trkpt>
      <trkpt lat="48.235082" lon="23.979131">
        <ele>545.57</ele>
      </trkpt>
      <trkpt lat="48.235049" lon="23.978869">
        <ele>551.21</ele>
      </trkpt>
      <trkpt lat="48.235043" lon="23.978292">
        <ele>551.04</ele>
      </trkpt>
      <trkpt lat="48.235013" lon="23.977919">
        <ele>554.85</ele>
      </trkpt>
      <trkpt lat="48.234983" lon="23.977545">
        <ele>551.67</ele>
      </trkpt>
      <trkpt lat="48.234946" lon="23.976828">
        <ele>541.49</ele>
      </trkpt>
      <trkpt lat="48.234971" lon="23.976122">
        <ele>529.93</ele>
      </trkpt>
      <trkpt lat="48.235074" lon="23.97546">
        <ele>524.61</ele>
      </trkpt>
      <trkpt lat="48.235125" lon="23.975129">
        <ele>524.35</ele>
      </trkpt>
      <trkpt lat="48.235108" lon="23.974808">
        <ele>524.67</ele>
      </trkpt>
      <trkpt lat="48.235018" lon="23.974198">
        <ele>526.7</ele>
      </trkpt>
      <trkpt lat="48.234989" lon="23.973702">
        <ele>527.3</ele>
      </trkpt>
      <trkpt lat="48.235034" lon="23.973188">
        <ele>527.26</ele>
      </trkpt>
      <trkpt lat="48.235171" lon="23.97265">
        <ele>528.56</ele>
      </trkpt>
      <trkpt lat="48.235201" lon="23.972234">
        <ele>519.07</ele>
      </trkpt>
      <trkpt lat="48.235231" lon="23.971818">
        <ele>513.96</ele>
      </trkpt>
      <trkpt lat="48.235262" lon="23.971401">
        <ele>512.26</ele>
      </trkpt>
      <trkpt lat="48.235519" lon="23.970795">
        <ele>519.92</ele>
      </trkpt>
      <trkpt lat="48.235622" lon="23.970276">
        <ele>523.9</ele>
      </trkpt>
      <trkpt lat="48.235621" lon="23.969735">
        <ele>517.98</ele>
      </trkpt>
      <trkpt lat="48.235572" lon="23.969341">
        <ele>512.26</ele>
      </trkpt>
      <trkpt lat="48.235408" lon="23.968901">
        <ele>504.66</ele>
      </trkpt>
      <trkpt lat="48.235429" lon="23.968632">
        <ele>503.57</ele>
      </trkpt>
      <trkpt lat="48.235743" lon="23.967603">
        <ele>502.87</ele>
      </trkpt>
      <trkpt lat="48.235755" lon="23.967429">
        <ele>503.57</ele>
      </trkpt>
      <trkpt lat="48.235607" lon="23.966835">
        <ele>505.44</ele>
      </trkpt>
      <trkpt lat="48.235593" lon="23.966525">
        <ele>504.07</ele>
      </trkpt>
      <trkpt lat="48.235711" lon="23.966127">
        <ele>504.24</ele>
      </trkpt>
      <trkpt lat="48.236178" lon="23.965166">
        <ele>495.8</ele>
      </trkpt>
      <trkpt lat="48.236249" lon="23.964725">
        <ele>493.23</ele>
      </trkpt>
      <trkpt lat="48.236218" lon="23.96425">
        <ele>490.54</ele>
      </trkpt>
      <trkpt lat="48.236141" lon="23.963502">
        <ele>486.18</ele>
      </trkpt>
      <trkpt lat="48.236063" lon="23.962753">
        <ele>485.12</ele>
      </trkpt>
      <trkpt lat="48.235754" lon="23.961088">
        <ele>479.23</ele>
      </trkpt>
      <trkpt lat="48.235611" lon="23.959744">
        <ele>478.39</ele>
      </trkpt>
      <trkpt lat="48.235607" lon="23.959279">
        <ele>480.64</ele>
      </trkpt>
      <trkpt lat="48.235668" lon="23.958945">
        <ele>484.31</ele>
      </trkpt>
      <trkpt lat="48.235824" lon="23.958645">
        <ele>485.59</ele>
      </trkpt>
      <trkpt lat="48.236136" lon="23.958045">
        <ele>476.09</ele>
      </trkpt>
      <trkpt lat="48.236292" lon="23.957745">
        <ele>474.16</ele>
      </trkpt>
      <trkpt lat="48.23656" lon="23.956794">
        <ele>468.9</ele>
      </trkpt>
      <trkpt lat="48.236757" lon="23.956029">
        <ele>465.79</ele>
      </trkpt>
      <trkpt lat="48.236757" lon="23.956029">
        <ele>465.8</ele>
      </trkpt>
      <trkpt lat="48.236766" lon="23.955993">
        <ele>465.65</ele>
      </trkpt>
      <trkpt lat="48.236812" lon="23.955587">
        <ele>464.79</ele>
      </trkpt>
      <trkpt lat="48.236766" lon="23.955326">
        <ele>463.55</ele>
      </trkpt>
      <trkpt lat="48.236666" lon="23.955094">
        <ele>462.33</ele>
      </trkpt>
      <trkpt lat="48.236371" lon="23.954738">
        <ele>466.51</ele>
      </trkpt>
      <trkpt lat="48.236258" lon="23.954433">
        <ele>465.27</ele>
      </trkpt>
      <trkpt lat="48.23619" lon="23.954165">
        <ele>463.81</ele>
      </trkpt>
      <trkpt lat="48.236134" lon="23.953657">
        <ele>461.93</ele>
      </trkpt>
      <trkpt lat="48.236006" lon="23.95247">
        <ele>462.14</ele>
      </trkpt>
      <trkpt lat="48.235964" lon="23.952074">
        <ele>459.61</ele>
      </trkpt>
      <trkpt lat="48.235815" lon="23.951429">
        <ele>456.29</ele>
      </trkpt>
      <trkpt lat="48.235689" lon="23.951047">
        <ele>455.91</ele>
      </trkpt>
      <trkpt lat="48.235564" lon="23.950665">
        <ele>452.14</ele>
      </trkpt>
      <trkpt lat="48.235295" lon="23.950101">
        <ele>448.94</ele>
      </trkpt>
      <trkpt lat="48.235055" lon="23.949868">
        <ele>447.81</ele>
      </trkpt>
      <trkpt lat="48.234781" lon="23.94978">
        <ele>450.17</ele>
      </trkpt>
      <trkpt lat="48.234232" lon="23.949603">
        <ele>444.63</ele>
      </trkpt>
      <trkpt lat="48.233957" lon="23.949514">
        <ele>447.23</ele>
      </trkpt>
      <trkpt lat="48.233643" lon="23.949434">
        <ele>451.19</ele>
      </trkpt>
      <trkpt lat="48.233329" lon="23.949353">
        <ele>450.77</ele>
      </trkpt>
      <trkpt lat="48.233104" lon="23.949235">
        <ele>448.98</ele>
      </trkpt>
      <trkpt lat="48.232878" lon="23.949116">
        <ele>453.4</ele>
      </trkpt>
      <trkpt lat="48.232495" lon="23.948838">
        <ele>462.73</ele>
      </trkpt>
      <trkpt lat="48.232181" lon="23.94857">
        <ele>462.9</ele>
      </trkpt>
      <trkpt lat="48.231819" lon="23.948152">
        <ele>459.97</ele>
      </trkpt>
      <trkpt lat="48.231638" lon="23.947942">
        <ele>453.06</ele>
      </trkpt>
      <trkpt lat="48.231488" lon="23.947712">
        <ele>443.19</ele>
      </trkpt>
      <trkpt lat="48.231337" lon="23.947481">
        <ele>437.3</ele>
      </trkpt>
      <trkpt lat="48.231005" lon="23.947046">
        <ele>434.04</ele>
      </trkpt>
      <trkpt lat="48.230757" lon="23.946816">
        <ele>434.37</ele>
      </trkpt>
      <trkpt lat="48.230551" lon="23.946644">
        <ele>434.5</ele>
      </trkpt>
      <trkpt lat="48.230359" lon="23.946259">
        <ele>433.97</ele>
      </trkpt>
      <trkpt lat="48.229846" lon="23.945622">
        <ele>434.66</ele>
      </trkpt>
      <trkpt lat="48.2294" lon="23.945182">
        <ele>433.45</ele>
      </trkpt>
      <trkpt lat="48.229844" lon="23.944381">
        <ele>433.04</ele>
      </trkpt>
      <trkpt lat="48.230131" lon="23.9439">
        <ele>434.33</ele>
      </trkpt>
    </trkseg>
  </trk>
</gpx>
