<?xml version="1.0" encoding="UTF-8"?>
<gpx version="1.1" creator="phpGPX/1.0RC5" schemaLocation="http://www.topografix.com/GPX/1/1 http://www.topografix.com/GPX/1/1/gpx.xsd http://www.garmin.com/xmlschemas/GpxExtensions/v3 http://www.garmin.com/xmlschemas/GpxExtensionsv3.xsd http://www.garmin.com/xmlschemas/TrackPointExtension/v1 http://www.garmin.com/xmlschemas/TrackPointExtensionv1.xsd http://www.garmin.com/xmlschemas/PowerExtension/v1 http://www.garmin.com/xmlschemas/PowerExtensionv1.xsd http://www.topografix.com/GPX/gpx_style/0/2 http://www.topografix.com/GPX/gpx_style/0/2/gpx_style.xsd" xmlns="http://www.topografix.com/GPX/1/1" xmlns:xsi="http://www.w3.org/2001/XMLSchema-instance" xsi:schemaLocation="http://www.topografix.com/GPX/1/1 http://www.topografix.com/GPX/1/1/gpx.xsd http://www.garmin.com/xmlschemas/GpxExtensions/v3 http://www.garmin.com/xmlschemas/GpxExtensionsv3.xsd http://www.garmin.com/xmlschemas/TrackPointExtension/v1 http://www.garmin.com/xmlschemas/TrackPointExtensionv1.xsd http://www.garmin.com/xmlschemas/PowerExtension/v1 http://www.garmin.com/xmlschemas/PowerExtensionv1.xsd http://www.topografix.com/GPX/gpx_style/0/2 http://www.topografix.com/GPX/gpx_style/0/2/gpx_style.xsd" xmlns:gpxtpx="http://www.garmin.com/xmlschemas/TrackPointExtension/v1" xmlns:gpxx="http://www.garmin.com/xmlschemas/GpxExtensions/v3" xmlns:gpxpx="http://www.garmin.com/xmlschemas/PowerExtension/v1" xmlns:gpx_style="http://www.topografix.com/GPX/gpx_style/0/2">
  <metadata>
    <name>Чорногора з села Говерла</name>
    <author>
      <name>gpx.studio</name>
      <link href="https://gpx.studio"/>
    </author>
  </metadata>
  <trk>
    <name>Чорногора з села Говерла</name>
    <trkseg>
      <trkpt lat="48.076818" lon="24.44992">
        <ele>672.0565323360497</ele>
      </trkpt>
      <trkpt lat="48.077191" lon="24.449813">
        <ele>672.6753714044203</ele>
      </trkpt>
      <trkpt lat="48.0777" lon="24.449544">
        <ele>673.8064417615533</ele>
      </trkpt>
      <trkpt lat="48.077965" lon="24.449394">
        <ele>674.571200569626</ele>
      </trkpt>
      <trkpt lat="48.078438" lon="24.448858">
        <ele>677.4655320607742</ele>
      </trkpt>
      <trkpt lat="48.079112" lon="24.448418">
        <ele>678.1838324777589</ele>
      </trkpt>
      <trkpt lat="48.079685" lon="24.447753">
        <ele>680.243646844523</ele>
      </trkpt>
      <trkpt lat="48.079972" lon="24.447517">
        <ele>680.8074892031728</ele>
      </trkpt>
      <trkpt lat="48.080287" lon="24.447538">
        <ele>682.9924517140098</ele>
      </trkpt>
      <trkpt lat="48.080588" lon="24.447688">
        <ele>683.3862221910967</ele>
      </trkpt>
      <trkpt lat="48.08094" lon="24.447806">
        <ele>683.7021100069065</ele>
      </trkpt>
      <trkpt lat="48.081241" lon="24.447935">
        <ele>683.9022276413023</ele>
      </trkpt>
      <trkpt lat="48.081492" lon="24.448064">
        <ele>684.5276464236085</ele>
      </trkpt>
      <trkpt lat="48.081857" lon="24.448268">
        <ele>685.9713466029498</ele>
      </trkpt>
      <trkpt lat="48.082151" lon="24.448471">
        <ele>687.4200297141215</ele>
      </trkpt>
      <trkpt lat="48.08243" lon="24.448697">
        <ele>688.4695836573374</ele>
      </trkpt>
      <trkpt lat="48.083004" lon="24.448761">
        <ele>689.6679339777698</ele>
      </trkpt>
      <trkpt lat="48.083305" lon="24.449008">
        <ele>690.5</ele>
      </trkpt>
      <trkpt lat="48.084036" lon="24.449909">
        <ele>694.5444399403008</ele>
      </trkpt>
      <trkpt lat="48.085048" lon="24.450276">
        <ele>696.3622997333296</ele>
      </trkpt>
      <trkpt lat="48.0857" lon="24.450136">
        <ele>697.4098665356869</ele>
      </trkpt>
      <trkpt lat="48.086023" lon="24.449997">
        <ele>698.4133572779247</ele>
      </trkpt>
      <trkpt lat="48.086589" lon="24.450126">
        <ele>700.7066920591751</ele>
      </trkpt>
      <trkpt lat="48.086868" lon="24.450394">
        <ele>703.4529920044619</ele>
      </trkpt>
      <trkpt lat="48.087033" lon="24.451349">
        <ele>706.4572466813811</ele>
      </trkpt>
      <trkpt lat="48.087234" lon="24.452272">
        <ele>711.7725023152686</ele>
      </trkpt>
      <trkpt lat="48.087584" lon="24.453109">
        <ele>713.5465982978753</ele>
      </trkpt>
      <trkpt lat="48.087828" lon="24.453409">
        <ele>720.2898301555821</ele>
      </trkpt>
      <trkpt lat="48.088387" lon="24.453763">
        <ele>711.4733398880358</ele>
      </trkpt>
      <trkpt lat="48.088666" lon="24.454075">
        <ele>710.6021830739496</ele>
      </trkpt>
      <trkpt lat="48.08896" lon="24.454482">
        <ele>710.7807179766271</ele>
      </trkpt>
      <trkpt lat="48.089311" lon="24.455126">
        <ele>718.6030108986108</ele>
      </trkpt>
      <trkpt lat="48.089641" lon="24.455834">
        <ele>724.0731471866006</ele>
      </trkpt>
      <trkpt lat="48.08992" lon="24.456767">
        <ele>734.2972237303128</ele>
      </trkpt>
      <trkpt lat="48.090519" lon="24.457914">
        <ele>724.6143152241061</ele>
      </trkpt>
      <trkpt lat="48.090927" lon="24.45874">
        <ele>730.0795334887355</ele>
      </trkpt>
      <trkpt lat="48.091579" lon="24.460135">
        <ele>758.8470464053128</ele>
      </trkpt>
      <trkpt lat="48.09183" lon="24.460661">
        <ele>749.8392313410453</ele>
      </trkpt>
      <trkpt lat="48.092747" lon="24.461272">
        <ele>746.4938409173886</ele>
      </trkpt>
      <trkpt lat="48.093364" lon="24.461508">
        <ele>763.022691154915</ele>
      </trkpt>
      <trkpt lat="48.093715" lon="24.461594">
        <ele>755.9195601669625</ele>
      </trkpt>
      <trkpt lat="48.093959" lon="24.461852">
        <ele>741.6563091515563</ele>
      </trkpt>
      <trkpt lat="48.094668" lon="24.462807">
        <ele>739.2143056261092</ele>
      </trkpt>
      <trkpt lat="48.095241" lon="24.463279">
        <ele>745.9430865543634</ele>
      </trkpt>
      <trkpt lat="48.095456" lon="24.463826">
        <ele>757.819794589734</ele>
      </trkpt>
      <trkpt lat="48.096237" lon="24.464802">
        <ele>745.9702875904143</ele>
      </trkpt>
      <trkpt lat="48.096588" lon="24.465896">
        <ele>752.451252150177</ele>
      </trkpt>
      <trkpt lat="48.096832" lon="24.466293">
        <ele>754.0789205539841</ele>
      </trkpt>
      <trkpt lat="48.097721" lon="24.466862">
        <ele>761.4384342407575</ele>
      </trkpt>
      <trkpt lat="48.098344" lon="24.467141">
        <ele>766.6106621214451</ele>
      </trkpt>
      <trkpt lat="48.099025" lon="24.468053">
        <ele>770.4667275684287</ele>
      </trkpt>
      <trkpt lat="48.099139" lon="24.468536">
        <ele>765.8641684980673</ele>
      </trkpt>
      <trkpt lat="48.099376" lon="24.469405">
        <ele>768.3387511195326</ele>
      </trkpt>
      <trkpt lat="48.099845" lon="24.470659">
        <ele>766.8501025813034</ele>
      </trkpt>
      <trkpt lat="48.099845" lon="24.470949">
        <ele>765.7346292744446</ele>
      </trkpt>
      <trkpt lat="48.099215" lon="24.471786">
        <ele>765.1348752173501</ele>
      </trkpt>
      <trkpt lat="48.099287" lon="24.472193">
        <ele>772.8468160457805</ele>
      </trkpt>
      <trkpt lat="48.099029" lon="24.472633">
        <ele>776.5265272367881</ele>
      </trkpt>
      <trkpt lat="48.098885" lon="24.472955">
        <ele>777.8320823654066</ele>
      </trkpt>
      <trkpt lat="48.098957" lon="24.473309">
        <ele>785.8546187088134</ele>
      </trkpt>
      <trkpt lat="48.099315" lon="24.473191">
        <ele>799.6100267294942</ele>
      </trkpt>
      <trkpt lat="48.099573" lon="24.472934">
        <ele>803.6053675727277</ele>
      </trkpt>
      <trkpt lat="48.099817" lon="24.47259">
        <ele>811.3411186267664</ele>
      </trkpt>
      <trkpt lat="48.100017" lon="24.47258">
        <ele>819.0324318514621</ele>
      </trkpt>
      <trkpt lat="48.100103" lon="24.472794">
        <ele>826.0174106109955</ele>
      </trkpt>
      <trkpt lat="48.10034" lon="24.473095">
        <ele>833.1622645888417</ele>
      </trkpt>
      <trkpt lat="48.100376" lon="24.473288">
        <ele>836.3697947459613</ele>
      </trkpt>
      <trkpt lat="48.100211" lon="24.473352">
        <ele>834.750578748103</ele>
      </trkpt>
      <trkpt lat="48.100025" lon="24.473545">
        <ele>832.4539251294248</ele>
      </trkpt>
      <trkpt lat="48.099996" lon="24.474028">
        <ele>841.9246546371729</ele>
      </trkpt>
      <trkpt lat="48.100125" lon="24.474564">
        <ele>850.9580224817889</ele>
      </trkpt>
      <trkpt lat="48.10039" lon="24.475391">
        <ele>872.9465159112588</ele>
      </trkpt>
      <trkpt lat="48.100999" lon="24.475444">
        <ele>875.8302293606102</ele>
      </trkpt>
      <trkpt lat="48.101071" lon="24.476142">
        <ele>887.757193491736</ele>
      </trkpt>
      <trkpt lat="48.101278" lon="24.477021">
        <ele>899.9922418790856</ele>
      </trkpt>
      <trkpt lat="48.1014" lon="24.478105">
        <ele>909.2201379378248</ele>
      </trkpt>
      <trkpt lat="48.101508" lon="24.478287">
        <ele>912.3619860968026</ele>
      </trkpt>
      <trkpt lat="48.101871" lon="24.478258">
        <ele>917.6479266048409</ele>
      </trkpt>
      <trkpt lat="48.102158" lon="24.478387">
        <ele>924.2559171096652</ele>
      </trkpt>
      <trkpt lat="48.103533" lon="24.479631">
        <ele>954.2527277965563</ele>
      </trkpt>
      <trkpt lat="48.103605" lon="24.480071">
        <ele>962.7962597994549</ele>
      </trkpt>
      <trkpt lat="48.103218" lon="24.480296">
        <ele>967.975348216155</ele>
      </trkpt>
      <trkpt lat="48.102953" lon="24.480629">
        <ele>972.5001905777026</ele>
      </trkpt>
      <trkpt lat="48.103125" lon="24.481133">
        <ele>976.2923538787747</ele>
      </trkpt>
      <trkpt lat="48.10344" lon="24.481434">
        <ele>986.1862935576937</ele>
      </trkpt>
      <trkpt lat="48.10392" lon="24.481476">
        <ele>993.7907143483753</ele>
      </trkpt>
      <trkpt lat="48.104904" lon="24.482341">
        <ele>1015.8799103997881</ele>
      </trkpt>
      <trkpt lat="48.104882" lon="24.482684">
        <ele>1024.2696832558495</ele>
      </trkpt>
      <trkpt lat="48.10466" lon="24.482845">
        <ele>1028.7675515091978</ele>
      </trkpt>
      <trkpt lat="48.104244" lon="24.482952">
        <ele>1029.7093750332751</ele>
      </trkpt>
      <trkpt lat="48.104166" lon="24.48307">
        <ele>1031.0458671451643</ele>
      </trkpt>
      <trkpt lat="48.104173" lon="24.483328">
        <ele>1036.3172686556602</ele>
      </trkpt>
      <trkpt lat="48.104553" lon="24.48336">
        <ele>1042.988306219574</ele>
      </trkpt>
      <trkpt lat="48.104782" lon="24.483564">
        <ele>1047.4468664970482</ele>
      </trkpt>
      <trkpt lat="48.10514" lon="24.4841">
        <ele>1058.0741723645478</ele>
      </trkpt>
      <trkpt lat="48.106057" lon="24.484208">
        <ele>1074.409054926131</ele>
      </trkpt>
      <trkpt lat="48.106258" lon="24.484315">
        <ele>1078.4541358616618</ele>
      </trkpt>
      <trkpt lat="48.10643" lon="24.484647">
        <ele>1087.595893768943</ele>
      </trkpt>
      <trkpt lat="48.106881" lon="24.48469">
        <ele>1090.523293382723</ele>
      </trkpt>
      <trkpt lat="48.106852" lon="24.484959">
        <ele>1097.5032785085632</ele>
      </trkpt>
      <trkpt lat="48.106186" lon="24.485302">
        <ele>1095.3575597599395</ele>
      </trkpt>
      <trkpt lat="48.106107" lon="24.485452">
        <ele>1093.0190016678534</ele>
      </trkpt>
      <trkpt lat="48.106186" lon="24.485506">
        <ele>1095.2335372692473</ele>
      </trkpt>
      <trkpt lat="48.106308" lon="24.485388">
        <ele>1098.3369863509595</ele>
      </trkpt>
      <trkpt lat="48.106945" lon="24.485409">
        <ele>1109.2620571351144</ele>
      </trkpt>
      <trkpt lat="48.107383" lon="24.485849">
        <ele>1116.555981145706</ele>
      </trkpt>
      <trkpt lat="48.108221" lon="24.486472">
        <ele>1125.726007101848</ele>
      </trkpt>
      <trkpt lat="48.108558" lon="24.487115">
        <ele>1132.737189416308</ele>
      </trkpt>
      <trkpt lat="48.108501" lon="24.487781">
        <ele>1141.6045231616683</ele>
      </trkpt>
      <trkpt lat="48.108644" lon="24.488167">
        <ele>1147.7920386851763</ele>
      </trkpt>
      <trkpt lat="48.10936" lon="24.488564">
        <ele>1157.6177480635065</ele>
      </trkpt>
      <trkpt lat="48.111082" lon="24.488712">
        <ele>1174.7061077542276</ele>
      </trkpt>
      <trkpt lat="48.111268" lon="24.489066">
        <ele>1178.739614315331</ele>
      </trkpt>
      <trkpt lat="48.11129" lon="24.490203">
        <ele>1195.382156613341</ele>
      </trkpt>
      <trkpt lat="48.111641" lon="24.491834">
        <ele>1200.2673635875108</ele>
      </trkpt>
      <trkpt lat="48.111684" lon="24.492853">
        <ele>1201.5020808992838</ele>
      </trkpt>
      <trkpt lat="48.111476" lon="24.493776">
        <ele>1198.142219407434</ele>
      </trkpt>
      <trkpt lat="48.111684" lon="24.494162">
        <ele>1200.2506227204417</ele>
      </trkpt>
      <trkpt lat="48.111992" lon="24.494419">
        <ele>1207.4773053520473</ele>
      </trkpt>
      <trkpt lat="48.112386" lon="24.494773">
        <ele>1212.1142757005873</ele>
      </trkpt>
      <trkpt lat="48.112844" lon="24.494773">
        <ele>1216.2517395965988</ele>
      </trkpt>
      <trkpt lat="48.113496" lon="24.494505">
        <ele>1234.2956196448154</ele>
      </trkpt>
      <trkpt lat="48.113804" lon="24.494301">
        <ele>1238.4379518425558</ele>
      </trkpt>
      <trkpt lat="48.113983" lon="24.494398">
        <ele>1243.2296725288318</ele>
      </trkpt>
      <trkpt lat="48.113618" lon="24.494784">
        <ele>1241.5949073057045</ele>
      </trkpt>
      <trkpt lat="48.113439" lon="24.495106">
        <ele>1236.2476656929357</ele>
      </trkpt>
      <trkpt lat="48.113353" lon="24.495632">
        <ele>1238.9602577436217</ele>
      </trkpt>
      <trkpt lat="48.11389" lon="24.495557">
        <ele>1259.3030373426982</ele>
      </trkpt>
      <trkpt lat="48.114177" lon="24.495535">
        <ele>1265.213684137634</ele>
      </trkpt>
      <trkpt lat="48.114309" lon="24.495793">
        <ele>1273.3557557790173</ele>
      </trkpt>
      <trkpt lat="48.114055" lon="24.496179">
        <ele>1273.436773087189</ele>
      </trkpt>
      <trkpt lat="48.113983" lon="24.496308">
        <ele>1271.5685158650158</ele>
      </trkpt>
      <trkpt lat="48.114019" lon="24.496619">
        <ele>1274.2548061317036</ele>
      </trkpt>
      <trkpt lat="48.114356" lon="24.496737">
        <ele>1289.7712380080002</ele>
      </trkpt>
      <trkpt lat="48.114979" lon="24.496683">
        <ele>1297.6595769930861</ele>
      </trkpt>
      <trkpt lat="48.115301" lon="24.496865">
        <ele>1301.867406163481</ele>
      </trkpt>
      <trkpt lat="48.115258" lon="24.497155">
        <ele>1307.4960121820225</ele>
      </trkpt>
      <trkpt lat="48.114857" lon="24.497735">
        <ele>1315.8068105810248</ele>
      </trkpt>
      <trkpt lat="48.114814" lon="24.498013">
        <ele>1321.204967226293</ele>
      </trkpt>
      <trkpt lat="48.115086" lon="24.498067">
        <ele>1323.6006254550464</ele>
      </trkpt>
      <trkpt lat="48.115387" lon="24.498056">
        <ele>1327.0914304450903</ele>
      </trkpt>
      <trkpt lat="48.115566" lon="24.498131">
        <ele>1329.835980554053</ele>
      </trkpt>
      <trkpt lat="48.115559" lon="24.498325">
        <ele>1333.7177880674133</ele>
      </trkpt>
      <trkpt lat="48.115308" lon="24.498357">
        <ele>1331.7671676345635</ele>
      </trkpt>
      <trkpt lat="48.115" lon="24.498786">
        <ele>1336.7214522138238</ele>
      </trkpt>
      <trkpt lat="48.115065" lon="24.498958">
        <ele>1341.2862873618724</ele>
      </trkpt>
      <trkpt lat="48.115473" lon="24.499108">
        <ele>1349.1618195470655</ele>
      </trkpt>
      <trkpt lat="48.11533" lon="24.499161">
        <ele>1349.1795645279344</ele>
      </trkpt>
      <trkpt lat="48.115079" lon="24.499172">
        <ele>1346.8200172407087</ele>
      </trkpt>
      <trkpt lat="48.114413" lon="24.499955">
        <ele>1366.4872762179002</ele>
      </trkpt>
      <trkpt lat="48.114413" lon="24.500138">
        <ele>1375.6640470619316</ele>
      </trkpt>
      <trkpt lat="48.1149" lon="24.500127">
        <ele>1381.6717563376296</ele>
      </trkpt>
      <trkpt lat="48.114929" lon="24.500256">
        <ele>1386.9886725395459</ele>
      </trkpt>
      <trkpt lat="48.114585" lon="24.50047">
        <ele>1392.0335503747922</ele>
      </trkpt>
      <trkpt lat="48.114184" lon="24.501039">
        <ele>1400.934862853202</ele>
      </trkpt>
      <trkpt lat="48.114012" lon="24.50164">
        <ele>1401.9458524247166</ele>
      </trkpt>
      <trkpt lat="48.114048" lon="24.501844">
        <ele>1402.8958505442133</ele>
      </trkpt>
      <trkpt lat="48.114542" lon="24.501468">
        <ele>1408.1463291933987</ele>
      </trkpt>
      <trkpt lat="48.114513" lon="24.501865">
        <ele>1410.0658941199372</ele>
      </trkpt>
      <trkpt lat="48.114549" lon="24.502176">
        <ele>1409.9418826033361</ele>
      </trkpt>
      <trkpt lat="48.115022" lon="24.502176">
        <ele>1420.6845722363796</ele>
      </trkpt>
      <trkpt lat="48.115273" lon="24.501994">
        <ele>1425.527061787434</ele>
      </trkpt>
      <trkpt lat="48.11553" lon="24.502337">
        <ele>1431.0414163233513</ele>
      </trkpt>
      <trkpt lat="48.116182" lon="24.503346">
        <ele>1441.2516770017965</ele>
      </trkpt>
      <trkpt lat="48.116827" lon="24.505084">
        <ele>1475.6027992409654</ele>
      </trkpt>
      <trkpt lat="48.117371" lon="24.506189">
        <ele>1499.0364171670517</ele>
      </trkpt>
      <trkpt lat="48.117722" lon="24.506661">
        <ele>1509.5386084994536</ele>
      </trkpt>
      <trkpt lat="48.118145" lon="24.507004">
        <ele>1521.0900899751528</ele>
      </trkpt>
      <trkpt lat="48.119198" lon="24.508099">
        <ele>1542.7114627248502</ele>
      </trkpt>
      <trkpt lat="48.119105" lon="24.508581">
        <ele>1548.532422710394</ele>
      </trkpt>
      <trkpt lat="48.11909" lon="24.509037">
        <ele>1552.3003819592996</ele>
      </trkpt>
      <trkpt lat="48.119269" lon="24.509412">
        <ele>1558.3898604853312</ele>
      </trkpt>
      <trkpt lat="48.11952" lon="24.50967">
        <ele>1565.7602195989903</ele>
      </trkpt>
      <trkpt lat="48.1199" lon="24.510421">
        <ele>1582.2392104994506</ele>
      </trkpt>
      <trkpt lat="48.120064" lon="24.51085">
        <ele>1591.4616281851777</ele>
      </trkpt>
      <trkpt lat="48.12043" lon="24.511644">
        <ele>1607.7480856688667</ele>
      </trkpt>
      <trkpt lat="48.120451" lon="24.512138">
        <ele>1613.7876156956343</ele>
      </trkpt>
      <trkpt lat="48.120623" lon="24.51247">
        <ele>1619.6278879784513</ele>
      </trkpt>
      <trkpt lat="48.120824" lon="24.512889">
        <ele>1626.1764446952147</ele>
      </trkpt>
      <trkpt lat="48.120845" lon="24.513328">
        <ele>1629.0540602242572</ele>
      </trkpt>
      <trkpt lat="48.120795" lon="24.513736">
        <ele>1629.9385197110823</ele>
      </trkpt>
      <trkpt lat="48.120838" lon="24.514144">
        <ele>1631.0649951961823</ele>
      </trkpt>
      <trkpt lat="48.121017" lon="24.514552">
        <ele>1635.492085168757</ele>
      </trkpt>
      <trkpt lat="48.121168" lon="24.515037">
        <ele>1638.5388410909081</ele>
      </trkpt>
      <trkpt lat="48.121096" lon="24.515498">
        <ele>1641.9661831055512</ele>
      </trkpt>
      <trkpt lat="48.120932" lon="24.515606">
        <ele>1642.4656089577475</ele>
      </trkpt>
      <trkpt lat="48.120917" lon="24.515853">
        <ele>1646.0208625113492</ele>
      </trkpt>
      <trkpt lat="48.120731" lon="24.516174">
        <ele>1649.2388996433</ele>
      </trkpt>
      <trkpt lat="48.120531" lon="24.516593">
        <ele>1653.965755679994</ele>
      </trkpt>
      <trkpt lat="48.120344" lon="24.517086">
        <ele>1661.0338902376825</ele>
      </trkpt>
      <trkpt lat="48.120316" lon="24.517408">
        <ele>1668.8595553180203</ele>
      </trkpt>
      <trkpt lat="48.120301" lon="24.517945">
        <ele>1679.5721173192505</ele>
      </trkpt>
      <trkpt lat="48.120423" lon="24.518889">
        <ele>1695.9291209967341</ele>
      </trkpt>
      <trkpt lat="48.120366" lon="24.519425">
        <ele>1707.1521436177427</ele>
      </trkpt>
      <trkpt lat="48.120151" lon="24.519801">
        <ele>1716.3544813469052</ele>
      </trkpt>
      <trkpt lat="48.119822" lon="24.520005">
        <ele>1716.7739029759657</ele>
      </trkpt>
      <trkpt lat="48.119786" lon="24.520412">
        <ele>1724.2540358696135</ele>
      </trkpt>
      <trkpt lat="48.119857" lon="24.520852">
        <ele>1732.334427123249</ele>
      </trkpt>
      <trkpt lat="48.11985" lon="24.521389">
        <ele>1738.3913462102646</ele>
      </trkpt>
      <trkpt lat="48.119936" lon="24.522526">
        <ele>1761.2731272099106</ele>
      </trkpt>
      <trkpt lat="48.119929" lon="24.523469">
        <ele>1774.903196444735</ele>
      </trkpt>
      <trkpt lat="48.120022" lon="24.523791">
        <ele>1779.5926613333868</ele>
      </trkpt>
      <trkpt lat="48.120058" lon="24.525282">
        <ele>1797.0369681539014</ele>
      </trkpt>
      <trkpt lat="48.120151" lon="24.525765">
        <ele>1800.4052075224793</ele>
      </trkpt>
      <trkpt lat="48.120258" lon="24.526172">
        <ele>1806.6597928775418</ele>
      </trkpt>
      <trkpt lat="48.120488" lon="24.526516">
        <ele>1813.9967160275876</ele>
      </trkpt>
      <trkpt lat="48.120695" lon="24.526848">
        <ele>1819.3407988022084</ele>
      </trkpt>
      <trkpt lat="48.120853" lon="24.527256">
        <ele>1824.2990500023811</ele>
      </trkpt>
      <trkpt lat="48.121096" lon="24.527503">
        <ele>1830.4429172200444</ele>
      </trkpt>
      <trkpt lat="48.121304" lon="24.52791">
        <ele>1838.06298889293</ele>
      </trkpt>
      <trkpt lat="48.121361" lon="24.528393">
        <ele>1839.1170059154513</ele>
      </trkpt>
      <trkpt lat="48.12149" lon="24.528855">
        <ele>1838.886340305401</ele>
      </trkpt>
      <trkpt lat="48.121662" lon="24.529219">
        <ele>1844.0695973338818</ele>
      </trkpt>
      <trkpt lat="48.121891" lon="24.529659">
        <ele>1851.1929401343125</ele>
      </trkpt>
      <trkpt lat="48.122035" lon="24.530045">
        <ele>1853.1092455809503</ele>
      </trkpt>
      <trkpt lat="48.122199" lon="24.530743">
        <ele>1849.7108529718826</ele>
      </trkpt>
      <trkpt lat="48.122328" lon="24.531204">
        <ele>1847.8752562356924</ele>
      </trkpt>
      <trkpt lat="48.122443" lon="24.531655">
        <ele>1845.0114385023612</ele>
      </trkpt>
      <trkpt lat="48.122579" lon="24.532062">
        <ele>1846.4258766234852</ele>
      </trkpt>
      <trkpt lat="48.122615" lon="24.532524">
        <ele>1841.30269652516</ele>
      </trkpt>
      <trkpt lat="48.122658" lon="24.533039">
        <ele>1834.6891530800863</ele>
      </trkpt>
      <trkpt lat="48.122815" lon="24.533747">
        <ele>1824.107914309657</ele>
      </trkpt>
      <trkpt lat="48.122787" lon="24.533919">
        <ele>1820.45010121644</ele>
      </trkpt>
      <trkpt lat="48.122758" lon="24.534187">
        <ele>1814.7394019575295</ele>
      </trkpt>
      <trkpt lat="48.122837" lon="24.534348">
        <ele>1810.8467253020913</ele>
      </trkpt>
      <trkpt lat="48.122822" lon="24.534928">
        <ele>1797.3688557749585</ele>
      </trkpt>
      <trkpt lat="48.122726" lon="24.535245">
        <ele>1791.1713131993372</ele>
      </trkpt>
      <trkpt lat="48.122668" lon="24.535556">
        <ele>1785.6059377338602</ele>
      </trkpt>
      <trkpt lat="48.1226" lon="24.535809">
        <ele>1782.4952782047849</ele>
      </trkpt>
      <trkpt lat="48.1226" lon="24.536012">
        <ele>1780.2354031264042</ele>
      </trkpt>
      <trkpt lat="48.122464" lon="24.5362">
        <ele>1781.741863549455</ele>
      </trkpt>
      <trkpt lat="48.122364" lon="24.536554">
        <ele>1783.3082497988107</ele>
      </trkpt>
      <trkpt lat="48.122128" lon="24.537101">
        <ele>1787.5710133677267</ele>
      </trkpt>
      <trkpt lat="48.121949" lon="24.537718">
        <ele>1785.1407845681567</ele>
      </trkpt>
      <trkpt lat="48.121787" lon="24.538169">
        <ele>1785.8452402850235</ele>
      </trkpt>
      <trkpt lat="48.121687" lon="24.538464">
        <ele>1785.8909465478084</ele>
      </trkpt>
      <trkpt lat="48.12158" lon="24.538759">
        <ele>1787.2303999986566</ele>
      </trkpt>
      <trkpt lat="48.121444" lon="24.539108">
        <ele>1792.0673346458825</ele>
      </trkpt>
      <trkpt lat="48.121343" lon="24.539553">
        <ele>1799.3481780432803</ele>
      </trkpt>
      <trkpt lat="48.121257" lon="24.539961">
        <ele>1805.7602576880975</ele>
      </trkpt>
      <trkpt lat="48.121157" lon="24.540374">
        <ele>1810.7496034597098</ele>
      </trkpt>
      <trkpt lat="48.121046" lon="24.54076">
        <ele>1815.7105211049284</ele>
      </trkpt>
      <trkpt lat="48.120967" lon="24.541055">
        <ele>1820.3585116850445</ele>
      </trkpt>
      <trkpt lat="48.120849" lon="24.541425">
        <ele>1824.4745188584275</ele>
      </trkpt>
      <trkpt lat="48.120681" lon="24.541817">
        <ele>1826.189403219516</ele>
      </trkpt>
      <trkpt lat="48.120531" lon="24.54216">
        <ele>1827.3167988460757</ele>
      </trkpt>
      <trkpt lat="48.120416" lon="24.54264">
        <ele>1836.7013771057952</ele>
      </trkpt>
      <trkpt lat="48.120312" lon="24.54301">
        <ele>1843.0720218434035</ele>
      </trkpt>
      <trkpt lat="48.120233" lon="24.543391">
        <ele>1850.534275860167</ele>
      </trkpt>
      <trkpt lat="48.120115" lon="24.543825">
        <ele>1857.4852435555754</ele>
      </trkpt>
      <trkpt lat="48.120036" lon="24.544201">
        <ele>1862.2669150703916</ele>
      </trkpt>
      <trkpt lat="48.120001" lon="24.544437">
        <ele>1864.2011603930828</ele>
      </trkpt>
      <trkpt lat="48.120015" lon="24.544689">
        <ele>1867.3444057223387</ele>
      </trkpt>
      <trkpt lat="48.119983" lon="24.545097">
        <ele>1872.4180380466862</ele>
      </trkpt>
      <trkpt lat="48.119993" lon="24.54551">
        <ele>1878.8051150571555</ele>
      </trkpt>
      <trkpt lat="48.119936" lon="24.545923">
        <ele>1883.500725967537</ele>
      </trkpt>
      <trkpt lat="48.119882" lon="24.546422">
        <ele>1888.6798493064707</ele>
      </trkpt>
      <trkpt lat="48.119915" lon="24.546856">
        <ele>1891.7477040220983</ele>
      </trkpt>
      <trkpt lat="48.11989" lon="24.547366">
        <ele>1890.0846129981019</ele>
      </trkpt>
      <trkpt lat="48.119904" lon="24.547908">
        <ele>1887.680528862664</ele>
      </trkpt>
      <trkpt lat="48.119872" lon="24.548385">
        <ele>1885.6280341221627</ele>
      </trkpt>
      <trkpt lat="48.119825" lon="24.54883">
        <ele>1885.3533408646472</ele>
      </trkpt>
      <trkpt lat="48.119739" lon="24.549249">
        <ele>1886.195406495584</ele>
      </trkpt>
      <trkpt lat="48.119635" lon="24.549549">
        <ele>1886.9273482534238</ele>
      </trkpt>
      <trkpt lat="48.119517" lon="24.54985">
        <ele>1888.176646040854</ele>
      </trkpt>
      <trkpt lat="48.119402" lon="24.550118">
        <ele>1889.4458397479602</ele>
      </trkpt>
      <trkpt lat="48.119309" lon="24.550418">
        <ele>1891.297796416643</ele>
      </trkpt>
      <trkpt lat="48.119202" lon="24.550611">
        <ele>1892.1174034488204</ele>
      </trkpt>
      <trkpt lat="48.11918" lon="24.550697">
        <ele>1892.7720454274195</ele>
      </trkpt>
      <trkpt lat="48.118643" lon="24.551405">
        <ele>1897.5747648407705</ele>
      </trkpt>
      <trkpt lat="48.118149" lon="24.55206">
        <ele>1901.7155262556535</ele>
      </trkpt>
      <trkpt lat="48.117834" lon="24.55251">
        <ele>1903.0042644301432</ele>
      </trkpt>
      <trkpt lat="48.11754" lon="24.552875">
        <ele>1902.9717396849114</ele>
      </trkpt>
      <trkpt lat="48.117261" lon="24.553326">
        <ele>1904.0692395829321</ele>
      </trkpt>
      <trkpt lat="48.116982" lon="24.553744">
        <ele>1904.512585978955</ele>
      </trkpt>
      <trkpt lat="48.116681" lon="24.554238">
        <ele>1903.9861482700016</ele>
      </trkpt>
      <trkpt lat="48.116466" lon="24.55457">
        <ele>1904.1312430752441</ele>
      </trkpt>
      <trkpt lat="48.115972" lon="24.554817">
        <ele>1900.4589603706263</ele>
      </trkpt>
      <trkpt lat="48.115305" lon="24.555096">
        <ele>1904.2082278125454</ele>
      </trkpt>
      <trkpt lat="48.114747" lon="24.555268">
        <ele>1915.2250212295512</ele>
      </trkpt>
      <trkpt lat="48.114195" lon="24.555343">
        <ele>1924.9508264386097</ele>
      </trkpt>
      <trkpt lat="48.113758" lon="24.555396">
        <ele>1929.373209957732</ele>
      </trkpt>
      <trkpt lat="48.113364" lon="24.555611">
        <ele>1935.8908301402116</ele>
      </trkpt>
      <trkpt lat="48.112872" lon="24.555879">
        <ele>1940.7849761279067</ele>
      </trkpt>
      <trkpt lat="48.112428" lon="24.556137">
        <ele>1943.9927735446254</ele>
      </trkpt>
      <trkpt lat="48.111984" lon="24.556373">
        <ele>1946.305494035012</ele>
      </trkpt>
      <trkpt lat="48.111382" lon="24.556523">
        <ele>1947.2509093211265</ele>
      </trkpt>
      <trkpt lat="48.110895" lon="24.556609">
        <ele>1949.2032982920448</ele>
      </trkpt>
      <trkpt lat="48.110351" lon="24.556587">
        <ele>1954.003312906716</ele>
      </trkpt>
      <trkpt lat="48.10995" lon="24.556437">
        <ele>1958.2107896322848</ele>
      </trkpt>
      <trkpt lat="48.109506" lon="24.55618">
        <ele>1963.0967176828417</ele>
      </trkpt>
      <trkpt lat="48.109219" lon="24.555965">
        <ele>1964.2238518874447</ele>
      </trkpt>
      <trkpt lat="48.108675" lon="24.555772">
        <ele>1966.4240732133621</ele>
      </trkpt>
      <trkpt lat="48.108216" lon="24.555793">
        <ele>1964.856965808547</ele>
      </trkpt>
      <trkpt lat="48.107801" lon="24.556115">
        <ele>1962.5121284936322</ele>
      </trkpt>
      <trkpt lat="48.107414" lon="24.556502">
        <ele>1959.1100149939302</ele>
      </trkpt>
      <trkpt lat="48.107012" lon="24.557124">
        <ele>1957.3017756210174</ele>
      </trkpt>
      <trkpt lat="48.106722" lon="24.557353">
        <ele>1954.1646740339193</ele>
      </trkpt>
      <trkpt lat="48.106468" lon="24.557589">
        <ele>1952.6624976510009</ele>
      </trkpt>
      <trkpt lat="48.106231" lon="24.557782">
        <ele>1952.0948736998293</ele>
      </trkpt>
      <trkpt lat="48.106038" lon="24.557975">
        <ele>1953.1175007874092</ele>
      </trkpt>
      <trkpt lat="48.105887" lon="24.55827">
        <ele>1955.3045499732946</ele>
      </trkpt>
      <trkpt lat="48.105712" lon="24.558522">
        <ele>1956.9975017128236</ele>
      </trkpt>
      <trkpt lat="48.10554" lon="24.558726">
        <ele>1958.0116753322734</ele>
      </trkpt>
      <trkpt lat="48.105354" lon="24.558957">
        <ele>1958.137689610213</ele>
      </trkpt>
      <trkpt lat="48.105254" lon="24.559031">
        <ele>1958.2696176251438</ele>
      </trkpt>
      <trkpt lat="48.104896" lon="24.558774">
        <ele>1956.6420937365488</ele>
      </trkpt>
      <trkpt lat="48.10438" lon="24.55842">
        <ele>1954.5821891388262</ele>
      </trkpt>
      <trkpt lat="48.103943" lon="24.558194">
        <ele>1950.0326157909144</ele>
      </trkpt>
      <trkpt lat="48.103534" lon="24.557947">
        <ele>1944.6585372052218</ele>
      </trkpt>
      <trkpt lat="48.103185" lon="24.557754">
        <ele>1941.0881565294746</ele>
      </trkpt>
      <trkpt lat="48.102634" lon="24.557626">
        <ele>1932.7611913349451</ele>
      </trkpt>
      <trkpt lat="48.102032" lon="24.557583">
        <ele>1932.7325420189882</ele>
      </trkpt>
      <trkpt lat="48.101624" lon="24.557465">
        <ele>1939.8139972947772</ele>
      </trkpt>
      <trkpt lat="48.101215" lon="24.55739">
        <ele>1951.7299383744119</ele>
      </trkpt>
      <trkpt lat="48.100714" lon="24.557314">
        <ele>1967.8753337393987</ele>
      </trkpt>
      <trkpt lat="48.100298" lon="24.557207">
        <ele>1982.7850229676808</ele>
      </trkpt>
      <trkpt lat="48.099983" lon="24.557121">
        <ele>1994.219933394712</ele>
      </trkpt>
      <trkpt lat="48.099782" lon="24.557014">
        <ele>2002.7452019040938</ele>
      </trkpt>
      <trkpt lat="48.099574" lon="24.556918">
        <ele>2007.5235057888785</ele>
      </trkpt>
      <trkpt lat="48.099285" lon="24.556975">
        <ele>2003.3944735220232</ele>
      </trkpt>
      <trkpt lat="48.099285" lon="24.556975">
        <ele>2003.3944735220232</ele>
      </trkpt>
      <trkpt lat="48.099285" lon="24.556975">
        <ele>2003.3944735220232</ele>
      </trkpt>
      <trkpt lat="48.099285" lon="24.556975">
        <ele>2003.3944735220232</ele>
      </trkpt>
      <trkpt lat="48.099574" lon="24.556918">
        <ele>2007.5235057888785</ele>
      </trkpt>
      <trkpt lat="48.099782" lon="24.557014">
        <ele>2002.7452019040938</ele>
      </trkpt>
      <trkpt lat="48.099983" lon="24.557121">
        <ele>1994.219933394712</ele>
      </trkpt>
      <trkpt lat="48.100298" lon="24.557207">
        <ele>1982.7850229676808</ele>
      </trkpt>
      <trkpt lat="48.100714" lon="24.557314">
        <ele>1967.8753337393987</ele>
      </trkpt>
      <trkpt lat="48.101215" lon="24.55739">
        <ele>1951.7299383744119</ele>
      </trkpt>
      <trkpt lat="48.101624" lon="24.557465">
        <ele>1939.8139972947772</ele>
      </trkpt>
      <trkpt lat="48.102032" lon="24.557583">
        <ele>1932.7325420189882</ele>
      </trkpt>
      <trkpt lat="48.102634" lon="24.557626">
        <ele>1932.7611913349451</ele>
      </trkpt>
      <trkpt lat="48.103185" lon="24.557754">
        <ele>1941.0881565294746</ele>
      </trkpt>
      <trkpt lat="48.103534" lon="24.557947">
        <ele>1944.6585372052218</ele>
      </trkpt>
      <trkpt lat="48.103943" lon="24.558194">
        <ele>1950.0326157909144</ele>
      </trkpt>
      <trkpt lat="48.10438" lon="24.55842">
        <ele>1954.5821891388262</ele>
      </trkpt>
      <trkpt lat="48.104896" lon="24.558774">
        <ele>1956.6420937365488</ele>
      </trkpt>
      <trkpt lat="48.105254" lon="24.559031">
        <ele>1958.2696176251438</ele>
      </trkpt>
      <trkpt lat="48.105257" lon="24.559077">
        <ele>1957.974724724024</ele>
      </trkpt>
      <trkpt lat="48.105243" lon="24.55927">
        <ele>1956.16737805857</ele>
      </trkpt>
      <trkpt lat="48.105178" lon="24.559565">
        <ele>1952.3285617777146</ele>
      </trkpt>
      <trkpt lat="48.10516" lon="24.559796">
        <ele>1949.1203225877296</ele>
      </trkpt>
      <trkpt lat="48.105149" lon="24.560075">
        <ele>1945.4381333604688</ele>
      </trkpt>
      <trkpt lat="48.105089" lon="24.560294">
        <ele>1941.1263440324822</ele>
      </trkpt>
      <trkpt lat="48.105028" lon="24.560461">
        <ele>1937.4045447523126</ele>
      </trkpt>
      <trkpt lat="48.104974" lon="24.560584">
        <ele>1933.8754979607183</ele>
      </trkpt>
      <trkpt lat="48.104849" lon="24.56075">
        <ele>1927.8090644399053</ele>
      </trkpt>
      <trkpt lat="48.104766" lon="24.56089">
        <ele>1923.5131352443714</ele>
      </trkpt>
      <trkpt lat="48.104619" lon="24.561121">
        <ele>1916.7834975437145</ele>
      </trkpt>
      <trkpt lat="48.104515" lon="24.561249">
        <ele>1912.2693497232394</ele>
      </trkpt>
      <trkpt lat="48.104329" lon="24.561453">
        <ele>1902.9899037502623</ele>
      </trkpt>
      <trkpt lat="48.104157" lon="24.561641">
        <ele>1893.2092216061012</ele>
      </trkpt>
      <trkpt lat="48.104043" lon="24.561786">
        <ele>1888.0336499185992</ele>
      </trkpt>
      <trkpt lat="48.103924" lon="24.561888">
        <ele>1884.1591371859422</ele>
      </trkpt>
      <trkpt lat="48.103795" lon="24.56192">
        <ele>1879.6943368463544</ele>
      </trkpt>
      <trkpt lat="48.103611" lon="24.562044">
        <ele>1874.4746672178153</ele>
      </trkpt>
      <trkpt lat="48.103421" lon="24.562178">
        <ele>1868.788978745055</ele>
      </trkpt>
      <trkpt lat="48.103274" lon="24.56235">
        <ele>1864.5800033553971</ele>
      </trkpt>
      <trkpt lat="48.103163" lon="24.562468">
        <ele>1860.6853366200316</ele>
      </trkpt>
      <trkpt lat="48.103048" lon="24.562634">
        <ele>1857.452323546051</ele>
      </trkpt>
      <trkpt lat="48.102837" lon="24.562838">
        <ele>1850.0948892227218</ele>
      </trkpt>
      <trkpt lat="48.102643" lon="24.562999">
        <ele>1842.788575331698</ele>
      </trkpt>
      <trkpt lat="48.102499" lon="24.563127">
        <ele>1837.1756748107518</ele>
      </trkpt>
      <trkpt lat="48.102199" lon="24.563229">
        <ele>1823.4461796928665</ele>
      </trkpt>
      <trkpt lat="48.10198" lon="24.563181">
        <ele>1811.0801379819084</ele>
      </trkpt>
      <trkpt lat="48.101858" lon="24.563197">
        <ele>1805.5791986855425</ele>
      </trkpt>
      <trkpt lat="48.10179" lon="24.563165">
        <ele>1802.1912511607065</ele>
      </trkpt>
      <trkpt lat="48.101711" lon="24.563052">
        <ele>1798.1519988211055</ele>
      </trkpt>
      <trkpt lat="48.101701" lon="24.562854">
        <ele>1795.5287126465248</ele>
      </trkpt>
      <trkpt lat="48.101704" lon="24.562677">
        <ele>1794.0219571541486</ele>
      </trkpt>
      <trkpt lat="48.10164" lon="24.562575">
        <ele>1792.2749238124816</ele>
      </trkpt>
      <trkpt lat="48.101587" lon="24.562406">
        <ele>1790.4118168521672</ele>
      </trkpt>
      <trkpt lat="48.10105" lon="24.562674">
        <ele>1783.0261359841097</ele>
      </trkpt>
      <trkpt lat="48.100785" lon="24.563189">
        <ele>1774.6377026039181</ele>
      </trkpt>
      <trkpt lat="48.100491" lon="24.563489">
        <ele>1765.5234043621458</ele>
      </trkpt>
      <trkpt lat="48.100211" lon="24.564326">
        <ele>1760.6181627646392</ele>
      </trkpt>
      <trkpt lat="48.09928" lon="24.565528">
        <ele>1747.623385033413</ele>
      </trkpt>
      <trkpt lat="48.098678" lon="24.565378">
        <ele>1730.4394323471934</ele>
      </trkpt>
      <trkpt lat="48.098449" lon="24.565699">
        <ele>1723.6162484265515</ele>
      </trkpt>
      <trkpt lat="48.098298" lon="24.565506">
        <ele>1715.583887099754</ele>
      </trkpt>
      <trkpt lat="48.098026" lon="24.565506">
        <ele>1705.068403944328</ele>
      </trkpt>
      <trkpt lat="48.09799" lon="24.56585">
        <ele>1703.2605862588723</ele>
      </trkpt>
      <trkpt lat="48.096871" lon="24.566339">
        <ele>1681.6184854789171</ele>
      </trkpt>
      <trkpt lat="48.09642" lon="24.566682">
        <ele>1678.8900162428617</ele>
      </trkpt>
      <trkpt lat="48.096215" lon="24.566607">
        <ele>1676.5174230344128</ele>
      </trkpt>
      <trkpt lat="48.09624" lon="24.566425">
        <ele>1675.574309928692</ele>
      </trkpt>
      <trkpt lat="48.096083" lon="24.566264">
        <ele>1673.2248600374814</ele>
      </trkpt>
      <trkpt lat="48.095467" lon="24.566189">
        <ele>1662.982041836837</ele>
      </trkpt>
      <trkpt lat="48.095252" lon="24.566285">
        <ele>1660.9756825639633</ele>
      </trkpt>
      <trkpt lat="48.094822" lon="24.56636">
        <ele>1652.788561228882</ele>
      </trkpt>
      <trkpt lat="48.094399" lon="24.566639">
        <ele>1641.5732741932736</ele>
      </trkpt>
      <trkpt lat="48.094248" lon="24.567015">
        <ele>1643.333981255535</ele>
      </trkpt>
      <trkpt lat="48.094005" lon="24.567068">
        <ele>1635.4369277416263</ele>
      </trkpt>
      <trkpt lat="48.093539" lon="24.566682">
        <ele>1614.5741715107317</ele>
      </trkpt>
      <trkpt lat="48.093052" lon="24.566607">
        <ele>1603.9305050702533</ele>
      </trkpt>
      <trkpt lat="48.092629" lon="24.56665">
        <ele>1596.3188815845642</ele>
      </trkpt>
      <trkpt lat="48.092263" lon="24.567036">
        <ele>1591.7377033408266</ele>
      </trkpt>
      <trkpt lat="48.091776" lon="24.567025">
        <ele>1585.7361137848347</ele>
      </trkpt>
      <trkpt lat="48.090651" lon="24.567573">
        <ele>1577.5882842408027</ele>
      </trkpt>
      <trkpt lat="48.089" lon="24.568302">
        <ele>1571.327189037779</ele>
      </trkpt>
      <trkpt lat="48.088699" lon="24.567862">
        <ele>1555.8136825119043</ele>
      </trkpt>
      <trkpt lat="48.088405" lon="24.567765">
        <ele>1546.4433082378237</ele>
      </trkpt>
      <trkpt lat="48.088176" lon="24.567851">
        <ele>1542.16534947115</ele>
      </trkpt>
      <trkpt lat="48.088133" lon="24.567808">
        <ele>1540.5523617246654</ele>
      </trkpt>
      <trkpt lat="48.087746" lon="24.567883">
        <ele>1536.5077606399643</ele>
      </trkpt>
      <trkpt lat="48.087473" lon="24.567776">
        <ele>1530.2407146047185</ele>
      </trkpt>
      <trkpt lat="48.086405" lon="24.567207">
        <ele>1509.4860931710573</ele>
      </trkpt>
      <trkpt lat="48.085703" lon="24.567036">
        <ele>1504.1652279447121</ele>
      </trkpt>
      <trkpt lat="48.085235" lon="24.566596">
        <ele>1497.3271419052605</ele>
      </trkpt>
      <trkpt lat="48.084654" lon="24.565695">
        <ele>1489.0003772452983</ele>
      </trkpt>
      <trkpt lat="48.083973" lon="24.564547">
        <ele>1479.8859642838759</ele>
      </trkpt>
      <trkpt lat="48.083221" lon="24.563371">
        <ele>1473.8330221483484</ele>
      </trkpt>
      <trkpt lat="48.08312" lon="24.563103">
        <ele>1474.5220786726177</ele>
      </trkpt>
      <trkpt lat="48.082153" lon="24.56174">
        <ele>1475.556398494984</ele>
      </trkpt>
      <trkpt lat="48.081787" lon="24.559895">
        <ele>1455.0873384987935</ele>
      </trkpt>
      <trkpt lat="48.0815" lon="24.559359">
        <ele>1442.0094244701277</ele>
      </trkpt>
      <trkpt lat="48.081164" lon="24.559359">
        <ele>1425.3454292143801</ele>
      </trkpt>
      <trkpt lat="48.080798" lon="24.558189">
        <ele>1415.1073916454623</ele>
      </trkpt>
      <trkpt lat="48.080282" lon="24.557202">
        <ele>1405.1056030619463</ele>
      </trkpt>
      <trkpt lat="48.079802" lon="24.556419">
        <ele>1397.8080463900149</ele>
      </trkpt>
      <trkpt lat="48.078967" lon="24.553902">
        <ele>1380.8382062997061</ele>
      </trkpt>
      <trkpt lat="48.077677" lon="24.553044">
        <ele>1370.4531613033105</ele>
      </trkpt>
      <trkpt lat="48.076832" lon="24.55299">
        <ele>1397.254001606605</ele>
      </trkpt>
      <trkpt lat="48.075277" lon="24.552658">
        <ele>1427.0870889454152</ele>
      </trkpt>
      <trkpt lat="48.074603" lon="24.552303">
        <ele>1442.7295222838875</ele>
      </trkpt>
      <trkpt lat="48.073999" lon="24.552009">
        <ele>1450.790532967727</ele>
      </trkpt>
      <trkpt lat="48.073382" lon="24.551944">
        <ele>1449.0235349392842</ele>
      </trkpt>
      <trkpt lat="48.073139" lon="24.550571">
        <ele>1446.244016202167</ele>
      </trkpt>
      <trkpt lat="48.072981" lon="24.550024">
        <ele>1446.7056720755972</ele>
      </trkpt>
      <trkpt lat="48.07273" lon="24.549681">
        <ele>1446.393122205045</ele>
      </trkpt>
      <trkpt lat="48.072542" lon="24.548946">
        <ele>1441.3347486404873</ele>
      </trkpt>
      <trkpt lat="48.07237" lon="24.547659">
        <ele>1428.6988972751715</ele>
      </trkpt>
      <trkpt lat="48.072506" lon="24.543796">
        <ele>1406.6093916100217</ele>
      </trkpt>
      <trkpt lat="48.07265" lon="24.543013">
        <ele>1408.3622194876925</ele>
      </trkpt>
      <trkpt lat="48.072951" lon="24.542423">
        <ele>1413.1690996779362</ele>
      </trkpt>
      <trkpt lat="48.073173" lon="24.541135">
        <ele>1422.607172488146</ele>
      </trkpt>
      <trkpt lat="48.072929" lon="24.539955">
        <ele>1432.9008106666151</ele>
      </trkpt>
      <trkpt lat="48.072922" lon="24.538292">
        <ele>1436.8498009999782</ele>
      </trkpt>
      <trkpt lat="48.072485" lon="24.537305">
        <ele>1433.4231447002385</ele>
      </trkpt>
      <trkpt lat="48.072523" lon="24.536393">
        <ele>1432.7042419620557</ele>
      </trkpt>
      <trkpt lat="48.072752" lon="24.535728">
        <ele>1430.0117066659482</ele>
      </trkpt>
      <trkpt lat="48.073182" lon="24.535192">
        <ele>1428.5152980796993</ele>
      </trkpt>
      <trkpt lat="48.073835" lon="24.534763">
        <ele>1423.5335477396147</ele>
      </trkpt>
      <trkpt lat="48.074193" lon="24.533743">
        <ele>1411.8730151067884</ele>
      </trkpt>
      <trkpt lat="48.074272" lon="24.533239">
        <ele>1406.2198113487102</ele>
      </trkpt>
      <trkpt lat="48.0741" lon="24.531866">
        <ele>1386.4546979553998</ele>
      </trkpt>
      <trkpt lat="48.074215" lon="24.530836">
        <ele>1377.984264204549</ele>
      </trkpt>
      <trkpt lat="48.074365" lon="24.52987">
        <ele>1375.4370059138164</ele>
      </trkpt>
      <trkpt lat="48.075328" lon="24.528774">
        <ele>1359.6447134165583</ele>
      </trkpt>
      <trkpt lat="48.075779" lon="24.528239">
        <ele>1353.8046717239529</ele>
      </trkpt>
      <trkpt lat="48.075306" lon="24.528839">
        <ele>1360.8751244680025</ele>
      </trkpt>
      <trkpt lat="48.074732" lon="24.529333">
        <ele>1372.2130908858962</ele>
      </trkpt>
      <trkpt lat="48.074402" lon="24.529784">
        <ele>1375.0802048789337</ele>
      </trkpt>
      <trkpt lat="48.074044" lon="24.529977">
        <ele>1371.5566199468449</ele>
      </trkpt>
      <trkpt lat="48.073843" lon="24.530513">
        <ele>1368.9668918655952</ele>
      </trkpt>
      <trkpt lat="48.073513" lon="24.531092">
        <ele>1363.9704145534215</ele>
      </trkpt>
      <trkpt lat="48.073127" lon="24.531715">
        <ele>1363.1542014376287</ele>
      </trkpt>
      <trkpt lat="48.072926" lon="24.532144">
        <ele>1361.2798155855608</ele>
      </trkpt>
      <trkpt lat="48.07261" lon="24.532423">
        <ele>1358.2263926564483</ele>
      </trkpt>
      <trkpt lat="48.072268" lon="24.532423">
        <ele>1355.8169616059397</ele>
      </trkpt>
      <trkpt lat="48.071795" lon="24.532487">
        <ele>1351.3625648615987</ele>
      </trkpt>
      <trkpt lat="48.071422" lon="24.532766">
        <ele>1344.975612899217</ele>
      </trkpt>
      <trkpt lat="48.071121" lon="24.533196">
        <ele>1341.1737755583254</ele>
      </trkpt>
      <trkpt lat="48.070777" lon="24.533582">
        <ele>1337.3258700372776</ele>
      </trkpt>
      <trkpt lat="48.070304" lon="24.533861">
        <ele>1335.8500653580998</ele>
      </trkpt>
      <trkpt lat="48.069728" lon="24.533817">
        <ele>1333.0053346051523</ele>
      </trkpt>
      <trkpt lat="48.069333" lon="24.533742">
        <ele>1322.4424389175974</ele>
      </trkpt>
      <trkpt lat="48.068938" lon="24.533839">
        <ele>1320.7352155070907</ele>
      </trkpt>
      <trkpt lat="48.06848" lon="24.533475">
        <ele>1313.2756760084872</ele>
      </trkpt>
      <trkpt lat="48.068064" lon="24.533314">
        <ele>1307.5490995879254</ele>
      </trkpt>
      <trkpt lat="48.067648" lon="24.533239">
        <ele>1305.1160952888895</ele>
      </trkpt>
      <trkpt lat="48.067253" lon="24.532831">
        <ele>1292.932373785781</ele>
      </trkpt>
      <trkpt lat="48.066767" lon="24.532798">
        <ele>1287.7902005814249</ele>
      </trkpt>
      <trkpt lat="48.066358" lon="24.532756">
        <ele>1280.0230321792187</ele>
      </trkpt>
      <trkpt lat="48.066121" lon="24.53326">
        <ele>1277.7715997234902</ele>
      </trkpt>
      <trkpt lat="48.066157" lon="24.533786">
        <ele>1275.788885006681</ele>
      </trkpt>
      <trkpt lat="48.06605" lon="24.533978">
        <ele>1271.1234968931913</ele>
      </trkpt>
      <trkpt lat="48.065849" lon="24.533571">
        <ele>1269.6782497891256</ele>
      </trkpt>
      <trkpt lat="48.065612" lon="24.532927">
        <ele>1262.1109377949033</ele>
      </trkpt>
      <trkpt lat="48.06554" lon="24.531908">
        <ele>1248.8691836568178</ele>
      </trkpt>
      <trkpt lat="48.065798" lon="24.531618">
        <ele>1244.031543776716</ele>
      </trkpt>
      <trkpt lat="48.065813" lon="24.531329">
        <ele>1236.6781216318807</ele>
      </trkpt>
      <trkpt lat="48.065533" lon="24.531242">
        <ele>1231.3336996266548</ele>
      </trkpt>
      <trkpt lat="48.065311" lon="24.531232">
        <ele>1227.497928201251</ele>
      </trkpt>
      <trkpt lat="48.065067" lon="24.531339">
        <ele>1223.0965512611856</ele>
      </trkpt>
      <trkpt lat="48.064938" lon="24.531682">
        <ele>1223.7344807015286</ele>
      </trkpt>
      <trkpt lat="48.064802" lon="24.531458">
        <ele>1217.665740120954</ele>
      </trkpt>
      <trkpt lat="48.064737" lon="24.530878">
        <ele>1211.9688875425804</ele>
      </trkpt>
      <trkpt lat="48.064737" lon="24.530491">
        <ele>1209.4428401811006</ele>
      </trkpt>
      <trkpt lat="48.064909" lon="24.530138">
        <ele>1203.9734111770858</ele>
      </trkpt>
      <trkpt lat="48.065153" lon="24.53003">
        <ele>1201.1902364597772</ele>
      </trkpt>
      <trkpt lat="48.065504" lon="24.529977">
        <ele>1195.456457824449</ele>
      </trkpt>
      <trkpt lat="48.065777" lon="24.530084">
        <ele>1193.0421170342058</ele>
      </trkpt>
      <trkpt lat="48.065885" lon="24.5298">
        <ele>1183.6446206106307</ele>
      </trkpt>
      <trkpt lat="48.065705" lon="24.529591">
        <ele>1180.4249629198184</ele>
      </trkpt>
      <trkpt lat="48.065458" lon="24.529419">
        <ele>1180.5296782529224</ele>
      </trkpt>
      <trkpt lat="48.065268" lon="24.52907">
        <ele>1172.1076310171054</ele>
      </trkpt>
      <trkpt lat="48.065002" lon="24.528888">
        <ele>1167.8352890701487</ele>
      </trkpt>
      <trkpt lat="48.06478" lon="24.528743">
        <ele>1161.2582391308435</ele>
      </trkpt>
      <trkpt lat="48.064472" lon="24.5287">
        <ele>1155.8066418874882</ele>
      </trkpt>
      <trkpt lat="48.06416" lon="24.528694">
        <ele>1148.4612944896053</ele>
      </trkpt>
      <trkpt lat="48.063892" lon="24.528894">
        <ele>1144.2781808488596</ele>
      </trkpt>
      <trkpt lat="48.063734" lon="24.528562">
        <ele>1134.1047372689288</ele>
      </trkpt>
      <trkpt lat="48.063827" lon="24.528235">
        <ele>1131.8159642926298</ele>
      </trkpt>
      <trkpt lat="48.064114" lon="24.528116">
        <ele>1134.2249623060925</ele>
      </trkpt>
      <trkpt lat="48.064369" lon="24.527961">
        <ele>1132.6929775355384</ele>
      </trkpt>
      <trkpt lat="48.064311" lon="24.527783">
        <ele>1127.739740091376</ele>
      </trkpt>
      <trkpt lat="48.064143" lon="24.527698">
        <ele>1124.2946716967272</ele>
      </trkpt>
      <trkpt lat="48.06396" lon="24.527714">
        <ele>1123.0152639654925</ele>
      </trkpt>
      <trkpt lat="48.063749" lon="24.527752">
        <ele>1120.4350846506422</ele>
      </trkpt>
      <trkpt lat="48.06347" lon="24.527815">
        <ele>1115.7365577355959</ele>
      </trkpt>
      <trkpt lat="48.063145" lon="24.527848">
        <ele>1108.5471659100115</ele>
      </trkpt>
      <trkpt lat="48.062847" lon="24.527736">
        <ele>1102.3587292180523</ele>
      </trkpt>
      <trkpt lat="48.062531" lon="24.527623">
        <ele>1097.9762292216699</ele>
      </trkpt>
      <trkpt lat="48.06217" lon="24.527413">
        <ele>1092.7409534335184</ele>
      </trkpt>
      <trkpt lat="48.061825" lon="24.527188">
        <ele>1092.2739761779085</ele>
      </trkpt>
      <trkpt lat="48.061937" lon="24.526357">
        <ele>1086.7383819721945</ele>
      </trkpt>
      <trkpt lat="48.061789" lon="24.525476">
        <ele>1075.7814921076963</ele>
      </trkpt>
      <trkpt lat="48.061302" lon="24.525085">
        <ele>1073.4347100092045</ele>
      </trkpt>
      <trkpt lat="48.061019" lon="24.524817">
        <ele>1069.310688433121</ele>
      </trkpt>
      <trkpt lat="48.060732" lon="24.524441">
        <ele>1064.595331929553</ele>
      </trkpt>
      <trkpt lat="48.060556" lon="24.523927">
        <ele>1054.6823059427552</ele>
      </trkpt>
      <trkpt lat="48.060258" lon="24.523202">
        <ele>1044.6499583874656</ele>
      </trkpt>
      <trkpt lat="48.059911" lon="24.522499">
        <ele>1041.427658049006</ele>
      </trkpt>
      <trkpt lat="48.059552" lon="24.52243">
        <ele>1042.7559980994556</ele>
      </trkpt>
      <trkpt lat="48.059158" lon="24.522253">
        <ele>1048.5998586643254</ele>
      </trkpt>
      <trkpt lat="48.058853" lon="24.52147">
        <ele>1050.109762223321</ele>
      </trkpt>
      <trkpt lat="48.058466" lon="24.52103">
        <ele>1054.6909723983708</ele>
      </trkpt>
      <trkpt lat="48.057767" lon="24.520901">
        <ele>1053.007971555926</ele>
      </trkpt>
      <trkpt lat="48.057355" lon="24.520719">
        <ele>1049.4167907592093</ele>
      </trkpt>
      <trkpt lat="48.056831" lon="24.520349">
        <ele>1044.307250310043</ele>
      </trkpt>
      <trkpt lat="48.056096" lon="24.519882">
        <ele>1030.0683048046221</ele>
      </trkpt>
      <trkpt lat="48.055483" lon="24.519619">
        <ele>1022.2065587019501</ele>
      </trkpt>
      <trkpt lat="48.055064" lon="24.519458">
        <ele>1018.3126555204035</ele>
      </trkpt>
      <trkpt lat="48.05515" lon="24.519217">
        <ele>1017.7978948100033</ele>
      </trkpt>
      <trkpt lat="48.055512" lon="24.51882">
        <ele>1013.4366720002145</ele>
      </trkpt>
      <trkpt lat="48.056053" lon="24.518621">
        <ele>1006.9655533591285</ele>
      </trkpt>
      <trkpt lat="48.05662" lon="24.518573">
        <ele>1003.1413398333464</ele>
      </trkpt>
      <trkpt lat="48.056668" lon="24.51828">
        <ele>997.322806301876</ele>
      </trkpt>
      <trkpt lat="48.056219" lon="24.517614">
        <ele>986.767178626231</ele>
      </trkpt>
      <trkpt lat="48.055556" lon="24.517497">
        <ele>983.1810397740071</ele>
      </trkpt>
      <trkpt lat="48.055326" lon="24.51674">
        <ele>971.0335615000962</ele>
      </trkpt>
      <trkpt lat="48.054727" lon="24.516123">
        <ele>966.6457025561408</ele>
      </trkpt>
      <trkpt lat="48.054104" lon="24.515142">
        <ele>966.6269531773696</ele>
      </trkpt>
      <trkpt lat="48.054211" lon="24.513757">
        <ele>944.4425838816423</ele>
      </trkpt>
      <trkpt lat="48.05339" lon="24.512146">
        <ele>929.2382271657698</ele>
      </trkpt>
      <trkpt lat="48.053741" lon="24.512066">
        <ele>919.0724713449456</ele>
      </trkpt>
      <trkpt lat="48.054552" lon="24.512941">
        <ele>913.4040789408547</ele>
      </trkpt>
      <trkpt lat="48.055075" lon="24.513563">
        <ele>904.8727748297388</ele>
      </trkpt>
      <trkpt lat="48.055355" lon="24.514051">
        <ele>906.6509435798507</ele>
      </trkpt>
      <trkpt lat="48.055785" lon="24.514206">
        <ele>907.7313575956505</ele>
      </trkpt>
      <trkpt lat="48.056668" lon="24.513949">
        <ele>906.6614003451388</ele>
      </trkpt>
      <trkpt lat="48.056825" lon="24.512994">
        <ele>886.6273619115075</ele>
      </trkpt>
      <trkpt lat="48.057371" lon="24.512978">
        <ele>879.4186176802032</ele>
      </trkpt>
      <trkpt lat="48.057852" lon="24.513718">
        <ele>880.0151022828113</ele>
      </trkpt>
      <trkpt lat="48.058238" lon="24.513707">
        <ele>873.5838193083182</ele>
      </trkpt>
      <trkpt lat="48.059117" lon="24.513386">
        <ele>861.9706389333587</ele>
      </trkpt>
      <trkpt lat="48.059389" lon="24.513133">
        <ele>858.3967080566471</ele>
      </trkpt>
      <trkpt lat="48.05915" lon="24.512932">
        <ele>854.939932516194</ele>
      </trkpt>
      <trkpt lat="48.059142" lon="24.512781">
        <ele>853.0563888768665</ele>
      </trkpt>
      <trkpt lat="48.059128" lon="24.512433">
        <ele>852.5253753726963</ele>
      </trkpt>
      <trkpt lat="48.059024" lon="24.512283">
        <ele>852.178552258997</ele>
      </trkpt>
      <trkpt lat="48.058759" lon="24.512057">
        <ele>848.3740888166103</ele>
      </trkpt>
      <trkpt lat="48.058572" lon="24.511886">
        <ele>845.8600461158213</ele>
      </trkpt>
      <trkpt lat="48.05835" lon="24.511687">
        <ele>842.7553384079479</ele>
      </trkpt>
      <trkpt lat="48.058084" lon="24.511625">
        <ele>838.1931053308931</ele>
      </trkpt>
      <trkpt lat="48.057866" lon="24.511572">
        <ele>834.3594630986548</ele>
      </trkpt>
      <trkpt lat="48.057631" lon="24.511455">
        <ele>831.422368119697</ele>
      </trkpt>
      <trkpt lat="48.057502" lon="24.511252">
        <ele>830.2707236065861</ele>
      </trkpt>
      <trkpt lat="48.057416" lon="24.511016">
        <ele>828.4862808506737</ele>
      </trkpt>
      <trkpt lat="48.057344" lon="24.510651">
        <ele>827.7288686140366</ele>
      </trkpt>
      <trkpt lat="48.057265" lon="24.510232">
        <ele>825.1143243261613</ele>
      </trkpt>
      <trkpt lat="48.057208" lon="24.509846">
        <ele>822.7639090964004</ele>
      </trkpt>
      <trkpt lat="48.057179" lon="24.509589">
        <ele>821.7793976927642</ele>
      </trkpt>
      <trkpt lat="48.057129" lon="24.509299">
        <ele>820.5362502153416</ele>
      </trkpt>
      <trkpt lat="48.056978" lon="24.509041">
        <ele>816.1951990788166</ele>
      </trkpt>
      <trkpt lat="48.056777" lon="24.509009">
        <ele>813.814847816946</ele>
      </trkpt>
      <trkpt lat="48.056505" lon="24.508999">
        <ele>811.9507218351149</ele>
      </trkpt>
      <trkpt lat="48.05624" lon="24.508805">
        <ele>810.2435129954101</ele>
      </trkpt>
      <trkpt lat="48.055981" lon="24.508559">
        <ele>808.2186508435934</ele>
      </trkpt>
      <trkpt lat="48.05573" lon="24.508215">
        <ele>804.0818388818593</ele>
      </trkpt>
      <trkpt lat="48.055451" lon="24.50784">
        <ele>800.5383757372765</ele>
      </trkpt>
      <trkpt lat="48.0552" lon="24.507572">
        <ele>800.6300170528859</ele>
      </trkpt>
      <trkpt lat="48.054952" lon="24.507421">
        <ele>799.2814387272388</ele>
      </trkpt>
      <trkpt lat="48.054752" lon="24.507314">
        <ele>798.6923551498876</ele>
      </trkpt>
      <trkpt lat="48.054508" lon="24.507024">
        <ele>792.2740439819752</ele>
      </trkpt>
      <trkpt lat="48.054379" lon="24.506756">
        <ele>786.7301729977154</ele>
      </trkpt>
      <trkpt lat="48.054185" lon="24.506467">
        <ele>786.8198543323434</ele>
      </trkpt>
      <trkpt lat="48.054035" lon="24.50622">
        <ele>790.8272879456863</ele>
      </trkpt>
      <trkpt lat="48.053798" lon="24.506005">
        <ele>795.9222298089619</ele>
      </trkpt>
      <trkpt lat="48.053497" lon="24.505909">
        <ele>794.3105557338766</ele>
      </trkpt>
      <trkpt lat="48.05321" lon="24.505866">
        <ele>791.1735130316812</ele>
      </trkpt>
      <trkpt lat="48.052937" lon="24.505757">
        <ele>788.271036216695</ele>
      </trkpt>
      <trkpt lat="48.05265" lon="24.505639">
        <ele>785.9245086370706</ele>
      </trkpt>
      <trkpt lat="48.052457" lon="24.505446">
        <ele>785.2103496582629</ele>
      </trkpt>
      <trkpt lat="48.052206" lon="24.505263">
        <ele>783.3525419359307</ele>
      </trkpt>
      <trkpt lat="48.051976" lon="24.505177">
        <ele>781.7356661775276</ele>
      </trkpt>
      <trkpt lat="48.051775" lon="24.505092">
        <ele>781.2537472000113</ele>
      </trkpt>
      <trkpt lat="48.051532" lon="24.505253">
        <ele>783.8532742523801</ele>
      </trkpt>
      <trkpt lat="48.05123" lon="24.505263">
        <ele>785.2896345892223</ele>
      </trkpt>
      <trkpt lat="48.050893" lon="24.505165">
        <ele>784.6638347506905</ele>
      </trkpt>
      <trkpt lat="48.050671" lon="24.50494">
        <ele>781.6988876841117</ele>
      </trkpt>
      <trkpt lat="48.05047" lon="24.504671">
        <ele>777.7315805830357</ele>
      </trkpt>
      <trkpt lat="48.050204" lon="24.504414">
        <ele>776.7487853903983</ele>
      </trkpt>
      <trkpt lat="48.050032" lon="24.504221">
        <ele>773.6753677855595</ele>
      </trkpt>
      <trkpt lat="48.049832" lon="24.503995">
        <ele>764.9620341691278</ele>
      </trkpt>
      <trkpt lat="48.049609" lon="24.503738">
        <ele>753.1316865691481</ele>
      </trkpt>
      <trkpt lat="48.04938" lon="24.503555">
        <ele>748.0554629105771</ele>
      </trkpt>
      <trkpt lat="48.04915" lon="24.503395">
        <ele>747.8404771038854</ele>
      </trkpt>
      <trkpt lat="48.048956" lon="24.503215">
        <ele>747.6299352022563</ele>
      </trkpt>
      <trkpt lat="48.048798" lon="24.502947">
        <ele>741.1076735991519</ele>
      </trkpt>
      <trkpt lat="48.048597" lon="24.502689">
        <ele>739.4995669495374</ele>
      </trkpt>
      <trkpt lat="48.048454" lon="24.50241">
        <ele>734.4596148930133</ele>
      </trkpt>
      <trkpt lat="48.048289" lon="24.502013">
        <ele>728.4052608345224</ele>
      </trkpt>
      <trkpt lat="48.04811" lon="24.501638">
        <ele>724.7118983512206</ele>
      </trkpt>
      <trkpt lat="48.047973" lon="24.501295">
        <ele>721.9832767023473</ele>
      </trkpt>
      <trkpt lat="48.047837" lon="24.501016">
        <ele>720.0061765940548</ele>
      </trkpt>
      <trkpt lat="48.047607" lon="24.500458">
        <ele>717.2562439111061</ele>
      </trkpt>
      <trkpt lat="48.047633" lon="24.500209">
        <ele>716.7113571194268</ele>
      </trkpt>
      <trkpt lat="48.048694" lon="24.499522">
        <ele>714.5299463111442</ele>
      </trkpt>
      <trkpt lat="48.049698" lon="24.498921">
        <ele>711.94990045764</ele>
      </trkpt>
      <trkpt lat="48.050874" lon="24.497334">
        <ele>708.791646332605</ele>
      </trkpt>
      <trkpt lat="48.051592" lon="24.495874">
        <ele>706.0467013586405</ele>
      </trkpt>
      <trkpt lat="48.052309" lon="24.494201">
        <ele>703.5314104888821</ele>
      </trkpt>
      <trkpt lat="48.052997" lon="24.492699">
        <ele>701</ele>
      </trkpt>
      <trkpt lat="48.053628" lon="24.490768">
        <ele>703.0224088686911</ele>
      </trkpt>
      <trkpt lat="48.05446" lon="24.489566">
        <ele>699.0927432637495</ele>
      </trkpt>
      <trkpt lat="48.05512" lon="24.487635">
        <ele>695.6509852965952</ele>
      </trkpt>
      <trkpt lat="48.055206" lon="24.486033">
        <ele>698.3674572217456</ele>
      </trkpt>
      <trkpt lat="48.055464" lon="24.483888">
        <ele>690.2810685768407</ele>
      </trkpt>
      <trkpt lat="48.056009" lon="24.482428">
        <ele>688.5114233118072</ele>
      </trkpt>
      <trkpt lat="48.057185" lon="24.480926">
        <ele>698.0593605341566</ele>
      </trkpt>
      <trkpt lat="48.057271" lon="24.479038">
        <ele>685.1160551861315</ele>
      </trkpt>
      <trkpt lat="48.057644" lon="24.476463">
        <ele>681.5853525602724</ele>
      </trkpt>
      <trkpt lat="48.057673" lon="24.474661">
        <ele>676.66014235386</ele>
      </trkpt>
      <trkpt lat="48.058161" lon="24.47303">
        <ele>674.915279194455</ele>
      </trkpt>
      <trkpt lat="48.058734" lon="24.471442">
        <ele>674.2304488828877</ele>
      </trkpt>
      <trkpt lat="48.059681" lon="24.47024">
        <ele>670.2007469912426</ele>
      </trkpt>
      <trkpt lat="48.060771" lon="24.468867">
        <ele>667.9129735691188</ele>
      </trkpt>
      <trkpt lat="48.06166" lon="24.467666">
        <ele>664.895972464273</ele>
      </trkpt>
      <trkpt lat="48.062549" lon="24.465949">
        <ele>678.1623756435366</ele>
      </trkpt>
      <trkpt lat="48.063897" lon="24.464747">
        <ele>661.834510916774</ele>
      </trkpt>
      <trkpt lat="48.064877" lon="24.463582">
        <ele>672.2445159066509</ele>
      </trkpt>
      <trkpt lat="48.065823" lon="24.462294">
        <ele>656.5299504343789</ele>
      </trkpt>
      <trkpt lat="48.066655" lon="24.46062">
        <ele>656.939211998256</ele>
      </trkpt>
      <trkpt lat="48.067601" lon="24.457144">
        <ele>656.6439393486994</ele>
      </trkpt>
      <trkpt lat="48.067343" lon="24.454441">
        <ele>647.3799979600008</ele>
      </trkpt>
      <trkpt lat="48.067974" lon="24.452466">
        <ele>651.7447274970729</ele>
      </trkpt>
      <trkpt lat="48.068634" lon="24.451136">
        <ele>661.7393681372173</ele>
      </trkpt>
      <trkpt lat="48.069781" lon="24.450235">
        <ele>658.2487359107048</ele>
      </trkpt>
      <trkpt lat="48.071157" lon="24.450664">
        <ele>658.1230990396552</ele>
      </trkpt>
      <trkpt lat="48.07239" lon="24.450407">
        <ele>660.5</ele>
      </trkpt>
      <trkpt lat="48.073824" lon="24.450492">
        <ele>663.670718438574</ele>
      </trkpt>
      <trkpt lat="48.074971" lon="24.449849">
        <ele>667.3468472888926</ele>
      </trkpt>
      <trkpt lat="48.076233" lon="24.450106">
        <ele>671.0480189587105</ele>
      </trkpt>
    </trkseg>
  </trk>
</gpx>
